Store Format,Store #,Store Name,Address,City,State,Zip,Phone #
Non-plus,412,Beeville H-E-B,1345 Barrow,Abilene,TX,78102-5613, (361) 358-4553
Non-plus,752,Hudson Oaks H-E-B,1211 East Frontage Rd.,Alamo,TX,76087-0, (817) 599-1299
Non-plus,593,Taylor H-E-B,1115 E. Main,Alice,TX,76574-7059, (512) 352-2015
Non-plus,257,Cleveland H-E-B,575 E. Exchange Pkwy,Allen,TX,77327-4889, (281) 592-0466
Non-plus,425,Hancock Center H-E-B,207 E. South,Alvin,TX,78751-4810, (512) 459-6513
Non-plus,231,83 and N Texas H-E-B,1239 E. Mulberry,Angleton,TX,78596-4511, (956) 968-9533
Non-plus,434,Port Lavaca H-E-B,101 E. Goodnight,Aransas Pass,TX,77979-2423, (361) 552-7523
Non-plus,333,Aransas Pass H-E-B,1000 East 41 St.,Austin,TX,78336-1919, (361) 758-5900
Non-plus,107,Ennis H-E-B,10710 Research Blvd. Ste 200,Austin,TX,75119-4519, (972) 875-7720
Non-plus,781,Wolf Lakes Village H-E-B,"11521 North Fm620, Building A",Austin,TX,78628-9999, (512) 930-5581
Non-plus,541,Beechnut H-E-B,12021 W Us 290,Austin,TX,77072-5000, (281) 564-5201
Non-plus,106,W. W. White H-E-B,12407 N. Mopac Expwy,Austin,TX,78220-2530, (210) 333-0020
Non-plus,724,Aliana Market H-E-B,12860 Research Blvd,Austin,TX,77407-8643, (281) 295-3300
Non-plus,757,Harper's Trace H-E-B,14028 North Us 183,Austin,TX,77385-0, (936) 266-1100
Non-plus,577,Kempwood and Gessner H-E-B,1801 E.51st Street,Austin,TX,77043-1803, (713) 996-0009
Non-plus,287,Crockett H-E-B,2110 West Slaughter Ln,Austin,TX,75835-1805, (936) 544-5234
Plus,582,Bastrop H-E-B plus!,2301 S.congress Ave.,Austin,TX,78602-3740, (512) 321-1011
Convenience,688,Kenedy H-E-B Convenience Store,2508 East Riverside Drive,Austin,TX,78119-0, (830) 583-0014
Non-plus,433,Burnet H-E-B,2512 E.riverside,Austin,TX,78611-3201, (512) 756-6188
Non-plus,115,Sinton H-E-B,2652 Lake Austin Blvd,Austin,TX,78387-2415, (361) 364-3270
Non-plus,494,Culebra and 1604 H-E-B,2701 East 7th,Austin,TX,78251-1320, (210) 684-1019
Non-plus,693,Kenedy H-E-B,4001 North Lamar,Austin,TX,78119-0, (830) 583-3435
Non-plus,269,North Hills H-E-B,4477 S. Lamar Blvd,Austin,TX,78759-5780, (512) 794-8221
Plus,85,Potranco and 1604 H-E-B plus!,500 Canyon Ridge Dr.,Austin,TX,78251-3312, (210) 681-2250
Central Market,653,DALLAS 02 - PRESTON/ROYAL,5800 W. Slaughter Lane,Austin,TX,75230-8818, (972) 860-6500
Non-plus,594,Indian Springs H-E-B,5808 Burnet Rd,Austin,TX,77382-2772, (281) 292-8006
Non-plus,466,Commerce and Rosillo H-E-B,6001 West Parmer Lane,Austin,TX,78207-3706, (210) 227-0447
Non-plus,475,Elgin H-E-B,6607 South Ih 35,Austin,TX,78621-2519, (512) 285-4168
Non-plus,99,Vintage Park Market H-E-B,6900 Brodie Lane,Austin,TX,77070-1667, (281) 257-4600
Non-plus,626,San Benito H-E-B,7015 Village Ctr Dr.,Austin,TX,78586-4395, (956) 399-0241
Non-plus,271,West Columbia H-E-B,7112 Ed Bluestein_#125,Austin,TX,77486-2606, (979) 345-6950
Non-plus,721,Fort Hood Stan Schlueter H-E-B,7301 N Fm 620,Austin,TX,76542-0, (254) 226-3600
Non-plus,168,Morgan and Grimes H-E-B,7901 Us-290,Austin,TX,78550-5152, (956) 428-6365
Non-plus,617,Lufkin H-E-B,8801 South Congress Avenue,Austin,TX,75901-453, (936) 639-1358
Non-plus,184,Leopard and Violet H-E-B,9414 N Lamar Blvd,Austin,TX,78410-2612, (361) 241-4228
Non-plus,223,Alice H-E-B,104 N Hasler Blvd,Bastrop,TX,78332-5046, (361) 668-6633
Plus,57,Flour Bluff H-E-B plus!,2700 Seventh,Bay City,TX,78418-4426, (361) 939-5500
Plus,463,Loop 1604 and Blanco Rd H-E-B plus!,3500 Garth Road,Baytown,TX,78248-4552, (210) 408-1641
Plus,24,Anderson Mill H-E-B plus!,6430 Garth Road,Baytown,TX,78726-1168, (512) 249-0558
Non-plus,195,Blanco and West Ave H-E-B,3025 North Dowlen Road,Beaumont,TX,78213-1343, (210) 340-7976
Convenience,719,Bandera & 1604 H-E-B Convenience Store,3590 College St,Beaumont,TX,78250-0, (210) 600-3100
Non-plus,746,Jones Crossing H-E-B,12400 W Highway 71,Bee Cave,TX,77845-4737, (979) 680-3200
Non-plus,551,Westheimer and Kirkwood H-E-B,100 East Houston St.,Beeville,TX,77077-6860, (281) 531-8646
Non-plus,674,Palmhurst H-E-B,5106 Bissonnet,Bellaire,TX,78573-5070, (956) 580-7407
Joe V's Smart Shop,646,Hwy 290 Smart Shop,801 North I-h 35,Bellmead,TX,77092-4901, (713) 683-1720
Non-plus,568,Perrin Beitel and Thousand Oaks H-E-B,2509 North Main Street,Belton,TX,78217-2116, (210) 655-9071
Non-plus,780,Nutty Brown H-E-B,2000 South Gregg,Big Spring,TX,78737-9999, (737) 610-5789
Joe V's Smart Shop,616,Antoine Smart Shop,29388 I-10 West,Boerne,TX,77066-4415, (281) 895-8668
Non-plus,403,Gatesville H-E-B,420 West Bandera Road,Boerne,TX,76528-1628, (254) 865-8491
Non-plus,421,Alamo H-E-B,2508 S. Day St.,Brenham,TX,78516-2315, (956) 702-2289
Non-plus,172,Closner and Baker H-E-B,1628 Central Blvd,Brownsville,TX,78539-5664, (956) 381-9136
Non-plus,733,Alamo Ranch H-E-B,2155 Paredes Line Rd,Brownsville,TX,78253-0, (210) 963-3102
Non-plus,136,Southland and 12th St H-E-B,2250 Boca Chica,Brownsville,TX,78550-7708, (956) 425-6677
Non-plus,791,H-E-B Willis,2950 Southmost Road,Brownsville,TX,77378-9999, (936) 272-2000
Non-plus,17,Angleton H-E-B,1609 North Texas Avenue,Bryan,TX,77515-3908, (979) 849-1215
Non-plus,404,Bee Cave H-E-B,725 E Villa Maria Rd Ste 1300,Bryan,TX,78738-6517, (512) 263-0528
Non-plus,218,Parmer and Mopac H-E-B,15300 S Ih-35,Buda,TX,78758-2475, (512) 339-1181
Non-plus,614,Summerwood Market H-E-B,165 N.w.john Jones Dr.,Burleson,TX,77044-6087, (281) 436-0987
Non-plus,395,De Zavala H-E-B,105 S Boundary,Burnet,TX,78230-1014, (210) 558-3981
Non-plus,31,Spicewood Springs H-E-B,2030 N. 1st Street,Carrizo Springs,TX,78750-3222, (512) 506-9060
Non-plus,564,Sawdust Rd and 45 H-E-B,419 Nw Loop 436,Carthage,TX,77380-2272, (281) 364-7744
Plus,642,Pharr H-E-B plus!,170 E Whitestone Blvd,Cedar Park,TX,78577-6293, (956) 781-6121
Non-plus,207,Guadalupe and Stone H-E-B,2800 East Whitestone,Cedar Park,TX,78040-5343, (956) 724-1147
Non-plus,423,Wooded Acres H-E-B,850 Fm 1103 Suite 100,Cibolo,TX,76710-4437, (254) 776-7040
Non-plus,71,Adams and 25th St H-E-B,600 W Henderson,Cleburne,TX,76504-2448, (254) 773-4145
Non-plus,716,Seguin H-E-B,100 Truly Plaza,Cleveland,TX,78155-5131, (830) 379-8384
Non-plus,741,Mont Belvieu H-E-B,11675 Fm 2154,College Station,TX,77523-0, (281) 576-3500
Non-plus,70,Abilene H-E-B,1900 Texas Avenue South,College Station,TX,79605-5171, (325) 690-5000
Non-plus,767,H-E-B Magnolia Place,949 William D.fitch Parkway,College Station,TX,77354-0, (346) 703-3104
Plus,659,Lakeline H-E-B plus!,2105 Milam,Columbus,TX,78717-5992, (512) 249-9012
Non-plus,230,Nacogdoches and O'Connor H-E-B,10200 Highway 242,Conroe,TX,78247-1979, (210) 637-1313
Non-plus,562,Rockport H-E-B,2108 North Frazier,Conroe,TX,78382-3314, (361) 729-8230
Non-plus,698,Grant and Spring Cypress H-E-B,3875 W.davis St.,Conroe,TX,77429-6286, (281) 320-3700
Central Market,55,Central Market Southlake,2990 East Hwy 190,Copperas Cove,TX,76092-6420, (817) 310-5600
Non-plus,771,211 and Potranco H-E-B,11100 Leopard,Corpus Christi,TX,78253-0, (210) 688-4662
Non-plus,236,Wells Branch H-E-B,1145 Waldron Road,Corpus Christi,TX,78660-3153, (512) 251-2584
Non-plus,612,La Vernia H-E-B,3033 South Port St.,Corpus Christi,TX,78121-5922, (830) 779-1790
Non-plus,575,Bellaire Blvd H-E-B,3133 S. Alameda,Corpus Christi,TX,77083-7520, (281) 776-0143
Non-plus,708,Wimberley H-E-B,3500 Leopard,Corpus Christi,TX,78676-6215, (512) 842-3700
Non-plus,164,Brook Hollow H-E-B,4320 S. Alameda St.,Corpus Christi,TX,78232-3714, (210) 494-3501
Non-plus,735,Marble Falls H-E-B,4444 Kostoryz,Corpus Christi,TX,78654-4902, (830) 693-3561
Non-plus,554,59 and Laurent H-E-B,5313 Saratoga,Corpus Christi,TX,77901-6220, (361) 572-8221
Non-plus,339,Livingston H-E-B,5425 S.p.i.d. At Staples,Corpus Christi,TX,77351-3003, (936) 327-6306
Non-plus,585,Austin Highway H-E-B,5801 Weber Road,Corpus Christi,TX,78218-6039, (210) 828-5076
Non-plus,477,Buda H-E-B,201 S. 15th Street,Corsicana,TX,78610-9703, (512) 312-1615
Non-plus,492,Fry Rd and I10 H-E-B,1035 Loop 304 East,Crockett,TX,77084-5813, (281) 829-0126
Non-plus,488,Portland H-E-B,514 E. Zavala,Crystal City,TX,78374-2816, (361) 643-1511
Non-plus,798,Madera Run H-E-B,909 E Broadway,Cuero,TX,77346-9999, (281) 547-6503
Non-plus,699,Nogalitos H-E-B,14100 Spring Cypress Rd,Cypress,TX,78204-2427, (210) 212-2600
Non-plus,644,Hwy 21 and N Texas Ave H-E-B,24224 Northwest Freeway,Cypress,TX,77803-1828, (979) 778-1077
Non-plus,233,Wharton H-E-B,28550 Us- 290,Cypress,TX,77488-3204, (979) 282-2773
Non-plus,497,Mason Rd H-E-B,9722 Fry Road,Cypress,TX,77450-4564, (281) 599-0045
Non-plus,263,Central Blvd H-E-B,10720 Preston Rd   Suite 1018,Dallas,TX,78520-8327, (956) 541-4816
Mi Tienda,66,Mi Tienda 1,4101 W. Wheatland Road,Dallas,TX,77587-3752, (713) 941-7550
Plus,16,Burleson H-E-B plus!,4349 W. Northwest Highway,Dallas,TX,76028-5154, (817) 447-7484
Non-plus,74,New Braunfels H-E-B at Hwy 46,5750 East Lovers Lane,Dallas,TX,78130-4753, (830) 626-0937
Non-plus,750,H-E-B Mansfield,4701 East Blvd,Deer Park,TX,76063-0, (682) 400-8756
Non-plus,383,Port Isabel H-E-B,200 Veteran's Blvd,Del Rio,TX,78578-2806, (956) 943-1171
Non-plus,373,620 and O'Connor H-E-B,500 Pecan,Del Rio,TX,78681-3922, (512) 238-7909
Non-plus,265,Hwy 183 and Whitestone Blvd H-E-B,813 Miller,Donna,TX,78613-1900, (512) 259-5500
Plus,591,Round Rock H-E-B plus!,598 E.hwy Us 290,Dripping Springs,TX,78664-4677, (512) 388-2649
Non-plus,630,Montrose Market H-E-B,2135 E. Main,Eagle Pass,TX,77098-2807, (713) 529-2475
Non-plus,728,Huntsville H-E-B,1212 S Closner Blvd,Edinburg,TX,77340-3723, (936) 291-6994
Non-plus,760,Manvel H-E-B,2700 W Freddy Gonzales,Edinburg,TX,77578-0, (281) 305-3949
Non-plus,732,Bulverde and 1604 H-E-B,301 N. Wells St,Edna,TX,78247-0, (210) 642-4700
Convenience,739,Bulverde & 1604 Convenience Store,306 N. Mechanic,El Campo,TX,78247-0, (210) 642-4791
Plus,415,Schertz H-E-B plus!,1080 East Hwy 290,Elgin,TX,78154-1264, (210) 651-5105
Non-plus,639,Mueller H-E-B,512 E. Edinburg Ave.,Elsa,TX,78723-3014, (512) 474-2199
Non-plus,397,281 and 1604 H-E-B,101 S. Clay St,Ennis,TX,78232-1421, (210) 490-4931
Plus,672,Valley Mills H-E-B plus!,700 S Saint Marys St,Falfurrias,TX,76711-2119, (254) 710-9400
Non-plus,641,Gonzales H-E-B,909 10th Street,Floresville,TX,78629-2406, (830) 672-7595
Non-plus,769,El Dorado H-E-B,925 10th Street,Floresville,TX,77598-0, (281) 488-1601
Non-plus,543,Texas Avenue H-E-B,3451 Heritage Trace Parkway,Fort Worth,TX,77840-3914, (979) 693-0361
Plus,95,Laredo H-E-B plus!,4651 West Freeway,Fort Worth,TX,78045-6596, (956) 764-5000
Plus,19,Lytle H-E-B plus!,407 South Adams,Fredericksburg,TX,78052-3622, (830) 772-5021
Convenience,782,H-E-B Fresh Bites Convenience Store,701 West Parkwood,Friendswood,TX,78628-9999, (512) 843-4984
Non-plus,774,H-E-B at Ronald Reagan Blvd,4800 Main Street,Frisco,TX,78628-0, (512) 843-4902
Non-plus,759,H-E-B Market at Northpark,899 University Dr.,Frisco,TX,77339-0, (281) 312-8889
Non-plus,372,Oak Park H-E-B,1207 E.main,Gatesville,TX,78209-2217, (210) 930-3707
Convenience,651,H-E-B Fresh Bites Convenience Store,1010 W. University Ave.,Georgetown,TX,78052-0, (830) 772-3652
Non-plus,563,Riverpark H-E-B,19344 Ronald W. Reagan Blvd.,Georgetown,TX,77479-6505, (281) 239-2050
Non-plus,571,Conway & Griffin Pkwy H-E-B,19348 Ronald W.reagan Blvd,Georgetown,TX,78572-2912, (956) 424-7908
Non-plus,702,South 2nd Street H-E-B,4500 Williams Drive,Georgetown,TX,78501-2951, (956) 630-2913
Non-plus,418,Avenue F and Gibbs H-E-B,1841 Church St.,Gonzales,TX,78840-4658, (830) 774-5666
Non-plus,455,West Hopkins H-E-B,3804 Us Hwy 377,Granbury,TX,78666-5615, (512) 396-0100
Non-plus,714,Lakeway H-E-B,5000 32nd Street,Groves,TX,78734-6238, (512) 599-5800
Non-plus,51,Big Spring H-E-B,601 Indian Trail,Harker Heights,TX,79720-5437, (432) 263-3000
Non-plus,441,Uvalde H-E-B,1103 Morgan Blvd,Harlingen,TX,78801-5638, (830) 278-3352
Non-plus,479,Pflugerville H-E-B,1213 S. Commerce,Harlingen,TX,78660-8045, (512) 251-0002
Non-plus,238,Corsicana H-E-B,613 S Expwy 83,Harlingen,TX,75110-5138, (903) 874-4778
Non-plus,355,Yoakum H-E-B,801 N Expressway 77,Harlingen,TX,77995-2719, (361) 293-5281
Non-plus,671,Carrizo Springs H-E-B,609 19th Street,Hondo,TX,78834-2028, (830) 876-3521
Non-plus,725,Champion Forest Market H-E-B,10100 Beechnut,Houston,TX,77379-8693, (832) 717-5600
Non-plus,234,Refugio H-E-B,10251 Kempwood,Houston,TX,78377-2303, (361) 526-5381
Non-plus,288,Alvin H-E-B,10919 Louetta Rd,Houston,TX,77511-3553, (281) 585-5188
Plus,622,Bulverde H-E-B plus!,11815 Westheimer,Houston,TX,78070-6270, (830) 438-3000
Non-plus,370,Mercedes H-E-B,12009 Northwest Freeway,Houston,TX,78570-2746, (956) 514-0003
Plus,108,281 and Evans Road H-E-B plus!,12035 Antoine,Houston,TX,78258-7587, (210) 491-2400
Non-plus,570,35 and Del Mar H-E-B,12680 W.lake Houston Pkwy,Houston,TX,78041-2205, (956) 712-3005
Non-plus,256,Columbus H-E-B,14498 Bellaire,Houston,TX,78934-3013, (979) 732-6253
Non-plus,595,N Frazier At Loop 336 H-E-B,1550 Fry Rd,Houston,TX,77301-1220, (936) 756-1430
Non-plus,227,Slaughter and Manchaca H-E-B,1701 West Alabama St,Houston,TX,78748-5992, (512) 282-0182
Non-plus,556,Deco District H-E-B,2300 N. Shepherd Dr.,Houston,TX,78201-4407, (210) 737-2047
Non-plus,610,Spring Market H-E-B,2929 Fm1960 Rd.,Houston,TX,77388-3412, (281) 907-7900
Non-plus,189,El Mercado H-E-B,"3111 Woodridge, Suite 500",Houston,TX,78228-6308, (210) 737-1027
Non-plus,419,Eagle Pass H-E-B,3131 Campbell,Houston,TX,78852-4718, (830) 773-0345
Non-plus,587,Kingsland H-E-B,3501 Clear Lake City Blvd,Houston,TX,78639-6105, (325) 388-4601
Non-plus,6,Stephenville H-E-B,3663 Washington Ave. Ste. 100,Houston,TX,76401-3928, (254) 965-7063
Plus,446,Paredes and Torres H-E-B plus!,3800 Little York Rd,Houston,TX,78521-1609, (956) 574-9701
Non-plus,411,Pleasanton H-E-B,3815 Westheimer,Houston,TX,78064-4221, (830) 281-8172
Convenience,588,Mission H-E-B Convenience Store,4955 Beechnut Street,Houston,TX,78572-2968, (956) 424-7947
Non-plus,620,Pearsall H-E-B,4955 Hwy 6 N,Houston,TX,78061-6630, (830) 334-3374
Non-plus,489,Boca Chica H-E-B,5225 Buffalo Speedway,Houston,TX,78521-2216, (956) 541-1251
Non-plus,737,The Heights H-E-B,5609 Uvalde Rd,Houston,TX,77008-0, (713) 802-8100
Non-plus,755,South Congress H-E-B,5895 San Felipe Street,Houston,TX,78704-0, (737) 610-6060
Non-plus,186,Saunders St H-E-B,6055 South Freeway,Houston,TX,78041-5435, (956) 724-1128
Non-plus,586,Zapata Highway H-E-B,6100 W Fuqua,Houston,TX,78046-6563, (956) 795-0207
Non-plus,727,Richmond Market H-E-B,612 N Victory Drive,Houston,TX,77469-2509, (832) 595-5337
Non-plus,658,The Market at Stone Oak,7755 West Bellfort St,Houston,TX,78258-0, (210) 482-3300
Plus,94,Mission H-E-B plus!,9503 Jones Road,Houston,TX,78572-8354, (956) 205-6700
Non-plus,566,Leon Springs H-E-B,9710 Katy Freeway,Houston,TX,78257-1161, (210) 687-1007
Non-plus,20,Cypress Market H-E-B,9828 Blackhawk Blvd.,Houston,TX,77429-5683, (281) 758-1100
Non-plus,35,Orange H-E-B,100 Hudson Oaks Dr,Hudson Oaks,TX,77630-2332, (409) 883-5105
Non-plus,797,Katy Park H-E-B,16000 Woodland Hills Drive,Humble,TX,77493-0, (281) 547-1365
Non-plus,673,University Blvd H-E-B,7405 Fm 1960 East,Humble,TX,78665-1044, (512) 864-8000
Non-plus,711,Odessa H-E-B University Blvd,1702 11th St.,Huntsville,TX,79764-7155, (432) 368-8400
Plus,91,Riverside H-E-B plus!,5000 Gattis School Rd,Hutto,TX,78741-3037, (512) 448-3544
Non-plus,414,Brenham H-E-B,5008 Gattis School Road,Hutto,TX,77833-5521, (979) 277-9858
Plus,39,Belton H-E-B plus!,2616 State Highway 361,Ingleside,TX,76513-1519, (254) 939-0856
Plus,581,Trimmier H-E-B plus!,1621 Mason Road,Katy,TX,76542-1910, (254) 526-9674
Convenience,628,Riverside H-E-B Convenience Store,24924 Morton Ranch Rd,Katy,TX,78741-3037, (512) 448-3513
Non-plus,615,Katy Market H-E-B,25675 Nelson Way,Katy,TX,77494-5904, (281) 574-1800
Non-plus,171,Ingleside H-E-B,4107 North Fry Road,Katy,TX,78362-4202, (361) 776-7510
Non-plus,686,Creekside Park H-E-B,4950 Fm 1463,Katy,TX,77375-1478, (281) 205-6500
Non-plus,768,Lake Austin H-E-B,6711 South Fry Road,Katy,TX,78703-0, (737) 610-6321
Non-plus,292,Bay City H-E-B,105 N.sunset Strip,Kenedy,TX,77414-5305, (979) 245-2990
Non-plus,431,Edinburg H-E-B,107 N. Sunset Strip,Kenedy,TX,78539-7312, (956) 383-4083
Non-plus,465,7th Street H-E-B,300 W. Main St.,Kerrville,TX,78702-3907, (512) 478-7328
Non-plus,675,Pearland Market H-E-B,313 Sidney Baker South,Kerrville,TX,77581-5346, (281) 412-8700
Non-plus,697,League City Market H-E-B,1101 W. Stan Schlueter Loop,Killeen,TX,77573-3360, (281) 334-3758
Non-plus,580,Parmer and Whitestone H-E-B,"2511 Trimmier Rd, Suite 100",Killeen,TX,78613-7273, (512) 528-0027
Plus,63,Pearland H-E-B plus!,215 Ranch Road 2900,Kingsland,TX,77584-2191, (713) 578-6100
Non-plus,574,Tomball Pkwy and Graham H-E-B,409 E. Kleberg,Kingsville,TX,77375-4546, (281) 255-2250
Non-plus,656,Fairfield Market H-E-B,19529 Northpark Dr.,Kingwood,TX,77433-4288, (281) 256-6339
Joe V's Smart Shop,731,FM 1960 Smart Shop,4517 Kingwood Drive,Kingwood,TX,77073-0, (281) 784-4200
Non-plus,398,Thousand Oaks H-E-B,5401 South Fm 1626,Kyle,TX,78247-3312, (210) 491-9508
Non-plus,793,Fair Oaks H-E-B,450 E. Travis,La Grange,TX,78006-0, (830) 368-4777
Non-plus,332,Southmost and 30th H-E-B,14414 Us Hwy 87 West,La Vernia,TX,78521-4787, (956) 541-8406
Non-plus,28,Bay Colony H-E-B,97 Oyster Creek Driv,Lake Jackson,TX,77573-6750, (281) 337-5142
Plus,694,New Braunfels H-E-B plus!,2000 Ranch Road 620 S,Lakeway,TX,78130-4678, (830) 312-5700
Plus,668,Copperas Cove H-E-B plus!,705 S. Key Ave.,Lampasas,TX,76522-2515, (254) 547-6333
Non-plus,385,Olmos Park H-E-B,1301 Guadalupe St.,Laredo,TX,78212-1958, (210) 829-7373
Non-plus,770,Kerrville H-E-B On Main Street,1911 Ne Bob Bullock Loop,Laredo,TX,78028-0, (830) 896-3600
Non-plus,182,Market Place H-E-B,210 West Del Mar Boulevard,Laredo,TX,76502-1802, (254) 778-4820
Non-plus,351,Edna H-E-B,2310 E Saunders St,Laredo,TX,77957-2728, (361) 782-5218
Plus,48,Beaumont H-E-B plus!,2314 South Zapata Highway,Laredo,TX,77706-7213, (409) 866-2007
Non-plus,462,S Port and Tarlton H-E-B,4801 San Dario,Laredo,TX,78405-2040, (361) 883-6002
Non-plus,584,El Campo H-E-B,7811 Mcpherson Rd.,Laredo,TX,77437-4420, (979) 578-8601
Non-plus,22,Robstown H-E-B,2755 E.league City Parkway,League City,TX,78380-3352, (361) 387-4507
Non-plus,485,83 and Westgate H-E-B,2955 South Gulf Freeway,League City,TX,78596-2700, (956) 447-5901
Non-plus,540,Gulfgate H-E-B,651 N. Us Hwy 183,Leander,TX,77087-2558, (713) 847-0025
Non-plus,655,Kerrville H-E-B on Sidney Baker St,1509 W. Church,Livingston,TX,78028-5916, (830) 896-8030
Non-plus,90,CAFE ON THE RUN,403 South Colorado Street,Lockhart,TX,77080-0, (713) 690-3028
Non-plus,413,Alameda / Texan Trail (Medical District),4405 114th Street,Lubbock,TX,78404-2505, (361) 855-3031
Central Market,546,Central Market Plano,111 North Timberland Drive,Lufkin,TX,75075-5712, (469) 241-8300
Non-plus,464,Luling H-E-B,320 Pierce,Luling,TX,78648-2427, (830) 875-3831
Non-plus,212,N 10th and Fern H-E-B,819 N Main St,Lumberton,TX,78501-1926, (956) 631-7138
Non-plus,52,Sherwood Avenue N H-E-B,19337 Mcdonald Street,Lytle,TX,76901-3528, (325) 942-9044
Non-plus,444,Military and Goliad H-E-B,"19561 S Fm 2790 W, Suite 1",Lytle,TX,78223-3814, (210) 333-1441
Non-plus,382,West Wadley H-E-B,13663 Fm 1488,Magnolia,TX,79707-5714, (432) 697-1471
Non-plus,86,Gulfway Drive H-E-B,7988 Fm 1488,Magnolia,TX,77642-3671, (409) 985-9723
Non-plus,801,H-E-B Alliance,1670 E. Broad St.,Mansfield,TX,76177-7505, (682) 708-1623
Non-plus,701,H-E-B SPECIALTY PHARMACY,17119 Highway 6,Manvel,TX,78201-3848, (877) 432-9355
Joe V's Smart Shop,645,Baytown Smart Shop,1503 Fm 1431,Marble Falls,TX,77521-3813, (281) 420-4047
Non-plus,253,Leopard and Nueces Bay H-E-B,435 Live Oak,Marlin,TX,78408-3204, (361) 882-9864
Non-plus,713,Clear Lake Marketplace H-E-B,601 E. San Patricio,Mathis,TX,77059-2511, (281) 212-8800
Non-plus,662,Texas City H-E-B,200 Us Expressway 83,Mcallen,TX,77590-6548, (409) 948-9500
Non-plus,705,Spring Creek Market H-E-B,3200 N. 10th Street,Mcallen,TX,77386-4343, (281) 528-2380
Non-plus,692,Beaumont 6 H-E-B,3601 Pecan,Mcallen,TX,77701-0, (409) 980-5800
Non-plus,638,North Woodlands Market H-E-B,901 Trenton Rd,Mcallen,TX,77384-3943, (936) 271-2730
Non-plus,334,Pecan and Ware H-E-B,8700 Eldorado Parkway,Mckinney,TX,78501-3512, (956) 971-9881
Non-plus,744,Buffalo Heights H-E-B On Washington Ave,209 N. Texas,Mercedes,TX,77007-0, (832) 673-3100
Non-plus,678,Valley Hi H-E-B,701 E. Milam Street,Mexia,TX,78227-4602, (210) 674-3710
Non-plus,34,Gattis School H-E-B Round Rock,3325 West Wadley,Midland,TX,78664-4642, (512) 341-3775
Convenience,101,Gattis School Rd H-E-B Convenience Store,5407 Andrews Highway,Midland,TX,78664-9730, (512) 246-3215
Mi Tienda,648,Mi Tienda 2,200 East Griffin,Mission,TX,77093-3616, (713) 697-0847
Non-plus,387,42nd St. H-E-B,2216 North Conway,Mission,TX,79762-5947, (432) 362-4500
Non-plus,64,19th and Meridian H-E-B,2409 East Expressway 83,Mission,TX,76708-1675, (254) 752-0359
Non-plus,631,Granbury H-E-B,820 S. Conway,Mission,TX,76049-7428, (817) 579-2500
Central Market,491,Central Market Houston,4724 Hwy 6,Missouri City,TX,77027-5003, (713) 386-1700
Non-plus,660,Conroe Market H-E-B,8900 Hwy 6,Missouri City,TX,77304-1837, (936) 760-6800
Central Market,61,Central Market North Lamar,13401 I-10 East,Mont Belvieu,TX,78756-3733, (512) 206-1000
Non-plus,445,Lockhart H-E-B,1655 W State Highway 46,New Braunfels,TX,78644-2702, (512) 398-2301
Plus,13,Rio Grande City H-E-B plus!,2965 Ih35 North,New Braunfels,TX,78582-4815, (956) 488-8439
Non-plus,429,Raymondville H-E-B,651 S.walnut,New Braunfels,TX,78580-3532, (956) 689-6556
Non-plus,561,Fredericksburg H-E-B,2501 W University Blvd,Odessa,TX,78624-4146, (830) 997-9950
Non-plus,401,Kingsville H-E-B,3801 E 42nd,Odessa,TX,78363-3872, (361) 595-0243
Plus,26,McCreless Market H-E-B plus!,2424 N.16th Street,Orange,TX,78223-1717, (210) 531-3100
Joe V's Smart Shop,803,Wheatland Smart Shop,120 E. Mile 3 Rd,Palmhurst,TX,75237-9999, (214) 484-3592
Joe V's Smart Shop,792,Katy Smart Shop,6010 W Expressway 83,Palmview,TX,77449-0, (281) 456-4250
Non-plus,211,New Braunfels and Houston H-E-B,4203 Red Bluff Road,Pasadena,TX,78202-3050, (210) 226-8531
Non-plus,458,Carthage H-E-B,6210 Fairmont Pkwy,Pasadena,TX,75633-9275, (903) 693-4952
Plus,621,Boerne H-E-B plus!,2710 Pearland Parkway,Pearland,TX,78006-2523, (830) 816-2394
Joe V's Smart Shop,753,Pasadena Smart Shop,2805 Business Center Drive,Pearland,TX,77503-0, (281) 478-8400
Non-plus,348,Santa Fe H-E-B,225 South Ih 35,Pearsall,TX,77510-8615, (409) 925-5186
Non-plus,210,Alameda and Robert H-E-B,1434 Wells Branch Pkwy,Pflugerville,TX,78412-2412, (361) 993-4840
Central Market,747,Central Market Midway,201 N Fm 685,Pflugerville,TX,75220-0, (469) 697-7800
Non-plus,104,Marlin H-E-B,1300 South Cage Blvd.,Pharr,TX,76661-2367, (254) 803-5501
Non-plus,772,Lubbock H-E-B,320 Coit Road,Plano,TX,79424-0, (806) 698-5900
Non-plus,643,Kostoryz and Gollihar H-E-B,6001 Preston Road Suite 100,Plano,TX,78415-5021, (361) 853-9831
Central Market,420,Central Market Westgate,219 W Oaklawn,Pleasanton,TX,78745-1409, (512) 899-4300
Non-plus,416,La Grange H-E-B,3401 Gulfway Dr.,Port Arthur,TX,78945-2655, (979) 968-8381
Non-plus,487,Williams Drive H-E-B,4800 B Hwy 365,Port Arthur,TX,78628-0, (512) 863-4427
Non-plus,720,Kingwood Market H-E-B,1679 Highway 100,Port Isabel,TX,77345-2621, (281) 361-0342
Central Market,545,Central Market Fort Worth,101 Calhoun Plaza,Port Lavaca,TX,76107-5489, (817) 989-4700
Non-plus,715,Deer Park H-E-B,1600 Wildcat Drive,Portland,TX,77536-5404, (281) 930-0326
Non-plus,474,Lake Colony H-E-B,405 W. Hildalgo,Raymondville,TX,77459-4180, (281) 403-2172
Non-plus,589,Mid County H-E-B,206 S. Alamo,Refugio,TX,77642-7403, (409) 722-1369
Non-plus,789,H-E-B Frisco Main St,10161 W Grand Parkway S,Richmond,TX,75033-0, (469) 473-4419
Non-plus,255,35 and Calton H-E-B,23500 Circle Oak Parkway,Richmond,TX,78041-5754, (956) 725-3061
Central Market,191,Broadway Central Market,9211 Fm 723 Rd,Richmond,TX,78209-5703, (210) 368-8600
Non-plus,736,Cross Creek Ranch H-E-B,4031 East Hwy 83,Rio Grande City,TX,77494-5426, (346) 387-7200
Non-plus,745,Meyerland Market H-E-B,308 E. Main,Robstown,TX,77096-4001, (713) 662-4000
Non-plus,553,Bear Creek H-E-B,1409 Hwy 35 North Business,Rockport,TX,77084-2718, (281) 859-9381
Non-plus,476,Tech Ridge H-E-B,16900 Ranch Road 620,Round Rock,TX,78753-1632, (512) 973-8143
Non-plus,88,Pecan and Greenwood H-E-B,1700 East Palm Valley Blvd,Round Rock,TX,78840-5824, (830) 774-2596
Non-plus,53,Groves H-E-B,250 University Blvd.,Round Rock,TX,77619-2725, (409) 962-0142
Plus,696,Gattis School H-E-B plus! Hutto,3750 Gattis School Rd,Round Rock,TX,78634-2025, (737) 484-0700
Convenience,729,Hutto H-E-B Convenience Store,3780 Gattis School Road,Round Rock,TX,78634-0, (512) 520-1200
Non-plus,738,Bellaire Market H-E-B,603 Louis Henna Blvd. Bldg A,Round Rock,TX,77401-4019, (713) 218-1600
Non-plus,677,Elsa H-E-B,3301 Sherwood Way,San Angelo,TX,78543-9800, (956) 262-1501
Non-plus,117,Crystal City H-E-B,5502 Sherwood Way,San Angelo,TX,78839-2936, (830) 374-2305
Non-plus,718,South Flores Market H-E-B,1015 S.w.w. White Road,San Antonio,TX,78204-1217, (210) 444-1879
Non-plus,599,Buffalo Market H-E-B On Buffalo Speedway,10660 West Fm 471,San Antonio,TX,77005-4210, (713) 218-1800
Non-plus,748,H-E-B Market at Gosling,10718 Potranco Road,San Antonio,TX,77388-0, (281) 323-6400
Non-plus,627,Sugar Land Market H-E-B,108 N Rosillo,San Antonio,TX,77478-4947, (281) 494-3690
Plus,69,Staples and Saratoga H-E-B plus!,1150 Nw Loop 1604,San Antonio,TX,78413-2816, (361) 980-0993
Plus,14,Kyle H-E-B plus!,11551 West Ave.,San Antonio,TX,78640-6038, (512) 268-7900
Non-plus,717,Midland Loop 250 H-E-B,11652 Bandera Rd,San Antonio,TX,79706-2851, (432) 699-8201
Non-plus,270,Moore Plaza H-E-B,12018 Perrin Beitel Road,San Antonio,TX,78411-5301, (361) 991-2695
Non-plus,734,Sherwood & FM 2288 H-E-B,12125 Alamo Ranch Pkwy,San Antonio,TX,76901-0, (325) 223-3101
Non-plus,262,Marketplace H-E-B,12777 Ih 10 West,San Antonio,TX,78238-1986, (210) 647-2700
Joe V's Smart Shop,640,Uvalde Smart Shop,14087 O'connor Rd,San Antonio,TX,77049-4523, (281) 454-6947
Non-plus,796,H-E-B Allen,14325 Potranco Rd.,San Antonio,TX,75002-0, (469) 656-9401
Central Market,552,Central Market Lovers Lane,15000 San Pedro,San Antonio,TX,75206-2921, (214) 234-7000
Non-plus,68,Slaughter and Escarpment H-E-B,1520 Austin Hwy,San Antonio,TX,78749-6507, (512) 301-9770
Non-plus,139,Weber and Holly H-E-B,1601 Nogalitos,San Antonio,TX,78413-3966, (361) 854-1911
Non-plus,202,Burnet Rd H-E-B,17238 Bulverde Road,San Antonio,TX,78756-1100, (512) 453-8864
Non-plus,687,San Felipe H-E-B,17439 Classen Rd.,San Antonio,TX,77057-3061, (713) 278-8450
Non-plus,618,Babcock H-E-B,18140 San Pedro,San Antonio,TX,78240-2136, (210) 641-6403
Non-plus,611,Dripping Springs H-E-B,1955 Nacogdoches,San Antonio,TX,78620-5482, (512) 858-2972
Non-plus,679,Cleburne H-E-B,20935 Us Highway 281 North,San Antonio,TX,76033-4830, (817) 641-6203
Non-plus,389,West Ave and Jackson Keller H-E-B,2118 Fredericksburg Rd,San Antonio,TX,78213-2714, (210) 341-7289
Non-plus,790,H-E-B Plano,2130 Culebra,San Antonio,TX,75093-0, (469) 395-0660
Non-plus,388,Parmer and McNeil H-E-B,23635 Wilderness Oak,San Antonio,TX,78727-3901, (512) 249-0400
Non-plus,160,Mathis H-E-B,"24165 I-h 10 West, Suite 300",San Antonio,TX,78368-2428, (361) 547-3233
Non-plus,381,Harker Heights H-E-B,2929 Thousand Oaks,San Antonio,TX,76548-1347, (254) 699-8411
Non-plus,448,Palmview H-E-B,300 Olmos Drive,San Antonio,TX,78572-9139, (956) 585-3161
Non-plus,495,Louis Henna Blvd H-E-B,3323 Se Military Dr.,San Antonio,TX,78664-7186, (512) 828-0806
Non-plus,384,Montgomery at Walzem,"3485 Fredericksburg Rd,suite 4",San Antonio,TX,78239-3233, (210) 657-2944
Non-plus,756,MacGregor Market H-E-B,368 Valley Hi Drive,San Antonio,TX,77004-0, (713) 285-2600
Non-plus,424,Hondo H-E-B,4100 South New Braunfels,San Antonio,TX,78861-2504, (830) 426-4349
Joe V's Smart Shop,559,Fuqua Smart Shop,415 N. New Braunfels,San Antonio,TX,77085-0, (713) 413-9300
Plus,92,Victoria H-E-B plus!,4821 Broadway,San Antonio,TX,77904-1767, (361) 578-9891
Joe V's Smart Shop,649,Victory Smart Shop,516 S Flores Street,San Antonio,TX,77088-6388, (281) 847-0996
Non-plus,291,83 and Lincoln H-E-B,5601 Bandera Road,San Antonio,TX,78550-5905, (956) 425-7491
Non-plus,473,Fairmont Pkwy H-E-B,5910 Babcock Rd,San Antonio,TX,77505-4027, (281) 487-1946
Non-plus,243,East Hopkins H-E-B,6000 West Avenue,San Antonio,TX,78666-7055, (512) 396-8880
Non-plus,742,Baytown H-E-B,6030 Montgomery Road,San Antonio,TX,77521-9638, (281) 421-5300
Plus,592,Leander H-E-B plus!,6580 F.m. 78,San Antonio,TX,78641-7001, (512) 528-7700
Non-plus,775,New Braunfels H-E-B at Walnut,6818 South Zarzamora,San Antonio,TX,78130-5722, (830) 608-0017
Non-plus,294,Foster Rd H-E-B,6839 San Pedro,San Antonio,TX,78244-1300, (210) 666-2022
Non-plus,229,I 35 and William Cannon H-E-B,7004 S.zarzamora,San Antonio,TX,78744-3410, (512) 441-9266
Plus,596,Grand Parkway H-E-B plus!,721 Castroville Rd,San Antonio,TX,77494-8100, (281) 392-9500
Plus,84,Zarzamora and Military H-E-B plus!,735 Sw Military,San Antonio,TX,78224-1136, (210) 927-5334
Non-plus,178,San Pedro and Oblate H-E-B,7951 Guilbeau Rd.,San Antonio,TX,78216-7202, (210) 342-2745
Non-plus,428,Brodie Lane H-E-B,8219 Marbach,San Antonio,TX,78745-5008, (512) 891-8900
Non-plus,200,Falfurrias H-E-B,8300 Floyd Curl Dr.ste 105,San Antonio,TX,78355-4365, (361) 325-3604
Convenience,111,Military at Zarzamora H-E-B Convenience Store,8503 Nw Military Hwy,San Antonio,TX,78224-1118, (210) 932-9275
Non-plus,29,Westlake H-E-B,9238 N.loop 1604 West,San Antonio,TX,78746-5256, (512) 732-9930
Non-plus,467,Mexia H-E-B,9255 Grissom Rd,San Antonio,TX,76667-2445, (254) 562-5305
Non-plus,558,Friendswood H-E-B,9900 Wurzbach,San Antonio,TX,77546-5405, (281) 996-9967
Non-plus,96,Far West H-E-B,999 East Basse Road,San Antonio,TX,78731-3023, (512) 502-8445
Non-plus,432,Lampasas H-E-B,Sw Military Drive,San Antonio,TX,76550-3114, (512) 556-3461
Non-plus,161,Ed Bluestein H-E-B,1095 West Business 77,San Benito,TX,78723-2924, (512) 926-1491
Non-plus,205,Las Palmas H-E-B,901 West Expressway 83,San Juan,TX,78237-3134, (210) 432-0949
Non-plus,544,Tejas Center H-E-B,200 West Hopkins St.,San Marcos,TX,77802-5320, (979) 779-8905
Non-plus,451,Four Points H-E-B,641 East Hopkins Street,San Marcos,TX,78726-4539, (512) 336-7700
Non-plus,576,Louetta and Stuebner H-E-B,4206 Avenue T,Santa Fe,TX,77379-7234, (281) 374-7727
Non-plus,427,Military and Pleasanton H-E-B,17460 I.h. 35 North,Schertz,TX,78221-1642, (210) 927-6825
Non-plus,498,Atascocita H-E-B,1340 E Court St,Seguin,TX,77346-3128, (281) 812-4357
Joe V's Smart Shop,667,Bellfort Smart Shop,106 S. San Patricio,Sinton,TX,77071-2104, (713) 721-0100
Non-plus,449,McPherson Rd H-E-B,1630 Spencer Hwy,South Houston,TX,78045-2802, (956) 712-2459
Non-plus,765,Oak Hill H-E-B,1425 E. Southlake,Southlake,TX,78736-8300, (512) 288-5440
Non-plus,224,Bandera and Guilbeau H-E-B,130 Sawdust Road,Spring,TX,78250-3232, (210) 523-0296
Non-plus,722,Magnolia Market H-E-B,20311 Champion Forest Drive,Spring,TX,77354-1611, (832) 934-3400
Non-plus,426,Waxahachie H-E-B,2121 Fm 2920,Spring,TX,75165-1884, (972) 923-2283
Non-plus,654,CM ECOMMERCE,3540 Rayford Rd,Spring,TX,78552-0, (999) 999-9999
Plus,557,35 and 84 H-E-B plus!,5251 Fm 2920,Spring,TX,76705-2874, (254) 799-0253
Non-plus,9,Donna H-E-B,7310 Louetta,Spring,TX,78537-3148, (956) 464-3471
Non-plus,116,Lumberton H-E-B,20725 Hwy 46 West,Spring Branch,TX,77657-7358, (409) 755-2501
Non-plus,226,Conway and 9th St H-E-B,2150 W. Washington,Stephenville,TX,78572-5362, (956) 581-2154
Plus,613,Marbach and 410 H-E-B plus!,19900 Southwest Fwy,Sugar Land,TX,78227-1652, (210) 673-4900
Non-plus,647,H-E-B Compounding Pharmacy at the MARC,530 Hwy 6,Sugar Land,TX,78229-3931, (210) 593-0291
Non-plus,785,H-E-B Cibolo,100 N.w.carlos G.parker Bl#101,Taylor,TX,78108-9999, (210) 507-2501
Non-plus,102,Alon Market H-E-B,1314 West Adams,Temple,TX,78231-1841, (210) 479-4300
Non-plus,794,H-E-B McKinney,3002 S 31 St,Temple,TX,75070-9999, (469) 631-7483
Non-plus,710,Slaughter and South Congress H-E-B,3502 Palmer Highway,Texas City,TX,78745-0, (737) 236-8348
Non-plus,110,Sienna Market H-E-B,10777 Kuykendahl Road,The Woodlands,TX,77459-6931, (281) 778-1300
Non-plus,802,H-E-B Hwy 380 & FM 423,3601 Fm 1488,The Woodlands,TX,75033-9999, (999) 999-9999
Non-plus,590,10th and Trenton H-E-B,9595 Six Pines Rd,The Woodlands,TX,78504-7705, (956) 618-0073
Plus,38,San Juan H-E-B plus!,26500 Kuykendahl Rd,Tomball,TX,78589-3734, (956) 781-0554
Convenience,79,Floresville H-E-B Convenience Store,28520 Tomball Parkway,Tomball,TX,78114-1851, (830) 393-8908
Non-plus,712,Cuero H-E-B,910 Kitty Hawk Road,Universal City,TX,77954-2126, (361) 275-6144
Non-plus,555,Kitty Hawk H-E-B,201 East Main,Uvalde,TX,78148-3806, (210) 945-2102
Plus,583,Woodway H-E-B plus!,1505 East Rio Grande,Victoria,TX,76712-3371, (254) 751-0239
Non-plus,749,Spring Green Market H-E-B,6106 N. Navarro,Victoria,TX,77406-0, (346) 239-3500
Plus,623,Bandera and 1604 H-E-B plus!,1301 Wooded Acres,Waco,TX,78249-2577, (210) 682-0165
Non-plus,25,Floresville H-E-B,1821 South Valley Mills Dr.,Waco,TX,78114-1851, (830) 393-8105
Non-plus,235,Grissom and Tezel H-E-B,3801 N 19th St.,Waco,TX,78251-2805, (210) 681-5071
Non-plus,183,Lamar and Rundberg H-E-B,800 Hwy 77,Waxahachie,TX,78753-4106, (512) 835-5400
Non-plus,619,Tower Point Market H-E-B,18611 Eastfield Dr,Webster,TX,77845-4638, (979) 690-4940
Non-plus,657,Jones and West H-E-B,1004 N. Texas,Weslaco,TX,77065-4814, (281) 894-5361
Non-plus,579,Woodlands Market H-E-B,310 N. Westgate Drive,Weslaco,TX,77380-1531, (281) 292-2080
Non-plus,707,Lake Jackson H-E-B,110 W Brazos St,West Columbia,TX,77566-4622, (979) 297-1288
Non-plus,109,Bunker Hill H-E-B,701 Capital Of Texas Hwy-bld C,West Lake Hills,TX,77055-6209, (713) 647-5900
Non-plus,709,H-E-B Market at Tuckerton,1616 N Alabama,Wharton,TX,77433-4847, (281) 205-6200
Non-plus,54,Blackhawk H-E-B,"12350 Interstate 45 N,",Willis,TX,77075-2246, (713) 991-2774
Non-plus,480,I10 and Wurzbach H-E-B,14501 Rr12,Wimberley,TX,78230-2212, (210) 696-0794
Non-plus,567,Lincoln Heights Market H-E-B,9100 Woodway Drive,Woodway,TX,78209-1804, (210) 822-0156
Convenience,121,Military at Pleasanton H-E-B Convenience Store,201 W. Gonzales,Yoakum,TX,78221-1642, (210) 927-3265