Name,Address,Phone,State,City
Corner Village,"300 N Dean Rd, Auburn, AL, 36830",(334) 821-1325,Alabama,Auburn
Decatur,"1101 Beltline RD SE STE A, Decatur, AL, 35601",(256) 350-9770,Alabama,Decatur
Crestwood Shopping Center,"241 Highway 31 SW Ste K, Hartselle, AL, 35640",(256) 773-6413,Alabama,Hartselle
Huntsville,"2110 Oakwood Ave Nw, Huntsville, AL, 35810",(256) 536-0715,Alabama,Huntsville
Huntsville,"6070 Moores Mill Rd, Huntsville, AL, 35811",(256) 852-5770,Alabama,Huntsville
Logan Square,"8404 Memorial Pkwy Sw, Huntsville, AL, 35802",(256) 881-5696,Alabama,Huntsville
Watercress,"7090 Highway 72 W, Huntsville, AL, 35806",(256) 726-0600,Alabama,Huntsville
Lanett,"1401 S Gilmer Ave, Lanett, AL, 36863",(334) 644-2100,Alabama,Lanett
Kroger County Line Rd,"8855 Highway 72 W, Madison, AL, 35758",(256) 870-4350,Alabama,Madison
Midtown Marketplace,"4579 Wall Triana Hwy, Madison, AL, 35758",(256) 461-0914,Alabama,Madison
Tiger Town,"2460 Enterprise Dr, Opelika, AL, 36801",(334) 737-2643,Alabama,Opelika
Batesville AR,"303 S Saint Louis St, Batesville, AR, 72501",(870) 793-2143,Arkansas,Batesville
Benton - Military Rd,"1410 Military Rd, Benton, AR, 72015",(501) 776-0301,Arkansas,Benton
Benton Marketplace,"20820 Interstate 30 N, Benton, AR, 72019",(501) 574-3880,Arkansas,Benton
Blytheville,"400 W Moultrie Dr, Blytheville, AR, 72315",(870) 763-7524,Arkansas,Blytheville
Cabot,"1295 W Main St, Cabot, AR, 72023",(501) 628-5185,Arkansas,Cabot
Conway - Oak St,"101 Oak St, Conway, AR, 72032",(501) 329-8009,Arkansas,Conway
Conway Marketplace,"855 Salem Rd, Conway, AR, 72034",(501) 329-3628,Arkansas,Conway
Hot Springs - Airport,"215 Airport Rd, Hot Springs, AR, 71913",(501) 623-3340,Arkansas,Hot Springs
Hot Springs - Central,"3341 Central Ave, Hot Springs, AR, 71913",(501) 624-0259,Arkansas,Hot Springs
Hot Springs - Mall,"4407 Central Ave, Hot Springs, AR, 71913",(501) 525-7083,Arkansas,Hot Springs
Jacksonville,"103 Gregory Pl, Jacksonville, AR, 72076",(501) 982-0151,Arkansas,Jacksonville
Jonesboro Marketplace,"1725 S Caraway Rd, Jonesboro, AR, 72401",(870) 972-9990,Arkansas,Jonesboro
Cantrell Marketplace,"14000 Cantrell Rd, Little Rock, AR, 72223",(501) 225-4588,Arkansas,Little Rock
Chenal Marketplace,"16105 Chenal Pkwy Ste B, Little Rock, AR, 72223",(501) 217-7910,Arkansas,Little Rock
Colony West,"10300 N Rodney Parham Rd, Little Rock, AR, 72227",(501) 227-6364,Arkansas,Little Rock
E Roosevelt,"1100 E Roosevelt Rd, Little Rock, AR, 72206",(501) 375-0585,Arkansas,Little Rock
Geyer Springs,"8824 Geyer Springs Rd, Little Rock, AR, 72209",(501) 568-2330,Arkansas,Little Rock
Hillcrest,"614 Beechwood St, Little Rock, AR, 72205",(501) 666-0102,Arkansas,Little Rock
Markham,"8415 W Markham St, Little Rock, AR, 72205",(501) 227-7262,Arkansas,Little Rock
The Heights,"1900 N Polk St, Little Rock, AR, 72207",(501) 663-4748,Arkansas,Little Rock
Maumelle,"110 Commons Dr, Maumelle, AR, 72113",(501) 210-7670,Arkansas,Maumelle
Camp Robinson,"4401 Camp Robinson Rd, North Little Rock, AR, 72118",(501) 758-6858,Arkansas,North Little Rock
Indian Hills,"6929 John F Kennedy Blvd, North Little Rock, AR, 72116",(501) 835-0400,Arkansas,North Little Rock
McCain,"2509 Mccain Blvd, North Little Rock, AR, 72116",(501) 758-8660,Arkansas,North Little Rock
Russellville,"1109 W Main St, Russellville, AR, 72801",(479) 890-3400,Arkansas,Russellville
W Memphis,"300 S Service Rd, West Memphis, AR, 72301",(870) 732-2692,Arkansas,West Memphis
Butler Creek,"3330 Cobb Pkwy NW Ste 200, Acworth, GA, 30101",(770) 975-8652,Georgia,Acworth
Cherokee Commons,"6199 Highway 92, Acworth, GA, 30102",(770) 924-9102,Georgia,Acworth
Stilesboro Oaks,"1720 Mars Hill Rd NW, Acworth, GA, 30101",(770) 419-5490,Georgia,Acworth
Crabapple,"12460 Crabapple Rd, Alpharetta, GA, 30004",(770) 740-2050,Georgia,Alpharetta
Grassland Crossing,"5665 Atlanta Hwy, Alpharetta, GA, 30004",(770) 752-5380,Georgia,Alpharetta
Haynes Market,"3000 Old Alabama Rd, Alpharetta, GA, 30022",(770) 751-7384,Georgia,Alpharetta
Saddlebrook,"10945 State Bridge Rd, Alpharetta, GA, 30022",(770) 751-3000,Georgia,Alpharetta
Windward Commons,"12870 Highway 9 N, Alpharetta, GA, 30004",(770) 772-3699,Georgia,Alpharetta
Windward Village,"11877 Douglas Rd, Alpharetta, GA, 30005",(770) 751-3110,Georgia,Alpharetta
Alps Village,"191 Alps Rd, Athens, GA, 30606",(706) 543-0209,Georgia,Athens
College Station,"2301 College Station Rd, Athens, GA, 30605",(706) 353-8543,Georgia,Athens
Epps Village,"1720 Epps Bridge Pkwy, Athens, GA, 30606",(706) 583-8900,Georgia,Athens
Trail Creek Village,"700 Highway 29 N, Athens, GA, 30601",(706) 715-3738,Georgia,Athens
Ansley Mall,"1700 Monroe Dr NE, Atlanta, GA, 30324",(404) 872-0782,Georgia,Atlanta
Cascade Corners,"3425 Cascade Rd SW, Atlanta, GA, 30311",(404) 505-8855,Georgia,Atlanta
Cascade-Citi Center,"590 Cascade Ave SW, Atlanta, GA, 30310",(404) 756-1140,Georgia,Atlanta
Edgewood,"1225 Caroline St NE, Atlanta, GA, 30307",(404) 880-4105,Georgia,Atlanta
Embry Village,"3559 Chamblee Tucker Rd, Atlanta, GA, 30341",(770) 243-6211,Georgia,Atlanta
Fountain Oaks,"4920 Roswell Rd, Atlanta, GA, 30342",(404) 843-3080,Georgia,Atlanta
Glenwood Kroger,"800 Glenwood Ave SE, Atlanta, GA, 30316",(470) 447-5030,Georgia,Atlanta
Greenbriar Crossing,"3030 Headland Dr SW, Atlanta, GA, 30311",(404) 344-0177,Georgia,Atlanta
Howell Mill Square,"1715 Howell Mill Rd NW, Atlanta, GA, 30318",(404) 355-7886,Georgia,Atlanta
Kroger Atlanta,"3300 Cobb Pkwy SE, Atlanta, GA, 30339",(770) 952-0778,Georgia,Atlanta
Lindberg,"2452 Morosgo Way NE, Atlanta, GA, 30324",(404) 946-0438,Georgia,Atlanta
Metropolitan Citi-Center,"2685 Metropolitan Pkwy SW, Atlanta, GA, 30315",(404) 761-7409,Georgia,Atlanta
Orchard Park,"2090 Dunwoody Club Dr, Atlanta, GA, 30350",(770) 391-9035,Georgia,Atlanta
Ponce,"725 Ponce de Leon Ave NE, Atlanta, GA, 30306",(470) 351-4222,Georgia,Atlanta
Ripplewater Village,"1160 Moreland Ave SE, Atlanta, GA, 30316",(404) 624-8110,Georgia,Atlanta
Sage Hill,"1799 Briarcliff Rd NE, Atlanta, GA, 30306",(404) 607-1189,Georgia,Atlanta
Toco Hills,"2205 Lavista Rd NE, Atlanta, GA, 30329",(404) 633-8694,Georgia,Atlanta
Eisenhower Crossing,"3942 Harper Franklin Ave, Augusta, GA, 30909",(706) 261-5201,Georgia,Augusta
Washington Walk,"2801 Washington Rd, Augusta, GA, 30909",(706) 731-7300,Georgia,Augusta
Nixon Crossing Marketplace,"774 Highway 96, Bonaire, GA, 31005",(478) 988-5700,Georgia,Bonaire
Cherokee Plaza,"3871 Peachtree Rd NE, Brookhaven, GA, 30319",(404) 240-0808,Georgia,Brookhaven
Clairmont,"3855 Buford Hwy NE, Brookhaven, GA, 30329",(404) 633-6220,Georgia,Brookhaven
Hamilton Ridge,"3300 Hamilton Mill Rd, Buford, GA, 30519",(770) 614-1081,Georgia,Buford
Calhoun Place,"136 W Belmont Dr, Calhoun, GA, 30701",(706) 625-4303,Georgia,Calhoun
Canton,"4045 Marietta Hwy, Canton, GA, 30114",(770) 345-3644,Georgia,Canton
Hickory Flat Commons,"6766 Hickory Flat Hwy, Canton, GA, 30115",(770) 721-7300,Georgia,Canton
Woodmont Village,"8020 Cumming Hwy, Canton, GA, 30115",(770) 345-8451,Georgia,Canton
Carrollton Crossing,"1355 S Park St, Carrollton, GA, 30117",(770) 832-8932,Georgia,Carrollton
Cartersville Marketplace,"125 Main Street Market PL SE, Cartersville, GA, 30121",(770) 386-8102,Georgia,Cartersville
Cedar Plaza,"730 N Main St, Cedartown, GA, 30125",(770) 749-5090,Georgia,Cedartown
Old National,"6055 Old National Hwy, College Park, GA, 30349",(770) 996-4441,Georgia,College Park
Conyers Square,"1745 Highway 138 SE STE A, Conyers, GA, 30013",(770) 922-8753,Georgia,Conyers
Covington Marketplace,"3700 Salem Rd, Covington, GA, 30016",(678) 342-6039,Georgia,Covington
Newton Crossroads,"5341 Highway 20 S, Covington, GA, 30016",(770) 788-4000,Georgia,Covington
Newton Plaza,"3139 Highway 278 NE, Covington, GA, 30014",(770) 787-0724,Georgia,Covington
Bethelview Plaza,"5550 Bethelview Rd, Cumming, GA, 30040",(678) 456-4052,Georgia,Cumming
Greens Corner,"2325 Bethelview Rd, Cumming, GA, 30040",(770) 888-1020,Georgia,Cumming
Keith Bridge Commons,"2655 Freedom Pkwy, Cumming, GA, 30041",(770) 781-6683,Georgia,Cumming
Sharon Greens,"1595 Peachtree Pkwy, Cumming, GA, 30041",(678) 455-4580,Georgia,Cumming
Dacula,"505 Dacula Rd, Dacula, GA, 30019",(678) 407-8739,Georgia,Dacula
Mountain Crossing,"2700 Braselton Hwy, Dacula, GA, 30019",(770) 614-1020,Georgia,Dacula
Dallas,"8876 Dallas Acworth Hwy, Dallas, GA, 30132",(678) 574-7173,Georgia,Dallas
Dallas Commons,"455 Nathan Dean Blvd, Dallas, GA, 30132",(770) 443-0811,Georgia,Dallas
Dalton Plaza,"1365 W Walnut Ave, Dalton, GA, 30720",(706) 270-0843,Georgia,Dalton
Whitfield Square,"1205 N Glenwood Ave, Dalton, GA, 30721",(706) 226-7998,Georgia,Dalton
Dawsonville Marketplace,"378 Marketplace Pkwy, Dawsonville, GA, 30534",(470) 375-1989,Georgia,Dawsonville
Belevedere Citi-Center,"3479 Memorial Dr, Decatur, GA, 30032",(404) 286-5780,Georgia,Decatur
Chapel Hills Commons,"4919 Flat Shoals Pkwy, Decatur, GA, 30034",(770) 322-8984,Georgia,Decatur
North Decatur,"2875 N Decatur Rd, Decatur, GA, 30033",(404) 294-5311,Georgia,Decatur
Wesley Corners,"2385 Wesley Chapel Rd, Decatur, GA, 30035",(770) 987-0633,Georgia,Decatur
Douglas Commons,"8501 Hospital Dr, Douglasville, GA, 30134",(770) 949-4091,Georgia,Douglasville
Douglasville,"3875 Chapel Hill Rd, Douglasville, GA, 30135",(770) 947-7144,Georgia,Douglasville
Park Plaza,"3251 Highway 5, Douglasville, GA, 30135",(770) 920-1880,Georgia,Douglasville
Ridge Crossing,"4815 Ridge Rd, Douglasville, GA, 30134",(770) 949-1652,Georgia,Douglasville
Dublin Village,"1100 Hillcrest Pkwy, Dublin, GA, 31021",(478) 277-3081,Georgia,Dublin
Peachtree Hill,"3455 Peachtree Industrial Blvd, Duluth, GA, 30096",(770) 476-7914,Georgia,Duluth
Reynolds Crossing,"3093 Steve Reynolds Blvd, Duluth, GA, 30096",(770) 225-0955,Georgia,Duluth
Sugarloaf Parkway,"6555 Sugarloaf Pkwy, Duluth, GA, 30097",(770) 814-7190,Georgia,Duluth
Georgetown,"4498 Chamblee Dunwoody Rd, Dunwoody, GA, 30338",(770) 451-8350,Georgia,Dunwoody
Fairview Oaks,"101 Fairview Rd, Ellenwood, GA, 30294",(770) 389-7080,Georgia,Ellenwood
Evans Crossing,"4355 Washington Rd, Evans, GA, 30809",(706) 868-4510,Georgia,Evans
Banks Crossing,"134 Banks Xing, Fayetteville, GA, 30214",(770) 461-7602,Georgia,Fayetteville
Fayetteville Town Center,"805 Glynn St S Ste 117, Fayetteville, GA, 30214",(770) 461-6880,Georgia,Fayetteville
Clearwater Crossing,"7380 Spout Springs Rd, Flowery Branch, GA, 30542",(770) 965-5640,Georgia,Flowery Branch
Royal Lakes,"4025 Winder Hwy, Flowery Branch, GA, 30542",(770) 539-5020,Georgia,Flowery Branch
New Holland Market,"1931 Jesse Jewell PKWY SE, Gainesville, GA, 30501",(470) 252-3182,Georgia,Gainesville
Thompson Bridge Commons,"3630 Thompson Bridge Rd, Gainesville, GA, 30506",(770) 532-1143,Georgia,Gainesville
Grayson Commons,"1911 Grayson Hwy, Grayson, GA, 30017",(770) 237-2531,Georgia,Grayson
Griffin,"1524 Highway 16 W, Griffin, GA, 30223",(770) 229-7427,Georgia,Griffin
Grovetown Marketplace,"435 Lewiston Rd, Grovetown, GA, 30813",(706) 619-3420,Georgia,Grovetown
Hinesville,"555 W Oglethorpe Hwy, Hinesville, GA, 31313",(912) 876-6010,Georgia,Hinesville
Burgess Crossing,"115 Bill Wigington Pkwy, Jasper, GA, 30143",(706) 692-1200,Georgia,Jasper
Loggins Corner,"1685 Old Pendergrass Rd, Jefferson, GA, 30549",(706) 387-7600,Georgia,Jefferson
Rivermont Station,"8465 Holcomb Bridge Rd Ste 2000, Johns Creek, GA, 30022",(770) 650-1000,Georgia,Johns Creek
Crossroads South,"8059 Tara Blvd, Jonesboro, GA, 30236",(770) 478-5700,Georgia,Jonesboro
Lovejoy Village,"10375 Tara Blvd, Jonesboro, GA, 30236",(770) 477-6535,Georgia,Jonesboro
Shiloh Square,"3895 Cherokee St NW, Kennesaw, GA, 30144",(770) 218-7030,Georgia,Kennesaw
Commerce Square,"203 Commerce Ave Ste A, LaGrange, GA, 30241",(706) 883-6167,Georgia,LaGrange
Lake City Plaza,"5664 Jonesboro Rd, Lake City, GA, 30260",(770) 960-9445,Georgia,Lake City
Cruse Crossing,"950 Herrington Rd, Lawrenceville, GA, 30044",(770) 995-6200,Georgia,Lawrenceville
Lawrenceville Town Center,"455 Grayson Hwy, Lawrenceville, GA, 30046",(770) 962-1063,Georgia,Lawrenceville
River Exhange,"2100 Riverside Pkwy, Lawrenceville, GA, 30043",(770) 962-0890,Georgia,Lawrenceville
Russell Ridge,"1475 Buford Dr, Lawrenceville, GA, 30043",(770) 822-6580,Georgia,Lawrenceville
Beaver Ruin Village,"4155 Lawrenceville Hwy NW, Lilburn, GA, 30047",(770) 717-3050,Georgia,Lilburn
Five Forks Crossing,"3050 Five Forks Trickum Rd SW, Lilburn, GA, 30047",(770) 978-9264,Georgia,Lilburn
Westfork,"630 Thornton Rd, Lithia Springs, GA, 30122",(770) 732-6999,Georgia,Lithia Springs
Lithonia,"6678 Covington Hwy, Lithonia, GA, 30058",(770) 593-7110,Georgia,Lithonia
Loganville Crossing,"4753 Atlanta Hwy, Loganville, GA, 30052",(678) 639-4474,Georgia,Loganville
Midway Plaza,"910 Athens Hwy, Loganville, GA, 30052",(770) 554-1100,Georgia,Loganville
Mableton Crossing,"4875 Floyd Rd SW, Mableton, GA, 30126",(770) 745-3100,Georgia,Mableton
Baconsfield,"660 North Ave, Macon, GA, 31211",(478) 746-6300,Georgia,Macon
Bridge Pointe,"4321 Hartley Bridge Rd, Macon, GA, 31216",(478) 788-1010,Georgia,Macon
Eisenhower Crossing,"4628 Presidential Pkwy, Macon, GA, 31206",(478) 405-3910,Georgia,Macon
North Park,"220 Tom Hill Sr Blvd, Macon, GA, 31210",(478) 474-7582,Georgia,Macon
Plantation Centre,"5928 Zebulon Rd, Macon, GA, 31210",(478) 757-4150,Georgia,Macon
Wesleyan Station,"4650 Forsyth Rd, Macon, GA, 31210",(478) 474-7410,Georgia,Macon
Battle Ridge Pavilion,"1690 Powder Springs Rd SW, Marietta, GA, 30064",(770) 218-5699,Georgia,Marietta
Chastain,"3595 Canton Rd, Marietta, GA, 30066",(770) 924-7930,Georgia,Marietta
Parkaire Landing,"4880 Lower Roswell Rd, Marietta, GA, 30068",(770) 971-8801,Georgia,Marietta
Pavilions At East Lake,"2100 Roswell Rd Ste 2140, Marietta, GA, 30062",(770) 321-1080,Georgia,Marietta
Sandy Plains Centre,"2960 Shallowford Rd, Marietta, GA, 30066",(770) 977-7724,Georgia,Marietta
Shallowford Falls,"3162 Johnson Ferry Rd, Marietta, GA, 30062",(770) 650-6673,Georgia,Marietta
Terrell Mill,"1310 Powers Ferry Rd SE, Marietta, GA, 30067",(404) 496-7850,Georgia,Marietta
Village Green,"3600 Dallas Hwy SW, Marietta, GA, 30064",(770) 424-0040,Georgia,Marietta
West Marietta Crossing,"1000 Whitlock Ave NW, Marietta, GA, 30064",(770) 421-7676,Georgia,Marietta
Merchants Village,"4115 Columbia Rd, Martinez, GA, 30907",(706) 863-9635,Georgia,Martinez
McDonough Crossing,"301 Jonesboro Rd, McDonough, GA, 30253",(770) 954-4370,Georgia,McDonough
Union Grove Marketplace,"2000 Highway 155 N, McDonough, GA, 30252",(678) 379-1000,Georgia,McDonough
Milledgeville,"2809 N Columbia St, Milledgeville, GA, 31061",(478) 414-2140,Georgia,Milledgeville
Merchants Crossing,"48 Bullsboro Dr, Newnan, GA, 30263",(770) 251-4791,Georgia,Newnan
Newnan Crossing,"1751 Newnan Crossing Blvd E, Newnan, GA, 30265",(678) 423-5841,Georgia,Newnan
Thomas Crossroads,"3150 Highway 34 E, Newnan, GA, 30265",(770) 254-3030,Georgia,Newnan
Singleton Square,"6050 Singleton Rd, Norcross, GA, 30093",(770) 242-3340,Georgia,Norcross
Braelinn Village,"564 Crosstown Dr, Peachtree City, GA, 30269",(770) 487-3602,Georgia,Peachtree City
Kedron Village,"1017 N Peachtree Pkwy, Peachtree City, GA, 30269",(770) 486-7200,Georgia,Peachtree City
Perry Market,"1367 Sam Nunn Blvd, Perry, GA, 31069",(478) 988-8474,Georgia,Perry
Brownsville Commons,"4400 Brownsville Rd, Powder Springs, GA, 30127",(770) 222-4200,Georgia,Powder Springs
Varner Crossing,"4150 Macland Rd, Powder Springs, GA, 30127",(770) 222-5180,Georgia,Powder Springs
Richmond Hill,"53 Exchange St, Richmond Hill, GA, 31324",(912) 459-3011,Georgia,Richmond Hill
Rincon Marketplace,"461 S Columbia Ave, Rincon, GA, 31326",(912) 826-7660,Georgia,Rincon
Merchants Square,"7125 Highway 85, Riverdale, GA, 30274",(770) 996-2508,Georgia,Riverdale
Riverbend Center,"1476 Turner McCall Blvd SW, Rome, GA, 30161",(706) 290-8039,Georgia,Rome
Centennial Village,"2300 Holcomb Bridge Rd, Roswell, GA, 30076",(678) 352-7488,Georgia,Roswell
Coleman Village,"900 Marietta Hwy, Roswell, GA, 30075",(770) 640-9199,Georgia,Roswell
Mansell Village,"570 E Crossville Rd, Roswell, GA, 30075",(770) 640-2070,Georgia,Roswell
City Walk,"227 Sandy Spriongs PL, Sandy Springs, GA, 30328",(404) 256-3434,Georgia,Sandy Springs
Berwick Marketplace,"5720 Ogeechee Rd, Savannah, GA, 31405",(912) 235-3420,Georgia,Savannah
Downtown Savannah,"311 E Gwinnett St, Savannah, GA, 31401",(912) 231-2260,Georgia,Savannah
Kroger Savannah,"7 Diamond CSWY, Savannah, GA, 31406",(912) 353-4345,Georgia,Savannah
McAlpin Square,"1900 E Victory Dr Ste 12, Savannah, GA, 31404",(912) 236-9321,Georgia,Savannah
Savannah Marketwalk,"318 Mall Blvd Ste 100, Savannah, GA, 31406",(912) 200-9158,Georgia,Savannah
Wilmington Island,"495 Johnny Mercer Blvd, Savannah, GA, 31410",(912) 897-3532,Georgia,Savannah
Smyrna,"3240 S Cobb Dr SE, Smyrna, GA, 30080",(770) 433-3410,Georgia,Smyrna
Vinings Village,"4715 S Atlanta Rd SE, Smyrna, GA, 30339",(404) 792-6990,Georgia,Smyrna
Everson Pointe,"3035 Scenic Hwy S Ste 19, Snellville, GA, 30039",(770) 982-0655,Georgia,Snellville
Presidential Commons,"1670 Scenic Hwy N, Snellville, GA, 30078",(770) 985-3790,Georgia,Snellville
Spivey Junction,"1750 Hudson Bridge Rd, Stockbridge, GA, 30281",(770) 507-7732,Georgia,Stockbridge
Stockbridge Village,"3618 Highway 138 SE, Stockbridge, GA, 30281",(770) 474-5377,Georgia,Stockbridge
Crowes Crossing,"1232 S Hairston Rd, Stone Mountain, GA, 30088",(404) 292-6009,Georgia,Stone Mountain
Rockbridge Village,"1227 Rockbridge Rd, Stone Mountain, GA, 30087",(770) 225-1877,Georgia,Stone Mountain
Sugar Hill,"6001 Cumming Hwy, Sugar Hill, GA, 30518",(678) 546-2148,Georgia,Sugar Hill
Dean Taylor Crossing,"2121 Lawrenceville Suwanee Rd, Suwanee, GA, 30024",(770) 962-7958,Georgia,Suwanee
Johns Creek,"3651 Peachtree Pkwy, Suwanee, GA, 30024",(770) 418-2377,Georgia,Suwanee
Suwanee,"400 Peachtree Industrial Blvd, Suwanee, GA, 30024",(770) 932-4377,Georgia,Suwanee
Cofer Crossing,"4357 Lawrenceville Hwy, Tucker, GA, 30084",(770) 934-1104,Georgia,Tucker
Northlake Lavista,"3959 Lavista Rd Ste A, Tucker, GA, 30084",(770) 939-6304,Georgia,Tucker
Shannon Crossing,"4550 Jonesboro Rd, Union City, GA, 30291",(770) 969-0269,Georgia,Union City
Crossroads Market,"3094 Watson Blvd, Warner Robins, GA, 31093",(478) 971-2320,Georgia,Warner Robins
Parkway Station,"115 Russell Pkwy, Warner Robins, GA, 31088",(478) 922-9047,Georgia,Warner Robins
Waycross,"1606 Memorial Dr, Waycross, GA, 31501",(912) 287-2270,Georgia,Waycross
Toonigh Village,"5341 Old Highway 5, Woodstock, GA, 30188",(770) 924-2557,Georgia,Woodstock
Towne Lake,"2295 Towne Lake Pkwy, Woodstock, GA, 30189",(770) 517-2080,Georgia,Woodstock
Woodstock Crossing,"12050 Highway 92 Ste 112, Woodstock, GA, 30188",(770) 591-2890,Georgia,Woodstock
Anna Plaza,"45 Plaza Dr, Anna, IL, 62906",(618) 833-4519,Illinois,Anna
Bartonville Square,"1405 W Garfield Ave, Bartonville, IL, 61607",(309) 697-8811,Illinois,Bartonville
Main Street,"1502 N Main St, Bloomington, IL, 61701",(309) 828-5640,Illinois,Bloomington
Oakland,"2507 E Oakland Ave, Bloomington, IL, 61701",(309) 662-5396,Illinois,Bloomington
Bourbonnais,"633 Armour Rd, Bourbonnais, IL, 60914",(815) 935-1650,Illinois,Bourbonnais
Canton,"1741 E Chestnut St, Canton, IL, 61520",(309) 647-1598,Illinois,Canton
N Grant City Road,"501 N Giant City Rd, Carbondale, IL, 62901",(618) 457-5313,Illinois,Carbondale
Chillicothe,"603 S 4th St, Chillicothe, IL, 61523",(309) 274-6281,Illinois,Chillicothe
Brettwood Village,"3070 N Water St, Decatur, IL, 62526",(217) 875-1296,Illinois,Decatur
Mt Zion,"1818 Airport Plz, Decatur, IL, 62521",(217) 864-5031,Illinois,Decatur
South Shores,"255 W 1st Dr, Decatur, IL, 62521",(217) 429-4998,Illinois,Decatur
East Peoria,"201 S Main St, East Peoria, IL, 61611",(309) 694-6298,Illinois,East Peoria
Shawnee Square,"601 N Commercial St, Harrisburg, IL, 62946",(618) 252-8677,Illinois,Harrisburg
S Park Ave,"1609 S Park Ave, Herrin, IL, 62948",(618) 942-4954,Illinois,Herrin
Marion Pavillion,"1704 W Deyoung St, Marion, IL, 62959",(618) 993-6330,Illinois,Marion
Morton Village Shopping Center,"1001 W Jackson St, Morton, IL, 61550",(309) 266-5366,Illinois,Morton
King City Square,"415 S 42Nd St, Mount Vernon, IL, 62864",(618) 244-6210,Illinois,Mount Vernon
Jackson Square,"550 E Industrial Park Rd, Murphysboro, IL, 62966",(618) 687-3481,Illinois,Murphysboro
E St Louis St,"456 E Saint Louis St, Nashville, IL, 62263",(618) 327-3413,Illinois,Nashville
College Avenue,"1550 E College Ave, Normal, IL, 61761",(309) 452-7476,Illinois,Normal
Kroger Ottawa,"2701 Columbus St, Ottawa, IL, 61350",(815) 434-4400,Illinois,Ottawa
Ottawa South,"301 E Mckinley Rd, Ottawa, IL, 61350",(815) 434-2001,Illinois,Ottawa
Pekin,"1607 Broadway St, Pekin, IL, 61554",(309) 353-5300,Illinois,Pekin
Lake Street,"801 W Lake Ave, Peoria, IL, 61614",(309) 682-2173,Illinois,Peoria
Lindbergh Drive,"9219 N Lindbergh Dr, Peoria, IL, 61615",(309) 691-8701,Illinois,Peoria
Sterling Bazaar,"3311 N Sterling Ave, Peoria, IL, 61604",(309) 679-2850,Illinois,Peoria
Sterling Locust Street,"2301 Locust St, Sterling, IL, 61081",(815) 625-6405,Illinois,Sterling
Streator,"2399 N Bloomington St, Streator, IL, 61364",(815) 672-7871,Illinois,Streator
Grand Plaza Shopping Center,"201 E Bidwell St, Taylorville, IL, 62568",(217) 824-2911,Illinois,Taylorville
W Frankfort Plaza,"10 West Frankfort Plz, W Frankfort, IL, 62896",(618) 937-4621,Illinois,W Frankfort
Cherry Tree Shopping Center,"20 Cherry Tree Shopping Ctr, Washington, IL, 61571",(309) 444-8585,Illinois,Washington
Auburn,"1005 W 7Th St, Auburn, IN, 46706",(260) 920-2165,Indiana,Auburn
Avon,"108 N Avon Ave, Avon, IN, 46123",(317) 272-4130,Indiana,Avon
Batesville,"1034 State Road 229, Batesville, IN, 47006",(812) 933-6200,Indiana,Batesville
Bloomington,"1825 Kinser Pike, Bloomington, IN, 47404",(812) 335-6760,Indiana,Bloomington
Bloomington South,"4025 S Old State Road 37, Bloomington, IN, 47401",(812) 803-7240,Indiana,Bloomington
Highland Village,"500 S Liberty Dr, Bloomington, IN, 47403",(812) 349-1385,Indiana,Bloomington
Jackson Creek,"1175 S College Mall Rd, Bloomington, IN, 47401",(812) 333-5766,Indiana,Bloomington
Seminary Square,"528 S College Ave, Bloomington, IN, 47403",(812) 339-3351,Indiana,Bloomington
Bluffton,"1555 S Harrison Plz, Bluffton, IN, 46714",(260) 824-3700,Indiana,Bluffton
Forest Park Plaza,"100 Forest Park Plz, Brazil, IN, 47834",(812) 446-2231,Indiana,Brazil
Brownsburg,"975 N Green St, Brownsburg, IN, 46112",(317) 852-6076,Indiana,Brownsburg
Carmel Rangeline Road,"1217 S Rangeline Rd, Carmel, IN, 46032",(317) 846-4818,Indiana,Carmel
Clark Station,"305 E Lewis And Clark Pkwy, Clarksville, IN, 47129",(812) 948-1728,Indiana,Clarksville
Columbia City,"621 Country Side Dr, Columbia City, IN, 46725",(260) 244-3290,Indiana,Columbia City
Columbus Marketplace,"3060 N National Rd, Columbus, IN, 47201",(812) 376-9451,Indiana,Columbus
Connersville In,"516 W 30Th St, Connersville, IN, 47331",(765) 827-5550,Indiana,Connersville
Crawfordsville Square,"1660 Crawfordsville Square Dr, Crawfordsville, IN, 47933",(765) 362-1084,Indiana,Crawfordsville
Danville Shopping Center,"785 E Main St, Danville, IN, 46122",(317) 745-8020,Indiana,Danville
Decatur,"929 S 13Th St, Decatur, IN, 46733",(260) 724-9925,Indiana,Decatur
Elkhart,"901 Johnson St, Elkhart, IN, 46514",(574) 262-4491,Indiana,Elkhart
Hively,"130 W Hively Ave, Elkhart, IN, 46517",(574) 294-6130,Indiana,Elkhart
116th Allisonville Road,"7272 Fishers Crossing Dr, Fishers, IN, 46038",(317) 579-0201,Indiana,Fishers
116th Cumberland Road,"9799 E 116Th St, Fishers, IN, 46037",(317) 913-5500,Indiana,Fishers
116th Olio Road,"11700 Olio Road, Fishers, IN, 46037",(317) 598-8400,Indiana,Fishers
Chestnut Plaza,"10230 Chestnut Plaza Dr, Fort Wayne, IN, 46814",(260) 625-6031,Indiana,Fort Wayne
Dupont Village Marketplace,"601 E Dupont Rd, Fort Wayne, IN, 46825",(260) 637-4504,Indiana,Fort Wayne
Georgetown,"6310 E State Blvd, Fort Wayne, IN, 46815",(260) 749-5102,Indiana,Fort Wayne
North Clinton,"4120 N Clinton St, Fort Wayne, IN, 46805",(260) 484-7021,Indiana,Fort Wayne
Southgate Plaza,"218 E Pettit Ave, Fort Wayne, IN, 46806",(260) 745-7800,Indiana,Fort Wayne
St Joe Center,"6002 Saint Joe Center Rd, Fort Wayne, IN, 46835",(260) 485-9611,Indiana,Fort Wayne
Village Of Coventry,"5725 Coventry Ln, Fort Wayne, IN, 46804",(260) 432-2305,Indiana,Fort Wayne
Waynedale,"7008 Bluffton Rd, Fort Wayne, IN, 46809",(260) 747-4161,Indiana,Fort Wayne
West State,"1125 W State Blvd, Fort Wayne, IN, 46808",(260) 426-3453,Indiana,Fort Wayne
Kroger Marketplace,"970 N Morton St, Franklin, IN, 46131",(317) 736-6004,Indiana,Franklin
Goshen,"209 Chicago Ave, Goshen, IN, 46526",(574) 533-9949,Indiana,Goshen
Greencastle,"821 Indianapolis Rd, Greencastle, IN, 46135",(765) 653-8032,Indiana,Greencastle
Greenfield,"1571 N State St, Greenfield, IN, 46140",(317) 462-3451,Indiana,Greenfield
Meridian Park,"3100 Meridian Parke Dr, Greenwood, IN, 46142",(317) 887-5745,Indiana,Greenwood
Smokey Row Kroger,"5961 N State Road 135, Greenwood, IN, 46143",(317) 530-3086,Indiana,Greenwood
Whiteland,"2200 Independence Dr, Greenwood, IN, 46143",(317) 883-4140,Indiana,Greenwood
Kroger Huntington,"2718 Guilford St, Huntington, IN, 46750",(260) 356-1811,Indiana,Huntington
10th Shortridge,"7101 E 10Th St, Indianapolis, IN, 46219",(317) 352-1721,Indiana,Indianapolis
65th Keystone Kroger,"2629 E 65th St, Indianapolis, IN, 46220",(317) 255-1498,Indiana,Indianapolis
71st Binford,"5810 E 71St St, Indianapolis, IN, 46220",(317) 845-9653,Indiana,Indianapolis
71st Georgetown,"5025 W 71st St, Indianapolis, IN, 46268",(317) 347-8480,Indiana,Indianapolis
Bluff Southport,"1330 W Southport Rd, Indianapolis, IN, 46217",(317) 884-4245,Indiana,Indianapolis
Claybrooke Commons,"8745 S Emerson Ave, Indianapolis, IN, 46237",(317) 884-3320,Indiana,Indianapolis
East Washington,"10450 E Washington St, Indianapolis, IN, 46229",(317) 895-2245,Indiana,Indianapolis
Geist Plaza,"9835 Fall Creek Rd, Indianapolis, IN, 46256",(317) 577-3481,Indiana,Indianapolis
Indy Downtown,"524 E 16Th St, Indianapolis, IN, 46202",(317) 923-6858,Indiana,Indianapolis
Kroger,"8130 E Southport Rd, Indianapolis, IN, 46259",(317) 245-4453,Indiana,Indianapolis
Kroger Indianapolis,"227 W Michigan St, Indianapolis, IN, 46204",(317) 262-5215,Indiana,Indianapolis
Linwood Plaza,"4445 E 10Th St, Indianapolis, IN, 46201",(317) 359-1166,Indiana,Indianapolis
Madison Edgewood,"5911 Madison Ave, Indianapolis, IN, 46227",(317) 783-4947,Indiana,Indianapolis
Marwood,"3361 Kentucky Ave, Indianapolis, IN, 46221",(317) 240-1580,Indiana,Indianapolis
Nora Kroger,"1365 E 86th St, Indianapolis, IN, 46240",(317) 217-1190,Indiana,Indianapolis
Ross Park,"5350 E Thompson Rd, Indianapolis, IN, 46237",(317) 781-3560,Indiana,Indianapolis
Southern Plaza,"4202 S East St, Indianapolis, IN, 46227",(317) 781-4245,Indiana,Indianapolis
Speedway Plaza,"5718 Crawfordsville Rd, Indianapolis, IN, 46224",(317) 240-5000,Indiana,Indianapolis
Sunnyside,"11101 Pendleton Pike, Indianapolis, IN, 46236",(317) 823-3240,Indiana,Indianapolis
Twin Aire,"680 Twin Aire Dr, Indianapolis, IN, 46203",(317) 264-1762,Indiana,Indianapolis
West Michigan,"2630 W Michigan St, Indianapolis, IN, 46222",(317) 632-2113,Indiana,Indianapolis
West Pointe Commons,"8150 Rockville Rd, Indianapolis, IN, 46214",(317) 271-9591,Indiana,Indianapolis
Westgate Plaza,"5173 W Washington St, Indianapolis, IN, 46241",(317) 244-2290,Indiana,Indianapolis
Willow Lake Plaza,"2550 Lake Circle Dr, Indianapolis, IN, 46268",(317) 879-2460,Indiana,Indianapolis
Kroger Marketplace,"1027 Jeffersonville Commons Dr, Jeffersonville, IN, 47130",(812) 283-5222,Indiana,Jeffersonville
Kendallville,"310 W North St, Kendallville, IN, 46755",(260) 347-9155,Indiana,Kendallville
Dixon Road Kroger,"605 N Dixon Rd, Kokomo, IN, 46901",(765) 457-2514,Indiana,Kokomo
Maplecrest Plaza Kroger,"2821 S Washington St, Kokomo, IN, 46902",(765) 453-7556,Indiana,Kokomo
LaPorte,"55 Pine Lake Ave, Laporte, IN, 46350",(219) 362-1591,Indiana,Laporte
Lawrenceburg Kroger,"880 W Eads Pkwy, Lawrenceburg, IN, 47025",(812) 532-7340,Indiana,Lawrenceburg
Lebanon,"2420 N Lebanon St, Lebanon, IN, 46052",(765) 482-7274,Indiana,Lebanon
Kroger Ligonier,"903 Lincolnway S, Ligonier, IN, 46767",(260) 361-7007,Indiana,Ligonier
River Pointe SC,"525 E Clifty Dr, Madison, IN, 47250",(812) 273-5913,Indiana,Madison
Martinsville,"380 E Ruth Rusie Way, Martinsville, IN, 46151",(765) 342-7151,Indiana,Martinsville
Merrifield,"906 S Merrifield Ave, Mishawaka, IN, 46544",(574) 256-1229,Indiana,Mishawaka
Town Country,"2330 Hickory Rd, Mishawaka, IN, 46545",(574) 255-4488,Indiana,Mishawaka
Monticello Kroger,"916 N Main St, Monticello, IN, 47960",(574) 583-7896,Indiana,Monticello
Mooresville,"530 S Indiana St, Mooresville, IN, 46158",(317) 831-0241,Indiana,Mooresville
New Albany Plaza,"200 New Albany Plz, New Albany, IN, 47150",(812) 948-2817,Indiana,New Albany
Silver Run,"2864 Charlestown Rd, New Albany, IN, 47150",(812) 944-7016,Indiana,New Albany
Trojan Plaza,"120 S Memorial Dr, New Castle, IN, 47362",(765) 529-7396,Indiana,New Castle
New Haven,"821 Lincoln Hwy W, New Haven, IN, 46774",(260) 749-4828,Indiana,New Haven
Hazel Dell Crossing Kroger,"14800 Hazel Dell Xing, Noblesville, IN, 46062",(317) 844-1004,Indiana,Noblesville
Noblesville,"172 W Logan St, Noblesville, IN, 46060",(317) 776-3344,Indiana,Noblesville
Peru Kroger,"930 W Main St, Peru, IN, 46970",(765) 472-1274,Indiana,Peru
Plainfield Plaza,"1930 E Main St, Plainfield, IN, 46168",(317) 839-7961,Indiana,Plainfield
Plymouth,"2001 N Michigan St, Plymouth, IN, 46563",(574) 936-2040,Indiana,Plymouth
Richmond,"3701 National Rd E, Richmond, IN, 47374",(765) 935-1244,Indiana,Richmond
Rochester,"2040 Peace Tree Vlg, Rochester, IN, 46975",(574) 688-7070,Indiana,Rochester
Rushville,"202 S Main St, Rushville, IN, 46173",(765) 932-5511,Indiana,Rushville
Shelbyville,"1601 E Michigan Rd, Shelbyville, IN, 46176",(317) 421-2350,Indiana,Shelbyville
Ireland,"1217 E Ireland Rd, South Bend, IN, 46614",(574) 291-0666,Indiana,South Bend
Western,"4526 W Western Ave, South Bend, IN, 46619",(574) 288-0471,Indiana,South Bend
Ft Harrison Kroger,"2140 Fort Harrison Rd, Terre Haute, IN, 47804",(812) 466-6861,Indiana,Terre Haute
Kroger Plaza Terre Haute,"2650 Wabash Ave, Terre Haute, IN, 47803",(812) 232-4519,Indiana,Terre Haute
Wabash Valley Plaza US41 South,"4714 S US Highway 41, Terre Haute, IN, 47802",(812) 235-8141,Indiana,Terre Haute
Wabash Kroger,"1309 N Cass St, Wabash, IN, 46992",(260) 563-2616,Indiana,Wabash
Kroger Warsaw,"2211 E Center St, Warsaw, IN, 46580",(574) 267-8848,Indiana,Warsaw
161st Spring Mill Kroger,"150 W 161St St, Westfield, IN, 46074",(317) 867-6314,Indiana,Westfield
Carey Road Kroger,"17447 Carey Rd, Westfield, IN, 46074",(317) 867-1002,Indiana,Westfield
Kroger Boone Village,"5 Boone Vlg, Zionsville, IN, 46077",(317) 873-2366,Indiana,Zionsville
Kroger Michigan Rd and 106,"10679 N Michigan Rd, Zionsville, IN, 46077",(317) 733-2560,Indiana,Zionsville
Diederich,"370 Diederich Blvd, Ashland, KY, 41101",(606) 325-8911,Kentucky,Ashland
Mid Town,"711 Martin Luther King Jr Blvd, Ashland, KY, 41101",(606) 325-8231,Kentucky,Ashland
W John Rowan,"102 W John Rowan Blvd, Bardstown, KY, 40004",(502) 348-2977,Kentucky,Bardstown
Bellevue Kroger,"53 Donnermeyer Dr, Bellevue, KY, 41073",(859) 491-4210,Kentucky,Bellevue
ByPass - Riverside,"350 US 31W Byp, Bowling Green, KY, 42101",(270) 796-5987,Kentucky,Bowling Green
Campbell Lane,"711 Campbell Ln, Bowling Green, KY, 42104",(270) 783-0701,Kentucky,Bowling Green
Scottsville Road,"2945 Scottsville Rd, Bowling Green, KY, 42104",(270) 780-9887,Kentucky,Bowling Green
Riverridge Plaza,"568 Bypass Rd, Brandenburg, KY, 40108",(270) 422-5464,Kentucky,Brandenburg
Burlington,"1751 Patrick Dr, Burlington, KY, 41005",(859) 586-4450,Kentucky,Burlington
Green River Plaza,"399 Campbellsville Byp Ste 100, Campbellsville, KY, 42718",(270) 465-6065,Kentucky,Campbellsville
Hwy 227,"2549 Us Highway 227, Carrollton, KY, 41008",(502) 732-5380,Kentucky,Carrollton
Cold Spring,"375 Cross Roads Blvd, Cold Spring, KY, 41076",(859) 448-1170,Kentucky,Cold Spring
Highland Hts Cold Sp,"70 Martha Layne Collins Blvd, Cold Spring, KY, 41076",(859) 781-8808,Kentucky,Cold Spring
Forest Hills SC,"1019 Cumberland Falls Hwy, Corbin, KY, 40701",(606) 526-1717,Kentucky,Corbin
Parkway SC,"14889 N Us Highway 25 E, Corbin, KY, 40701",(606) 528-8630,Kentucky,Corbin
15th Madison,"1525 Madison Ave, Covington, KY, 41011",(859) 431-1607,Kentucky,Covington
Latonia,"4303 Winston Ave, Covington, KY, 41015",(859) 655-0700,Kentucky,Covington
Ridgefield KY,"200 Skywatch Dr, Danville, KY, 40422",(859) 236-3987,Kentucky,Danville
Dolphin Hills,"3040 Dolphin Dr, Elizabethtown, KY, 42701",(270) 737-4715,Kentucky,Elizabethtown
Towne Center,"111 Towne Dr, Elizabethtown, KY, 42701",(270) 737-1707,Kentucky,Elizabethtown
Silverlake,"3158 Dixie Hwy, Erlanger, KY, 41018",(859) 344-0222,Kentucky,Erlanger
Florence Marketplace,"7685 Mall Rd, Florence, KY, 41042",(859) 795-5800,Kentucky,Florence
Mt Zion,"9950 Berberich Dr, Florence, KY, 41042",(859) 372-3460,Kentucky,Florence
Ft Mitchell,"2150 Dixie Hwy, Fort Mitchell, KY, 41017",(859) 292-1800,Kentucky,Fort Mitchell
Brighton Park,"300 Brighton Park Blvd, Frankfort, KY, 40601",(502) 695-4860,Kentucky,Frankfort
Franklin Square,"1309 US Highway 127 S Ste H, Frankfort, KY, 40601",(502) 875-0124,Kentucky,Frankfort
Marketplace Circle,"106 Market Place Cir, Georgetown, KY, 40324",(502) 863-4807,Kentucky,Georgetown
Harrodsburg Marketplace,"844 S College St, Harrodsburg, KY, 40330",(859) 734-0078,Kentucky,Harrodsburg
Hebron KY Marketplace,"3105 N Bend Rd, Hebron, KY, 41048",(859) 962-4900,Kentucky,Hebron
Hopkinsville,"1213 Skyline Dr, Hopkinsville, KY, 42240",(270) 885-7606,Kentucky,Hopkinsville
Independence Marketplace,"1700 Declaration Dr, Independence, KY, 41051",(859) 898-1600,Kentucky,Independence
Hwy 53,"2034 S Highway 53, La Grange, KY, 40031",(502) 222-0269,Kentucky,La Grange
Kroger Buckner,"2835 S Highway 393, LaGrange, KY, 40031",(502) 530-4803,Kentucky,LaGrange
Anderson Crossing,"1300 Anderson Crossing Dr, Lawrenceburg, KY, 40342",(502) 859-0234,Kentucky,Lawrenceburg
E Main St,"705 E Main St, Lebanon, KY, 40033",(270) 692-3591,Kentucky,Lebanon
Beaumont Centre,"3175 Beaumont Centre Cir, Lexington, KY, 40513",(859) 219-1091,Kentucky,Lexington
Bryan Station,"1650 Bryan Station Rd, Lexington, KY, 40505",(859) 293-5969,Kentucky,Lexington
Chinoe,"1060 Chinoe Rd Ste 190, Lexington, KY, 40502",(859) 335-4706,Kentucky,Lexington
Gardenside - Power Alley,"1808 Alexandria Dr, Lexington, KY, 40504",(859) 276-3556,Kentucky,Lexington
Hartland Parkway,"4750 Hartland Pkwy, Lexington, KY, 40515",(859) 273-2557,Kentucky,Lexington
Lexington,"704 Euclid Ave, Lexington, KY, 40502",(859) 687-3260,Kentucky,Lexington
Man-O-War,"3101 Richmond Rd, Lexington, KY, 40509",(859) 268-6006,Kentucky,Lexington
Meadowthorpe SC,"1600 Leestown Rd, Lexington, KY, 40511",(859) 259-0933,Kentucky,Lexington
Millpond Center,"3650 Boston Rd, Lexington, KY, 40514",(859) 223-8088,Kentucky,Lexington
Regency Center,"150 W Lowry Ln Ste 190, Lexington, KY, 40503",(859) 278-6228,Kentucky,Lexington
Tates Creek,"4101 Tates Creek Centre Dr, Lexington, KY, 40517",(859) 273-1100,Kentucky,Lexington
Laurel Plaza,"1805 N Main St, London, KY, 40741",(606) 864-4311,Kentucky,London
London Marketplace,"1732 Highway 192 W, London, KY, 40741",(606) 878-1254,Kentucky,London
3rd Street,"4211 S 3Rd St, Louisville, KY, 40214",(502) 368-3065,Kentucky,Louisville
Auburndale,"5533 New Cut Rd, Louisville, KY, 40214",(502) 361-7446,Kentucky,Louisville
Bashford Manor,"3616 Buechel Byp, Louisville, KY, 40218",(502) 456-6522,Kentucky,Louisville
Broadway,"2710 W Broadway, Louisville, KY, 40211",(502) 778-3346,Kentucky,Louisville
Cedar Springs,"6900 Bardstown Rd, Louisville, KY, 40291",(502) 239-2115,Kentucky,Louisville
Central Station,"3165 S 2Nd St, Louisville, KY, 40208",(502) 368-6075,Kentucky,Louisville
Cliftboro Plaza,"2200 Brownsboro Rd, Louisville, KY, 40206",(502) 897-1133,Kentucky,Louisville
Festival On The Court,"4501 Outer Loop, Louisville, KY, 40219",(502) 969-2855,Kentucky,Louisville
Germantown Square SC,"1265 Goss Ave, Louisville, KY, 40217",(502) 634-0724,Kentucky,Louisville
Highlands Kroger,"2440 Bardstown Rd, Louisville, KY, 40205",(502) 459-9805,Kentucky,Louisville
Holiday Manor Shopping Center,"2219 Holiday Manor Ctr, Louisville, KY, 40222",(502) 425-6960,Kentucky,Louisville
Kroger Marketplace,"4915A Dixie Hwy, Louisville, KY, 40216",(502) 448-8215,Kentucky,Louisville
McMahan Plaza,"3039 Breckenridge Ln, Louisville, KY, 40220",(502) 452-6445,Kentucky,Louisville
N 35th St,"520 N 35Th St, Louisville, KY, 40212",(502) 776-3713,Kentucky,Louisville
Plainview Village,"9812 Linn Station Rd, Louisville, KY, 40223",(502) 423-0943,Kentucky,Louisville
Pleasure Ridge Plaza,"7509 Terry Rd, Louisville, KY, 40258",(502) 935-8954,Kentucky,Louisville
Poplar Level,"4009 Poplar Level Rd, Louisville, KY, 40213",(502) 454-3914,Kentucky,Louisville
Shops of Forest Springs,"12450 La Grange Rd, Louisville, KY, 40245",(502) 241-1311,Kentucky,Louisville
Southgate,"5001 Mud Ln, Louisville, KY, 40229",(502) 962-7744,Kentucky,Louisville
Springhurst,"9440 Brownsboro Rd, Louisville, KY, 40241",(502) 425-8542,Kentucky,Louisville
Stony Brook,"9080 Taylorsville Rd, Louisville, KY, 40299",(502) 491-8805,Kentucky,Louisville
Tyler Center,"12611 Taylorsville Rd Ste 102, Louisville, KY, 40299",(502) 261-0251,Kentucky,Louisville
Valley Commons,"10645 Dixie Hwy, Louisville, KY, 40272",(502) 937-5205,Kentucky,Louisville
Westport Plaza,"9501 Westport Rd, Louisville, KY, 40241",(502) 425-0065,Kentucky,Louisville
Island Ford Shops,"545 Island Ford Rd, Madisonville, KY, 42431",(270) 821-1059,Kentucky,Madisonville
Maysville,"370 Market Square Dr, Maysville, KY, 41056",(606) 956-3140,Kentucky,Maysville
Village Square,"515 N 12Th St, Middlesboro, KY, 40965",(606) 248-3410,Kentucky,Middlesboro
Eastgate SC,"12501 Shelbyville Rd, Middletown, KY, 40243",(502) 244-7957,Kentucky,Middletown
Trademore Center,"300 Kroger CTR, Morehead, KY, 40351",(606) 784-7529,Kentucky,Morehead
Indian Mound Dr,"810 Indian Mound Dr, Mount Sterling, KY, 40353",(859) 497-4314,Kentucky,Mount Sterling
Eastbrooke Pkwy,"234 Eastbrooke Pkwy, Mount Washington, KY, 40047",(502) 538-1240,Kentucky,Mount Washington
Murray,"808 N 12Th St, Murray, KY, 42071",(270) 759-3021,Kentucky,Murray
I-471 Memorial Pkwy Carothers Rd,"130 Pavilion Pkwy, Newport, KY, 41071",(859) 292-5640,Kentucky,Newport
Bellerive Plaza,"170 Bellerive Blvd, Nicholasville, KY, 40356",(859) 219-1058,Kentucky,Nicholasville
Brannon Crossing,"200 E Brannon Rd, Nicholasville, KY, 40356",(859) 971-4300,Kentucky,Nicholasville
Kimberly Square,"995 S Main St, Nicholasville, KY, 40356",(859) 887-1201,Kentucky,Nicholasville
Commerce Plaza,"2308 Highway 144, Owensboro, KY, 42303",(270) 926-1433,Kentucky,Owensboro
Starlite Drive,"1670 Starlite Dr, Owensboro, KY, 42301",(270) 926-1607,Kentucky,Owensboro
Wesleyan Park Plaza,"2630 Frederica St, Owensboro, KY, 42301",(270) 684-9411,Kentucky,Owensboro
Hannan Plaza,"501 Lone Oak Rd, Paducah, KY, 42003",(270) 443-8806,Kentucky,Paducah
Paducah - Southside,"3275 Irvin Cobb Dr, Paducah, KY, 42003",(270) 442-2043,Kentucky,Paducah
Park Ave,"3141 Park Ave, Paducah, KY, 42001",(270) 444-0596,Kentucky,Paducah
Copper Creek SC,"100 Copper Creek Dr, Powderly, KY, 42367",(270) 338-6661,Kentucky,Powderly
Prospect Village,"5929 Timber Ridge Dr, Prospect, KY, 40059",(502) 292-2464,Kentucky,Prospect
Richmond Plaza,"890 Richmond Plz, Richmond, KY, 40475",(859) 624-1092,Kentucky,Richmond
Northridge,"181 S Highway 127, Russell Springs, KY, 42642",(270) 216-7007,Kentucky,Russell Springs
Woodlawn SC,"291 N Hubbards Ln Ste 130, Saint Matthews, KY, 40207",(502) 895-8332,Kentucky,Saint Matthews
Hi-Point SC,"311 Boone Station Rd, Shelbyville, KY, 40065",(502) 633-1625,Kentucky,Shelbyville
Shepherds Crossing,"185 Adam Shepherd Pkwy, Shepherdsville, KY, 40165",(502) 543-7242,Kentucky,Shepherdsville
Kroger Marketplace,"50 Stonegate Ctr, Somerset, KY, 42501",(606) 678-0202,Kentucky,Somerset
Tradewinds SC,"181 S Highway 27, Somerset, KY, 42501",(606) 678-5147,Kentucky,Somerset
W College Ave,"179 W College Ave, Stanton, KY, 40380",(606) 663-2873,Kentucky,Stanton
Union Marketplace,"9001 US Highway 42, Union, KY, 41091",(859) 334-9400,Kentucky,Union
Versailles Marketplace,"212 Kroger Way, Versailles, KY, 40383",(859) 873-7704,Kentucky,Versailles
Walton KY Marketplace,"635 Chestnut Dr, Walton, KY, 41094",(859) 379-0023,Kentucky,Walton
Kroger,"1187 N Highway 27, Whitley City, KY, 42653",(606) 588-2000,Kentucky,Whitley City
Bypass Rd Hwy 1958,"1661 Bypass Rd, Winchester, KY, 40391",(859) 745-4959,Kentucky,Winchester
Alex,"1422 Macarthur Dr, Alexandria, LA, 71301",(318) 442-1851,Louisiana,Alexandria
Airline,"1050 George Dement Blvd, Bossier City, LA, 71111",(318) 747-1424,Louisiana,Bossier City
Barksdale,"4100 Barksdale Blvd, Bossier City, LA, 71112",(318) 747-4211,Louisiana,Bossier City
Kroger,"2010 Country Club Rd, Lake Charles, LA, 70605",(337) 990-4901,Louisiana,Lake Charles
Bayou Walk,"6652 Youree Dr, Shreveport, LA, 71105",(318) 795-9944,Louisiana,Shreveport
Canterbury Square,"9155 Mansfield Rd, Shreveport, LA, 71118",(318) 688-2010,Louisiana,Shreveport
Shreveport Marketplace,"9484 Ellerbe Rd Ste 100, Shreveport, LA, 71106",(318) 517-6972,Louisiana,Shreveport
Sulphur Store,"1421 Beglis Pkwy, Sulphur, LA, 70663",(337) 528-9913,Louisiana,Sulphur
Algonac,"2600 Pointe Tremble Rd, Algonac, MI, 48001",(810) 671-4001,Michigan,Algonac
Plymouth Nixon,"2641 Plymouth Rd, Ann Arbor, MI, 48105",(734) 994-0600,Michigan,Ann Arbor
Washtenaw,"3615 Washtenaw Ave, Ann Arbor, MI, 48104",(734) 274-5390,Michigan,Ann Arbor
Westgate,"400 S Maple Rd, Ann Arbor, MI, 48103",(734) 213-2340,Michigan,Ann Arbor
Bay City,"945 N Euclid Ave, Bay City, MI, 48706",(989) 686-3590,Michigan,Bay City
Birmingham,"685 E Maple Rd, Birmingham, MI, 48009",(248) 723-1151,Michigan,Birmingham
Bloomfield Plaza,"4099 Telegraph Rd, Bloomfield Hills, MI, 48302",(248) 647-2204,Michigan,Bloomfield Hills
Maple Lasher,"3600 W Maple Rd, Bloomfield Hills, MI, 48301",(248) 530-0302,Michigan,Bloomfield Hills
Bridgeport,"6370 Dixie Hwy, Bridgeport, MI, 48722",(989) 777-0881,Michigan,Bridgeport
Brighton,"9968 E Grand River Ave, Brighton, MI, 48116",(810) 225-6200,Michigan,Brighton
Brownstown,"23849 West Rd, Brownstown, MI, 48134",(734) 561-1205,Michigan,Brownstown
Gibraltar,"20645 Gibraltar Rd, Brownstown Twp, MI, 48183",(734) 675-0451,Michigan,Brownstown Twp
Burton,"1200 E Bristol Rd, Burton, MI, 48529",(810) 234-6863,Michigan,Burton
Canton,"1905 N Canton Center Rd, Canton, MI, 48187",(734) 844-8910,Michigan,Canton
Michigan Canton,"45540 Michigan Ave, Canton, MI, 48188",(734) 397-2368,Michigan,Canton
Clarkston,"5990 Sashabaw Rd, Clarkston, MI, 48346",(248) 922-3164,Michigan,Clarkston
Davisburg,"9741 Dixie Hwy, Clarkston, MI, 48348",(248) 922-0416,Michigan,Clarkston
Dixie Maybee,"6625 Dixie Hwy, Clarkston, MI, 48346",(248) 620-8700,Michigan,Clarkston
Garfield,"41941 Garfield Rd, Clinton Township, MI, 48038",(586) 263-9555,Michigan,Clinton Township
Commerce Twp,"2906 Union Lake Rd, Commerce Township, MI, 48382",(248) 779-6200,Michigan,Commerce Township
Fourteen Mile,"39950 W 14 Mile Rd, Commerce Township, MI, 48390",(248) 313-6620,Michigan,Commerce Township
Walled Lake,"47060 W Pontiac Trl, Commerce Township, MI, 48390",(248) 960-7730,Michigan,Commerce Township
Davison,"700 N State Rd, Davison, MI, 48423",(810) 653-4175,Michigan,Davison
Eastborn,"15255 Michigan Ave, Dearborn, MI, 48126",(313) 827-4022,Michigan,Dearborn
Westborn,"23303 Michigan Ave, Dearborn, MI, 48124",(313) 562-1762,Michigan,Dearborn
Dearborn Heights,"26400 Ford Rd, Dearborn Heights, MI, 48127",(313) 827-3715,Michigan,Dearborn Heights
Dundee,"571 E Monroe St, Dundee, MI, 48131",(734) 529-3242,Michigan,Dundee
East Lansing,"1550 W Lake Lansing Rd, East Lansing, MI, 48823",(517) 351-9361,Michigan,East Lansing
Essexville,"2910 Center Ave, Essexville, MI, 48732",(989) 892-8037,Michigan,Essexville
11 Middlebelt,"25780 Middlebelt Rd, Farmington Hills, MI, 48336",(248) 471-4444,Michigan,Farmington Hills
Halstead Village,"37550 W 12 Mile Rd, Farmington Hills, MI, 48331",(248) 489-3170,Michigan,Farmington Hills
Royal Oak Twp,"8920 W 8 Mile Rd, Ferndale, MI, 48220",(248) 414-3790,Michigan,Ferndale
Carmen,"G3288 Corunna Rd, Flint, MI, 48532",(810) 235-6435,Michigan,Flint
Corunna Dye,"5249 Corunna Rd, Flint, MI, 48532",(810) 732-0130,Michigan,Flint
Richfield Center,"3838 Richfield Rd, Flint, MI, 48506",(810) 736-0320,Michigan,Flint
Flushing,"1542 E Pierson Rd, Flushing, MI, 48433",(810) 659-3121,Michigan,Flushing
Frankenmuth,"435 N Main St, Frankenmuth, MI, 48734",(989) 652-2621,Michigan,Frankenmuth
Grand Blanc,"12731 S Saginaw St, Grand Blanc, MI, 48439",(810) 695-6384,Michigan,Grand Blanc
Grosse Ile,"8999 Macomb St, Grosse Ile, MI, 48138",(734) 675-2070,Michigan,Grosse Ile
Grosse Pointe,"16919 Kercheval Ave, Grosse Pointe Park, MI, 48230",(313) 884-6035,Michigan,Grosse Pointe Park
Grosse Pointe Woods,"20422 Mack Ave, Grosse Pointe Woods, MI, 48236",(313) 308-1035,Michigan,Grosse Pointe Woods
Harper Woods,"20903 Harper Ave, Harper Woods, MI, 48225",(313) 642-0823,Michigan,Harper Woods
Metro Crocker,"26300 Crocker Blvd, Harrison Township, MI, 48045",(586) 954-0400,Michigan,Harrison Township
Hazel Park,"23101 John R Rd, Hazel Park, MI, 48030",(248) 658-1641,Michigan,Hazel Park
Hillsdale,"290 W Carleton Rd, Hillsdale, MI, 49242",(517) 439-0800,Michigan,Hillsdale
Holt,"2495 Cedar St, Holt, MI, 48842",(517) 694-4119,Michigan,Holt
Hartland,"10059 E Highland Rd, Howell, MI, 48843",(810) 991-2350,Michigan,Howell
Howell,"108 W Highland Rd, Howell, MI, 48843",(517) 552-0126,Michigan,Howell
Imlay City,"1821 S Cedar St, Imlay City, MI, 48444",(810) 721-3260,Michigan,Imlay City
Jackson,"1100 W Argyle St, Jackson, MI, 49202",(517) 788-5354,Michigan,Jackson
Lake Orion,"460 N Lapeer Rd, Lake Orion, MI, 48362",(248) 693-0486,Michigan,Lake Orion
Bedford Marketplace,"3462 Sterns Rd, Lambertville, MI, 48144",(734) 854-4990,Michigan,Lambertville
Delta,"6430 W Saginaw Hwy, Lansing, MI, 48917",(517) 886-1060,Michigan,Lansing
Frandor,"443 Mall Ct, Lansing, MI, 48912",(517) 332-2090,Michigan,Lansing
Holmes Logan,"921 W Holmes Rd, Lansing, MI, 48910",(517) 393-6622,Michigan,Lansing
Lapeer,"540 S Main St, Lapeer, MI, 48446",(810) 664-9234,Michigan,Lapeer
Lincoln Park,"2060 Dix Hwy, Lincoln Park, MI, 48146",(313) 386-7189,Michigan,Lincoln Park
5 Merriman,"30935 5 Mile Rd, Livonia, MI, 48154",(734) 421-1685,Michigan,Livonia
8 Farmington,"33523 8 Mile Rd, Livonia, MI, 48152",(248) 471-6780,Michigan,Livonia
21 Card,"21555 21 Mile Rd, Macomb, MI, 48044",(586) 421-0768,Michigan,Macomb
26 Mile,"16450 26 Mile Rd, Macomb, MI, 48042",(586) 677-8725,Michigan,Macomb
Midland,"2808 Ashman St, Midland, MI, 48640",(989) 835-8427,Michigan,Midland
Milan,"531 W Main St, Milan, MI, 48160",(734) 439-1140,Michigan,Milan
Milford,"670 Highland Ave, Milford, MI, 48381",(248) 685-1528,Michigan,Milford
Frenchtown,"3833 N Dixie Hwy, Monroe, MI, 48162",(734) 289-1070,Michigan,Monroe
Monroe,"850 S Monroe St, Monroe, MI, 48161",(734) 457-5500,Michigan,Monroe
Mt Morris,"7188 N Saginaw Rd, Mount Morris, MI, 48458",(810) 670-2840,Michigan,Mount Morris
New Baltimore,"35000 23 Mile Rd, New Baltimore, MI, 48047",(586) 725-5660,Michigan,New Baltimore
Main Center,"425 N Center St, Northville, MI, 48167",(248) 468-4485,Michigan,Northville
Northville,"17447 Haggerty Rd, Northville, MI, 48168",(248) 662-3031,Michigan,Northville
Novi,"47650 Grand River Ave, Novi, MI, 48374",(248) 374-9706,Michigan,Novi
Kroger Oak Park,"26200 Greenfield Rd, Oak Park, MI, 48237",(248) 721-8670,Michigan,Oak Park
Okemos,"4884 Marsh Rd, Okemos, MI, 48864",(517) 347-0100,Michigan,Okemos
Waldon Baldwin,"3097 S Baldwin Rd, Orion, MI, 48359",(248) 393-0765,Michigan,Orion
Owosso,"1315 E M 21, Owosso, MI, 48867",(989) 729-1355,Michigan,Owosso
Pinckney,"9700 Chilson Cmns, Pinckney, MI, 48169",(734) 213-7970,Michigan,Pinckney
Haggerty,"15455 N Haggerty Rd, Plymouth, MI, 48170",(734) 259-2770,Michigan,Plymouth
Plymouth,"44525 Ann Arbor Rd W, Plymouth, MI, 48170",(734) 414-8670,Michigan,Plymouth
North Port Huron,"2907 Krafft Rd, Port Huron, MI, 48060",(810) 987-9820,Michigan,Port Huron
South Port Huron,"1215 24Th St, Port Huron, MI, 48060",(810) 987-9420,Michigan,Port Huron
Richmond,"66900 Gratiot Ave, Richmond, MI, 48062",(586) 727-0125,Michigan,Richmond
Oakland,"4888 N Adams Rd, Rochester, MI, 48306",(248) 276-2541,Michigan,Rochester
Rochester Hills,"65 S Livernois Rd, Rochester Hills, MI, 48307",(248) 652-4750,Michigan,Rochester Hills
13 Mile Gratiot,"30851 Gratiot Ave, Roseville, MI, 48066",(586) 541-3315,Michigan,Roseville
13 Mile Little Mack,"20891 E 13 Mile Rd, Roseville, MI, 48066",(586) 298-3850,Michigan,Roseville
Frazho Gratiot,"26130 Gratiot Ave, Roseville, MI, 48066",(586) 776-8172,Michigan,Roseville
Kroger Marketplace - Royal Oak,"2200 E 12 Mile Rd, Royal Oak, MI, 48067",(248) 397-1520,Michigan,Royal Oak
Saginaw Twp,"4672 State St, Saginaw, MI, 48603",(989) 921-6221,Michigan,Saginaw
St Clair Shores,"23191 Marter Rd, Saint Clair Shores, MI, 48080",(586) 771-2290,Michigan,Saint Clair Shores
St Clair Shores on Harper Ave,"22801 Harper Ave, Saint Clair Shores, MI, 48080",(586) 800-5200,Michigan,Saint Clair Shores
St Johns,"900 S US Highway 27, Saint Johns, MI, 48879",(989) 224-6841,Michigan,Saint Johns
25 Dequindre,"2058 25 Mile Rd, Shelby Township, MI, 48316",(248) 651-1039,Michigan,Shelby Township
Shelby Marketplace,"14945 23 Mile Rd, Shelby Township, MI, 48315",(586) 930-7010,Michigan,Shelby Township
Stoney Creek,"7644 26 Mile Rd, Shelby Township, MI, 48316",(586) 697-8230,Michigan,Shelby Township
South Lyon,"20730 Pontiac Trl, South Lyon, MI, 48178",(248) 486-9133,Michigan,South Lyon
Ten Mile,"51847 10 Mile Rd, South Lyon, MI, 48178",(248) 667-7310,Michigan,South Lyon
12 Evergreen,"19855 W 12 Mile Rd, Southfield, MI, 48076",(248) 559-9829,Michigan,Southfield
Kroger,"16705 Fort St, Southgate, MI, 48195",(734) 286-9210,Michigan,Southgate
Canal Schoenherr,"43893 Schoenherr Rd, Sterling Heights, MI, 48313",(586) 685-1350,Michigan,Sterling Heights
Kroger Marketplace - Sterling Heights,"2051 18 Mile Rd, Sterling Heights, MI, 48314",(586) 930-0730,Michigan,Sterling Heights
Swartz Creek,"7084 Miller Rd, Swartz Creek, MI, 48473",(810) 630-0575,Michigan,Swartz Creek
Taylor,"7000 Monroe Blvd, Taylor, MI, 48180",(313) 299-1725,Michigan,Taylor
Big Beaver John R,"3125 John R Rd, Troy, MI, 48083",(248) 658-1700,Michigan,Troy
Coolidge,"1237 Coolidge Hwy, Troy, MI, 48084",(248) 519-1320,Michigan,Troy
Crooks South,"2105 South Blvd W, Troy, MI, 48098",(248) 537-1010,Michigan,Troy
Troy,"31 E Long Lake Rd, Troy, MI, 48098",(248) 879-1040,Michigan,Troy
Hoover 11,"26233 Hoover Rd, Warren, MI, 48089",(586) 754-5562,Michigan,Warren
Kroger Shoenherr,"31200 Schoenherr Rd, Warren, MI, 48092",(586) 238-4560,Michigan,Warren
Universal Mall,"28250 Dequindre Rd, Warren, MI, 48092",(586) 558-0064,Michigan,Warren
Romeo,"64660 Van Dyke Rd, Washington, MI, 48095",(586) 540-8003,Michigan,Washington
Waterford,"5111 Highland Rd, Waterford, MI, 48327",(248) 673-1629,Michigan,Waterford
Orchard Lake,"4395 Orchard Lake Rd, West Bloomfield, MI, 48323",(248) 626-0022,Michigan,West Bloomfield
Cherry Hill Merriman,"200 S Merriman Rd, Westland, MI, 48186",(734) 713-1122,Michigan,Westland
Michigan Merriman,"31300 Michigan Ave, Westland, MI, 48186",(734) 326-6981,Michigan,Westland
Warren Middlebelt,"7350 N Middlebelt Rd, Westland, MI, 48185",(734) 793-1022,Michigan,Westland
Westland,"36430 Ford Rd, Westland, MI, 48185",(734) 595-6638,Michigan,Westland
Kroger Marketplace,"10951 Highland Rd, White Lake, MI, 48386",(248) 779-6470,Michigan,White Lake
Carpenter Packard,"3200 Carpenter Rd, Ypsilanti, MI, 48197",(734) 971-7148,Michigan,Ypsilanti
Whittaker,"2010 Whittaker Rd, Ypsilanti, MI, 48197",(734) 547-1790,Michigan,Ypsilanti
Ypsilanti,"1771 E Michigan Ave, Ypsilanti, MI, 48198",(734) 482-5615,Michigan,Ypsilanti
Poplar Bluff,"2770 N Westwood Blvd, Poplar Bluff, MO, 63901",(573) 686-6970,Missouri,Poplar Bluff
Rolla,"605 W 4Th St, Rolla, MO, 65401",(573) 364-2721,Missouri,Rolla
Troy Square,"1 Troy Sq, Troy, MO, 63379",(636) 528-8423,Missouri,Troy
Batesville MS,"110 Keating Rd, Batesville, MS, 38606",(662) 578-9917,Mississippi,Batesville
Brandon,"1811 W Government St, Brandon, MS, 39042",(601) 825-3696,Mississippi,Brandon
Spillway,"1070 Spillway Cir, Brandon, MS, 39047",(601) 829-0740,Mississippi,Brandon
Byram,"6745 S Siwell Rd, Byram, MS, 39272",(601) 863-2001,Mississippi,Byram
Cleveland,"602 N Davis Ave, Cleveland, MS, 38732",(662) 846-9201,Mississippi,Cleveland
Clinton,"107 Highway 80 E, Clinton, MS, 39056",(601) 925-6340,Mississippi,Clinton
Columbus,"1829 Highway 45 N, Columbus, MS, 39705",(662) 327-1140,Mississippi,Columbus
Corinth,"104 Highway 72 W, Corinth, MS, 38834",(662) 287-8155,Mississippi,Corinth
Dogwood Promenade,"110 Promenade Blvd, Flowood, MS, 39232",(601) 718-2230,Mississippi,Flowood
Flowood East,"143 Friendly and Fresh Dr, Flowood, MS, 39232",(601) 992-7552,Mississippi,Flowood
Greenville,"1778 Highway 1 S, Greenville, MS, 38701",(662) 332-8895,Mississippi,Greenville
Kroger Marketplace,"2380 Mount Pleasant Rd, Hernando, MS, 38632",(662) 429-0355,Mississippi,Hernando
Goodman Rd and Horn Lake,"3926 Goodman Rd W, Horn Lake, MS, 38637",(662) 393-2213,Mississippi,Horn Lake
Horn Lake - I-55,"7251 Interstate Dr, Horn Lake, MS, 38637",(662) 349-8334,Mississippi,Horn Lake
Jacksonian Plaza,"4910 I 55 N, Jackson, MS, 39211",(601) 366-1141,Mississippi,Jackson
Laurel,"2340 Highway 15 N, Laurel, MS, 39440",(601) 426-6044,Mississippi,Laurel
Colony Crossing,"115 Colony Crossing Way, Madison, MS, 39110",(601) 605-5020,Mississippi,Madison
Madison,"1070 Highway 51, Madison, MS, 39110",(601) 853-2410,Mississippi,Madison
Olive Branch,"7427 Goodman Rd, Olive Branch, MS, 38654",(662) 895-1460,Mississippi,Olive Branch
Oxford,"2013 University Ave, Oxford, MS, 38655",(662) 236-9956,Mississippi,Oxford
Pearl,"201 Lonnie T Jenkins Dr, Pearl, MS, 39208",(601) 932-2325,Mississippi,Pearl
Richland,"1167 Highway 49 S, Richland, MS, 39218",(601) 664-0120,Mississippi,Richland
Old Canton Ridgeland,"7045 Old Canton Rd, Ridgeland, MS, 39157",(601) 856-3442,Mississippi,Ridgeland
Goodman Getwell,"3095 Goodman Rd E, Southaven, MS, 38672",(662) 536-3741,Mississippi,Southaven
Stateline Rd,"465 Stateline Rd W, Southaven, MS, 38671",(662) 393-2675,Mississippi,Southaven
Starkville,"826 Highway 12 W, Starkville, MS, 39759",(662) 324-8032,Mississippi,Starkville
Barnes Crossing,"930 Barnes Crossing Rd, Tupelo, MS, 38804",(662) 844-5206,Mississippi,Tupelo
Tupelo - Main St,"960 W Main St, Tupelo, MS, 38801",(662) 840-8448,Mississippi,Tupelo
Pemberton Sq,"3408 Pemberton Square Blvd, Vicksburg, MS, 39180",(601) 630-4000,Mississippi,Vicksburg
Pierce Township Marketplace,"262 W Main St, Amelia, OH, 45102",(513) 718-2202,Ohio,Amelia
Athens,"919 E State St, Athens, OH, 45701",(740) 592-1598,Ohio,Athens
Beavercreek,"3165 Dayton Xenia Rd, Beavercreek, OH, 45434",(937) 912-0500,Ohio,Beavercreek
Bellaire,"400 28Th St, Bellaire, OH, 43906",(740) 671-5164,Ohio,Bellaire
Bellefontaine,"2129 S Main St, Bellefontaine, OH, 43311",(937) 599-1208,Ohio,Bellefontaine
Belpre,"1008 Washington Blvd, Belpre, OH, 45714",(740) 423-5885,Ohio,Belpre
Blanchester,"1001 Cherry St, Blanchester, OH, 45107",(937) 783-0240,Ohio,Blanchester
Blue Ash,"4100 Hunt Rd, Blue Ash, OH, 45236",(513) 792-1500,Ohio,Blue Ash
Bowling Green,"1094 N Main St, Bowling Green, OH, 43402",(419) 353-3919,Ohio,Bowling Green
Bucyrus,"210 E Mary St, Bucyrus, OH, 44820",(419) 562-4719,Ohio,Bucyrus
Canal,"6095 Gender Rd, Canal Winchester, OH, 43110",(614) 834-2800,Ohio,Canal Winchester
Gender Road,"3588 Gender Rd, Canal Winchester, OH, 43110",(614) 920-7400,Ohio,Canal Winchester
Centerville,"5400 Cornerstone North Blvd, Centerville, OH, 45440",(937) 528-7040,Ohio,Centerville
Centerville Marketplace,"1095 S Main St, Centerville, OH, 45458",(937) 435-8210,Ohio,Centerville
Sugarcreek Twp,"6480 Wilmington Pike, Centerville, OH, 45459",(937) 848-5990,Ohio,Centerville
Bridge Street,"887 N Bridge St, Chillicothe, OH, 45601",(740) 773-2901,Ohio,Chillicothe
Chillicothe,"1165 Western Ave, Chillicothe, OH, 45601",(740) 773-3150,Ohio,Chillicothe
Anderson Township,"7580 Beechmont Ave, Cincinnati, OH, 45255",(513) 233-4400,Ohio,Cincinnati
Cherry Grove,"450 Ohio Pike, Cincinnati, OH, 45255",(513) 528-6120,Ohio,Cincinnati
Cincinnati,"7132 Hamilton Ave, Cincinnati, OH, 45231",(513) 728-2700,Ohio,Cincinnati
Colerain Marketplace,"3636 Springdale Rd, Cincinnati, OH, 45251",(513) 639-9900,Ohio,Cincinnati
Delhi,"5080 Delhi Rd, Cincinnati, OH, 45238",(513) 451-7200,Ohio,Cincinnati
Eastgate,"4530 Eastgate Blvd Ste 500, Cincinnati, OH, 45245",(513) 943-3900,Ohio,Cincinnati
Ferguson Road,"2310 Ferguson Rd, Cincinnati, OH, 45238",(513) 922-8090,Ohio,Cincinnati
Finneytown OH,"8421 Winton Rd, Cincinnati, OH, 45231",(513) 728-8630,Ohio,Cincinnati
Forest Park,"1212 W Kemper Rd, Cincinnati, OH, 45240",(513) 674-5800,Ohio,Cincinnati
Green Township,"5910 Harrison Ave, Cincinnati, OH, 45248",(513) 370-2000,Ohio,Cincinnati
Harpers Point,"11390 Montgomery Rd, Cincinnati, OH, 45249",(513) 247-7740,Ohio,Cincinnati
Hartwell,"8241 Vine St, Cincinnati, OH, 45216",(513) 821-2230,Ohio,Cincinnati
Hyde Park,"3760 Paxton Ave, Cincinnati, OH, 45209",(513) 871-4142,Ohio,Cincinnati
Kroger On the Rhine,"100 E Court St, Cincinnati, OH, 45202",(513) 263-5900,Ohio,Cincinnati
Madeira,"6950 Miami Ave, Cincinnati, OH, 45243",(513) 271-1260,Ohio,Cincinnati
Mariemont,"7385 Wooster Pike, Cincinnati, OH, 45227",(513) 271-9444,Ohio,Cincinnati
Monfort Heights OH,"3491 North Bend Rd, Cincinnati, OH, 45239",(513) 598-7500,Ohio,Cincinnati
Montgomery Rd Norwood,"4500 Montgomery Rd, Cincinnati, OH, 45212",(513) 841-6600,Ohio,Cincinnati
Mt Washington,"2120 Beechmont Ave, Cincinnati, OH, 45230",(513) 231-4530,Ohio,Cincinnati
Oakley OH Marketplace,"4613 Marburg Ave, Cincinnati, OH, 45209",(513) 782-5100,Ohio,Cincinnati
Sharonville OH,"12164 Lebanon Rd, Cincinnati, OH, 45241",(513) 733-4910,Ohio,Cincinnati
St Bernard,"4777 Kenard Ave, Cincinnati, OH, 45232",(513) 681-7650,Ohio,Cincinnati
University Plaza,"1 W Corry St, Cincinnati, OH, 45219",(513) 872-1500,Ohio,Cincinnati
Warsaw Avenue,"3609 Warsaw Ave, Cincinnati, OH, 45205",(513) 598-7880,Ohio,Cincinnati
Western Hills Plaza,"6165 Glenway Ave, Cincinnati, OH, 45211",(513) 719-2401,Ohio,Cincinnati
Woodlawn,"10595 Springfield Pike, Cincinnati, OH, 45215",(513) 771-1801,Ohio,Cincinnati
Circleville,"175 Lancaster Pike, Circleville, OH, 43113",(740) 477-5700,Ohio,Circleville
Whitewater Twp,"4001 Hamilton Cleves Rd, Cleves, OH, 45002",(513) 853-2500,Ohio,Cleves
Bexley,"2000 E Main St, Columbus, OH, 43205",(614) 252-0761,Ohio,Columbus
Brewers Yard,"150 W Sycamore St, Columbus, OH, 43215",(614) 340-7979,Ohio,Columbus
Chambers Rd,"1375 Chambers Rd, Columbus, OH, 43212",(614) 488-1116,Ohio,Columbus
Clintonville,"3417 N High St, Columbus, OH, 43214",(614) 263-1766,Ohio,Columbus
Crown Plaza,"2090 Crown Plaza Dr, Columbus, OH, 43235",(614) 326-5645,Ohio,Columbus
E Broad,"7000 E Broad St, Columbus, OH, 43213",(614) 575-3742,Ohio,Columbus
Eakin Road,"2161 Eakin Rd, Columbus, OH, 43223",(614) 274-7717,Ohio,Columbus
Georgesville,"1585 Georgesville Square Dr, Columbus, OH, 43228",(614) 878-1332,Ohio,Columbus
Graceland,"199 Graceland Blvd, Columbus, OH, 43214",(614) 410-1095,Ohio,Columbus
Great Southern,"3637 S High St, Columbus, OH, 43207",(614) 492-1077,Ohio,Columbus
Kroger Northland Village,"1745 Morse Rd, Columbus, OH, 43229",(614) 405-9400,Ohio,Columbus
Moler,"1441 Parsons Ave, Columbus, OH, 43207",(614) 445-5727,Ohio,Columbus
New Albany,"5161 Hampsted Village Center Way, Columbus, OH, 43054",(614) 855-8665,Ohio,Columbus
Polaris,"1177 Polaris Pkwy, Columbus, OH, 43240",(614) 430-2440,Ohio,Columbus
Short North Kroger 587,"1350 N High St, Columbus, OH, 43201",(614) 294-2545,Ohio,Columbus
Soldano Blvd,"3600 Soldano Blvd, Columbus, OH, 43228",(614) 274-8135,Ohio,Columbus
Alex Bell,"2921 W Alex Bell Rd, Dayton, OH, 45459",(937) 294-7141,Ohio,Dayton
Brandt Pike,"4506 Brandt Pike, Dayton, OH, 45424",(937) 233-8843,Ohio,Dayton
Kroger Riverside,"601 Woodman Dr, Dayton, OH, 45431",(937) 535-5800,Ohio,Dayton
Siebenthaler Ave,"3520 W Siebenthaler Ave, Dayton, OH, 45406",(937) 567-9578,Ohio,Dayton
Wayne Ave,"1555 Wayne Ave, Dayton, OH, 45410",(937) 254-2501,Ohio,Dayton
Defiance,"1890 E 2Nd St, Defiance, OH, 43512",(419) 784-5742,Ohio,Defiance
Columbus Pike,"1840 Columbus Pike, Delaware, OH, 43015",(740) 363-4398,Ohio,Delaware
Houk Road,"801 N Houk Rd, Delaware, OH, 43015",(740) 362-7476,Ohio,Delaware
Dublin,"7100 Hospital Dr, Dublin, OH, 43016",(614) 760-4241,Ohio,Dublin
Dublin Plaza,"299 W Bridge St, Dublin, OH, 43017",(614) 889-6687,Ohio,Dublin
Sawmill Rd,"7625 Sawmill Rd, Dublin, OH, 43016",(614) 923-2333,Ohio,Dublin
Eaton,"1603 N Barron St, Eaton, OH, 45320",(937) 472-2300,Ohio,Eaton
Englewood,"885 Union Blvd, Englewood, OH, 45322",(937) 832-4060,Ohio,Englewood
Kroger Marketplace,"1161 E Dayton Yellow Springs Rd, Fairborn, OH, 45324",(937) 318-3900,Ohio,Fairborn
Fairfield,"560 Wessel Dr, Fairfield, OH, 45014",(513) 858-8200,Ohio,Fairfield
6Th Street,"101 6Th St, Findlay, OH, 45840",(419) 423-2065,Ohio,Findlay
Findlay,"1996 Tiffin Ave, Findlay, OH, 45840",(419) 422-1163,Ohio,Findlay
Fostoria,"126 W High St, Fostoria, OH, 44830",(419) 435-4006,Ohio,Fostoria
Kroger Fremont,"1700 Cedar St, Fremont, OH, 43420",(419) 332-7985,Ohio,Fremont
Hunters Ridge,"300 S Hamilton Rd, Gahanna, OH, 43230",(614) 416-6430,Ohio,Gahanna
Stoneridge,"1365 Stoneridge Dr, Gahanna, OH, 43230",(614) 418-1524,Ohio,Gahanna
W Broad,"5800 W Broad St, Galloway, OH, 43119",(614) 870-4350,Ohio,Galloway
Goshen,"6725 Dick Flynn Blvd, Goshen, OH, 45122",(513) 722-7440,Ohio,Goshen
Greenville,"200 Lease Ave, Greenville, OH, 45331",(937) 548-1960,Ohio,Greenville
Hoover Road,"5965 Hoover Rd, Grove City, OH, 43123",(614) 277-3400,Ohio,Grove City
Stringtown,"2474 Stringtown Rd, Grove City, OH, 43123",(614) 875-1676,Ohio,Grove City
Groveport,"6011 Groveport Rd, Groveport, OH, 43125",(614) 830-2010,Ohio,Groveport
Hamilton,"1450 S Erie HWY, Hamilton, OH, 45011",(513) 868-5420,Ohio,Hamilton
Hamilton Meadows SC,"1474 Main St, Hamilton, OH, 45013",(513) 868-1110,Ohio,Hamilton
Harrison OH Marketplace,"10477 Harrison Ave, Harrison, OH, 45030",(513) 367-2100,Ohio,Harrison
Heath,"910 Hebron Rd, Heath, OH, 43056",(740) 522-8338,Ohio,Heath
Hebron,"600 E Main St, Hebron, OH, 43025",(740) 928-0795,Ohio,Hebron
Cemetery Road,"4656 Cemetery Rd, Hilliard, OH, 43026",(614) 876-1151,Ohio,Hilliard
Hilliard-Rome,"2525 Hilliard Rome Rd, Hilliard, OH, 43026",(614) 771-4174,Ohio,Hilliard
Hillsboro,"575 Harry Sauner Rd, Hillsboro, OH, 45133",(937) 840-9358,Ohio,Hillsboro
Orchard Centre,"7059 Orchard Centre Dr, Holland, OH, 43528",(567) 297-4109,Ohio,Holland
Huber Heights,"7747 Troy Pike, Huber Heights, OH, 45424",(937) 233-7602,Ohio,Huber Heights
Jackson,"530 E Main St, Jackson, OH, 45640",(740) 286-5017,Ohio,Jackson
Johnstown,"800 W Coshocton St, Johnstown, OH, 43031",(740) 966-8300,Ohio,Johnstown
Eichelberger Shopping Center,"530 E Stroop Rd, Kettering, OH, 45429",(937) 299-7500,Ohio,Kettering
Kettering,"2115 E Dorothy Ln, Kettering, OH, 45420",(937) 299-7475,Ohio,Kettering
Main Street,"1141 E Main St, Lancaster, OH, 43130",(740) 653-3244,Ohio,Lancaster
Memorial Dr,"1621 N Memorial Dr, Lancaster, OH, 43130",(740) 654-2511,Ohio,Lancaster
Lebanon OH Marketplace,"1425 Columbus Ave, Lebanon, OH, 45036",(513) 228-7340,Ohio,Lebanon
Lewis Center,"6417 Columbus Pike, Lewis Center, OH, 43035",(740) 888-1270,Ohio,Lewis Center
Liberty Township OH,"7300 Yankee Rd, Liberty Township, OH, 45044",(513) 342-3255,Ohio,Liberty Township
Kyles Station,"5250 Newtown Dr, Liberty Twp, OH, 45011",(513) 867-5900,Ohio,Liberty Twp
Logan,"31550 Chieftain Dr, Logan, OH, 43138",(740) 380-3236,Ohio,Logan
London,"230 Lafayette St, London, OH, 43140",(740) 852-5542,Ohio,London
Loveland,"800 Loveland Madeira Rd, Loveland, OH, 45140",(513) 677-3820,Ohio,Loveland
Miami Township,"6388 Branch Hill Guinea Pike, Loveland, OH, 45140",(513) 697-4800,Ohio,Loveland
Landen,"2900 W US Highway 22 and 3 STE 1, Maineville, OH, 45039",(513) 683-4001,Ohio,Maineville
Maineville,"5705 S State Route 48, Maineville, OH, 45039",(513) 494-1774,Ohio,Maineville
Ashland Road,"1060 Ashland Rd, Mansfield, OH, 44905",(419) 589-3147,Ohio,Mansfield
Lexington Avenue,"1500 Lexington Ave, Mansfield, OH, 44907",(419) 756-6049,Ohio,Mansfield
Park Avenue,"1240 Park Ave W, Mansfield, OH, 44906",(419) 528-1860,Ohio,Mansfield
Marietta,"40 Acme St, Marietta, OH, 45750",(740) 374-5855,Ohio,Marietta
Marion Mt Gilead,"1608 Marion Mount Gilead Rd, Marion, OH, 43302",(740) 389-2212,Ohio,Marion
Marion-Waldo,"1428 Marion Waldo Rd, Marion, OH, 43302",(740) 386-2919,Ohio,Marion
Martins Ferry,"400 Aetna St, Martins Ferry, OH, 43935",(740) 633-5017,Ohio,Martins Ferry
Marysville Marketplace,"1501 W 5th St, Marysville, OH, 43040",(937) 209-2448,Ohio,Marysville
Kings Mills Mason,"5210 State Route 741, Mason, OH, 45040",(513) 398-8680,Ohio,Mason
Mason Montgomery Mason OH,"5100 Terra Firma Dr, Mason, OH, 45040",(513) 229-5900,Ohio,Mason
Kroger Maumee,"1435 Reynolds Rd, Maumee, OH, 43537",(567) 302-2688,Ohio,Maumee
Mcconnelsville,"240 W Main St, McConnelsville, OH, 43756",(740) 962-2113,Ohio,McConnelsville
Austin Pike Landing,"10101 Landing Way, Miamisburg, OH, 45342",(937) 384-4200,Ohio,Miamisburg
Kroger Miamisburg,"255 N Heincke Road, Miamisburg, OH, 45342",(937) 847-2801,Ohio,Miamisburg
Middletown,"428 Oxford State Rd, Middletown, OH, 45044",(513) 423-5161,Ohio,Middletown
Middletown,"3420 Towne Blvd, Middletown, OH, 45005",(513) 217-2140,Ohio,Middletown
Milford,"824 Main St, Milford, OH, 45150",(513) 965-3640,Ohio,Milford
Milford-Mulberry,"1093 State Route 28, Milford, OH, 45150",(513) 583-3800,Ohio,Milford
Monroe,"3033 Heritage Green Dr, Monroe, OH, 45050",(513) 727-7422,Ohio,Monroe
Montgomery,"9939 Montgomery Rd, Montgomery, OH, 45242",(513) 793-6451,Ohio,Montgomery
Mt Gilead,"555 W Marion Rd, Mount Gilead, OH, 43338",(419) 947-9191,Ohio,Mount Gilead
Mt Orab Marketplace,"210 Sterling Run Blvd, Mount Orab, OH, 45154",(937) 444-6910,Ohio,Mount Orab
Mt Vernon,"855 Coshocton Ave, Mount Vernon, OH, 43050",(740) 393-1425,Ohio,Mount Vernon
Nelsonville,"965 Poplar St, Nelsonville, OH, 45764",(740) 753-2362,Ohio,Nelsonville
New Lex,"610 Carroll St, New Lexington, OH, 43764",(740) 342-3578,Ohio,New Lexington
Kroger Newark Marketplace,"1155 N 21st St, Newark, OH, 43055",(740) 258-6677,Ohio,Newark
Navarre Ave,"3301 Navarre Ave, Oregon, OH, 43616",(419) 691-4607,Ohio,Oregon
Oxford,"300 S Locust St, Oxford, OH, 45056",(513) 523-2201,Ohio,Oxford
Pataskala,"350 E Broad St, Pataskala, OH, 43062",(740) 964-5100,Ohio,Pataskala
Perrysburg Marketplace,"27322 Carronade Dr, Perrysburg, OH, 43551",(567) 336-4658,Ohio,Perrysburg
Pickerington,"1045 Hill Rd N, Pickerington, OH, 43147",(614) 759-2761,Ohio,Pickerington
Refugee Road,"7833 Refugee Rd, Pickerington, OH, 43147",(614) 417-0050,Ohio,Pickerington
Piqua,"1510 Covington Ave, Piqua, OH, 45356",(937) 615-7000,Ohio,Piqua
Port Clinton,"2028 East Harbor Rd, Port Clinton, OH, 43452",(419) 734-5597,Ohio,Port Clinton
Portsmouth,"811 Gay St, Portsmouth, OH, 45662",(740) 354-8621,Ohio,Portsmouth
Powell Rd,"3975 Powell Rd, Powell, OH, 43065",(614) 889-5029,Ohio,Powell
Proctorville,"6306 County Road 107, Proctorville, OH, 45669",(740) 886-7146,Ohio,Proctorville
Kroger Reynoldsburg,"6580 E Main St, Reynoldsburg, OH, 43068",(614) 866-5336,Ohio,Reynoldsburg
Main Taylor,"8460 E Main St, Reynoldsburg, OH, 43068",(614) 552-0777,Ohio,Reynoldsburg
St Clairsville,"50789 Valley Plaza Dr, Saint Clairsville, OH, 43950",(740) 695-7164,Ohio,Saint Clairsville
Saint Marys,"475 Fortman Dr, Saint Marys, OH, 45885",(419) 394-8920,Ohio,Saint Marys
Sandusky Marketplace,"226 E Perkins Ave, Sandusky, OH, 44870",(419) 239-2623,Ohio,Sandusky
Sidney Oh,"2100 Michigan St, Sidney, OH, 45365",(937) 497-7411,Ohio,Sidney
Kroger Springboro,"625 W Central Ave, Springboro, OH, 45066",(937) 743-5900,Ohio,Springboro
Derr Rd,"2989 Derr Rd, Springfield, OH, 45503",(937) 390-2390,Ohio,Springfield
Springfield,"965 N Bechtle Ave, Springfield, OH, 45504",(937) 323-0340,Ohio,Springfield
Springfield,"2728 E Main St, Springfield, OH, 45503",(937) 525-6750,Ohio,Springfield
Hollywood Plaza,"264 S Hollywood Blvd, Steubenville, OH, 43952",(740) 264-5057,Ohio,Steubenville
Sunbury,"131 State Route 3, Sunbury, OH, 43074",(740) 965-0500,Ohio,Sunbury
Swanton,"113 E Airport Hwy, Swanton, OH, 43558",(419) 825-1985,Ohio,Swanton
Sylvania,"7545 Sylvania Ave, Sylvania, OH, 43560",(419) 841-2888,Ohio,Sylvania
Sylvania,"6235 Monroe St, Sylvania, OH, 43560",(419) 885-5027,Ohio,Sylvania
Tiffin,"790 W Market St, Tiffin, OH, 44883",(419) 447-8199,Ohio,Tiffin
Alexis Road,"833 W Alexis Rd, Toledo, OH, 43612",(419) 269-6905,Ohio,Toledo
Glendale Avenue,"2555 Glendale Ave, Toledo, OH, 43614",(419) 385-4660,Ohio,Toledo
Holland-Sylvania,"2257 N Holland Sylvania Rd, Toledo, OH, 43615",(419) 578-6460,Ohio,Toledo
Miracle Mile,"4925 Jackman Rd, Toledo, OH, 43613",(419) 475-4394,Ohio,Toledo
Monroe Secor,"4533 Monroe St, Toledo, OH, 43613",(419) 471-9237,Ohio,Toledo
Suder Avenue,"4633 Suder Ave, Toledo, OH, 43611",(419) 727-2640,Ohio,Toledo
Trimble,"19471 Lake Dr, Trimble, OH, 45782",(740) 767-3062,Ohio,Trimble
Troy Marketplace,"731 W Market St, Troy, OH, 45373",(937) 573-4400,Ohio,Troy
Henderson Rd,"1955 Henderson Rd, Upper Arlington, OH, 43220",(614) 457-1825,Ohio,Upper Arlington
Urbana,"1637 E Us Highway 36, Urbana, OH, 43078",(937) 652-2227,Ohio,Urbana
Vandalia,"780 Northwoods Blvd, Vandalia, OH, 45377",(937) 264-2400,Ohio,Vandalia
Washington Court House,"548 Clinton Ave, Washington Court House, OH, 43160",(740) 335-4030,Ohio,Washington Court House
Waterville,"8730 Waterville Swanton Rd, Waterville, OH, 43566",(419) 878-1030,Ohio,Waterville
Waverly,"220 Waverly Plz, Waverly, OH, 45690",(740) 947-7738,Ohio,Waverly
Crossings of Beckett,"8000 Princeton Glendale Rd, West Chester, OH, 45069",(513) 682-8000,Ohio,West Chester
Tylersville Road West Chester OH,"7855 Tylersville Rd, West Chester, OH, 45069",(513) 777-7381,Ohio,West Chester
Maxtown,"7345 State Route 3, Westerville, OH, 43082",(614) 794-5555,Ohio,Westerville
Schrock Rd,"55 W Schrock Rd, Westerville, OH, 43081",(614) 890-8660,Ohio,Westerville
Sunbury Rd,"5991 S Sunbury Rd, Westerville, OH, 43081",(614) 895-1500,Ohio,Westerville
Wheelersburg,"9101 Ohio River Rd, Wheelersburg, OH, 45694",(740) 574-2171,Ohio,Wheelersburg
E Broad Whitehall,"3675 E Broad St, Whitehall, OH, 43213",(614) 237-0076,Ohio,Whitehall
Great Eastern,"850 S Hamilton Rd, Whitehall, OH, 43213",(614) 759-2745,Ohio,Whitehall
Wilmington,"1230 Rombach Ave, Wilmington, OH, 45177",(937) 655-5700,Ohio,Wilmington
Wintersville,"858 Main St, Wintersville, OH, 43953",(740) 264-3248,Ohio,Wintersville
Worthington Mall,"60 Worthington Mall, Worthington, OH, 43085",(614) 885-3889,Ohio,Worthington
Worthington Woods,"1425 Worthington Centre Dr, Worthington, OH, 43085",(614) 841-7410,Ohio,Worthington
West Park Square,"1700 W Park Sq, Xenia, OH, 45385",(937) 376-7962,Ohio,Xenia
Zanesville,"3387 Maple Ave, Zanesville, OH, 43701",(740) 450-5414,Ohio,Zanesville
Aiken,"1795 Whiskey Rd, Aiken, SC, 29803",(803) 642-5280,South Carolina,Aiken
Belfair Towne Village,"125 Towne Dr, Bluffton, SC, 29910",(843) 815-6070,South Carolina,Bluffton
Buckwalter Place,"27 Discovery Dr, Bluffton, SC, 29910",(843) 989-7022,South Carolina,Bluffton
Forest Acres,"3403 Forest Dr, Columbia, SC, 29204",(803) 738-0225,South Carolina,Columbia
Killians Crossing,"1028 Roberts Branch Pkwy, Columbia, SC, 29203",(803) 234-7130,South Carolina,Columbia
Sparkleberry Square SC,"10136 Two Notch Rd, Columbia, SC, 29229",(803) 788-6171,South Carolina,Columbia
Shelter Cove,"42 Shelter Cove Ln, Hilton Head, SC, 29928",(843) 842-0540,South Carolina,Hilton Head
Irmo Station - St Andrews Rd,"7467 Saint Andrews Rd, Irmo, SC, 29063",(803) 732-0423,South Carolina,Irmo
Garden City Beach,"2939 S Highway 17, Murrells Inlet, SC, 29576",(843) 235-7101,South Carolina,Murrells Inlet
Carolina Forest Plaza,"3735 Renee Dr, Myrtle Beach, SC, 29579",(843) 273-7102,South Carolina,Myrtle Beach
Galleria Shopping Center,"9610 N Kings Hwy, Myrtle Beach, SC, 29572",(843) 449-9671,South Carolina,Myrtle Beach
River Commons,"1284 Knox Ave, North Augusta, SC, 29841",(803) 442-4500,South Carolina,North Augusta
Ocean Plaza,"781 Main St, North Myrtle Beach, SC, 29582",(843) 249-9950,South Carolina,North Myrtle Beach
Alcoa,"244 S Hall Rd, Alcoa, TN, 37701",(865) 984-7130,Tennessee,Alcoa
Hickory Hollow,"5319 Mount View Rd, Antioch, TN, 37013",(615) 731-2321,Tennessee,Antioch
Arlington,"11635 Highway 70, Arlington, TN, 38002",(901) 290-9260,Tennessee,Arlington
Atoka,"11630 Highway 51 S, Atoka, TN, 38004",(901) 837-5000,Tennessee,Atoka
Bartlett Towne Center,"5995 Stage Rd, Bartlett, TN, 38134",(901) 385-7090,Tennessee,Bartlett
Kirby Whitten,"2942 Kirby Whitten Rd, Bartlett, TN, 38134",(901) 386-9595,Tennessee,Bartlett
Summer Appling,"7615 Us Highway 70, Bartlett, TN, 38133",(901) 758-3622,Tennessee,Bartlett
Kroger,"210 Franklin Rd Ste 100, Brentwood, TN, 37027",(615) 377-3690,Tennessee,Brentwood
Mill Creek,"6690 Nolensville Rd, Brentwood, TN, 37027",(615) 941-7640,Tennessee,Brentwood
Clarksville,"1489 Madison St, Clarksville, TN, 37040",(931) 553-0250,Tennessee,Clarksville
Dover Crossing,"110 Dover Crossing Rd, Clarksville, TN, 37042",(931) 920-8807,Tennessee,Clarksville
Lowes Drive,"2100 Lowes Dr, Clarksville, TN, 37040",(931) 906-3510,Tennessee,Clarksville
Collierville - New Byhalia,"240 New Byhalia Rd, Collierville, TN, 38017",(901) 853-1330,Tennessee,Collierville
Houston Levee - Collierville,"3685 S Houston Levee Rd, Collierville, TN, 38017",(901) 854-2705,Tennessee,Collierville
James Campbell Blvd,"1202 S James M Campbell Blvd Ste 1, Columbia, TN, 38401",(931) 388-9002,Tennessee,Columbia
Nashville Highway,"845 Nashville Hwy, Columbia, TN, 38401",(931) 381-0263,Tennessee,Columbia
Cookeville,"445 S Jefferson Ave, Cookeville, TN, 38501",(931) 526-4575,Tennessee,Cookeville
Dexter - Cordova,"1675 N Germantown Pkwy, Cordova, TN, 38016",(901) 624-1338,Tennessee,Cordova
Houston Levee Macon,"1230 N Houston Levee Rd, Cordova, TN, 38018",(901) 751-1840,Tennessee,Cordova
Trinity,"676 N Germantown Pkwy, Cordova, TN, 38018",(901) 756-8908,Tennessee,Cordova
Highland Square,"265 Highland Sq, Crossville, TN, 38555",(931) 456-7646,Tennessee,Crossville
Decherd SC,"1840 Decherd Blvd, Decherd, TN, 37324",(931) 967-1203,Tennessee,Decherd
Dickson,"143 Henslee Dr, Dickson, TN, 37055",(615) 446-5186,Tennessee,Dickson
Dyersburg,"2525 Lake Rd, Dyersburg, TN, 38024",(731) 285-0380,Tennessee,Dyersburg
Campbell Station Exchange,"189 Brooklawn St, Farragut, TN, 37934",(865) 671-7910,Tennessee,Farragut
Alexander Plaza,"1203 Murfreesboro Rd, Franklin, TN, 37064",(615) 790-1124,Tennessee,Franklin
Cool Springs,"2020 Mallory Ln, Franklin, TN, 37067",(615) 771-7922,Tennessee,Franklin
Independence Square,"595 Hillsboro Rd Ste 305, Franklin, TN, 37064",(615) 790-1618,Tennessee,Franklin
Parkway Commons,"3054 Columbia Ave, Franklin, TN, 37064",(615) 794-6506,Tennessee,Franklin
Westhaven Town Village,"411 Whitman St, Franklin, TN, 37064",(615) 472-9860,Tennessee,Franklin
Gallatin,"845 Nashville Pike, Gallatin, TN, 37066",(615) 451-2803,Tennessee,Gallatin
Gallatin Marketplace,"2011 Nashville Pike, Gallatin, TN, 37066",(615) 230-3900,Tennessee,Gallatin
Germantown - Farmington,"7735 Farmington Blvd, Germantown, TN, 38138",(901) 758-3400,Tennessee,Germantown
Goodlettsville Northcreek,"123 Northcreek Blvd, Goodlettsville, TN, 37072",(615) 859-1016,Tennessee,Goodlettsville
Harriman,"1820 Roane State Hwy, Harriman, TN, 37748",(865) 717-3130,Tennessee,Harriman
Glenbrook,"1010 Glenbrook Way, Hendersonville, TN, 37075",(615) 822-0193,Tennessee,Hendersonville
Kroger,"237 E Main St, Hendersonville, TN, 37075",(615) 822-6155,Tennessee,Hendersonville
Northlake Village,"5544 Old Hickory Blvd, Hermitage, TN, 37076",(615) 883-4441,Tennessee,Hermitage
Shute Lane,"4400 Lebanon Pike, Hermitage, TN, 37076",(615) 883-3317,Tennessee,Hermitage
Lynwood Place,"941 N Parkway, Jackson, TN, 38305",(731) 423-4839,Tennessee,Jackson
University Commons,"35 W University Pkwy, Jackson, TN, 38305",(731) 660-7106,Tennessee,Jackson
West Towne Commons,"41 Stonebrook Pl, Jackson, TN, 38305",(731) 661-0910,Tennessee,Jackson
State Of Franklin,"1805 W State Of Franklin Rd, Johnson City, TN, 37604",(423) 929-1408,Tennessee,Johnson City
Sunset,"112 Sunset Dr, Johnson City, TN, 37604",(423) 282-5656,Tennessee,Johnson City
Kingsport,"1664 E Stone Dr, Kingsport, TN, 37660",(423) 392-0844,Tennessee,Kingsport
Ashville Hwy,"4414 Asheville Hwy, Knoxville, TN, 37914",(865) 521-2922,Tennessee,Knoxville
Broadway Shopping Center,"2217 N Broadway St, Knoxville, TN, 37917",(865) 523-1268,Tennessee,Knoxville
Chapman Square,"4409 Chapman Hwy, Knoxville, TN, 37920",(865) 577-3977,Tennessee,Knoxville
Crown Point Plaza,"6702 Clinton Hwy, Knoxville, TN, 37912",(865) 947-3283,Tennessee,Knoxville
Knox Plaza,"4918 Kingston Pike, Knoxville, TN, 37919",(865) 584-0201,Tennessee,Knoxville
Knoxville,"5201 N Broadway St, Knoxville, TN, 37918",(865) 686-1015,Tennessee,Knoxville
Landings At Cedar Bluff,"9225 Kingston Pike, Knoxville, TN, 37922",(865) 985-7960,Tennessee,Knoxville
Middlebrook Pike,"9161 Middlebrook Pike, Knoxville, TN, 37923",(865) 670-9940,Tennessee,Knoxville
Northshore,"9501 S Northshore Dr, Knoxville, TN, 37922",(865) 693-9005,Tennessee,Knoxville
LaVergne,"5145 Murfreesboro Rd, La Vergne, TN, 37086",(615) 535-9001,Tennessee,La Vergne
Stonebridge Crossing SC,"9025 US Highway 64, Lakeland, TN, 38002",(901) 381-9065,Tennessee,Lakeland
Lawrence Commons,"1700 N Locust Ave, Lawrenceburg, TN, 38464",(931) 766-0016,Tennessee,Lawrenceburg
Lebanon,"1418 W Main St Ste A, Lebanon, TN, 37087",(615) 449-4631,Tennessee,Lebanon
Lewisburg,"301 S Ellington Pkwy, Lewisburg, TN, 37091",(931) 359-8399,Tennessee,Lewisburg
Old Hickory SC,"200 Gallatin Pike S, Madison, TN, 37115",(615) 865-7956,Tennessee,Madison
Maryville Marketplace,"507 Foothills Plz, Maryville, TN, 37801",(865) 238-7433,Tennessee,Maryville
McMinnville,"1410 Sparta St, Mcminnville, TN, 37110",(931) 473-2436,Tennessee,Mcminnville
Frayser,"2632 Frayser Blvd, Memphis, TN, 38127",(901) 353-8281,Tennessee,Memphis
Gleneagles,"4770 Riverdale Rd, Memphis, TN, 38141",(901) 756-7291,Tennessee,Memphis
Kirby Quince,"2835 Kirby Rd, Memphis, TN, 38119",(901) 353-1822,Tennessee,Memphis
Kirby Woods,"6660 Poplar Ave, Memphis, TN, 38138",(901) 754-0354,Tennessee,Memphis
Mendenhall Sanderlin,"540 S Mendenhall Rd, Memphis, TN, 38117",(901) 683-8846,Tennessee,Memphis
Poplar Cleveland,"1366 Poplar Ave, Memphis, TN, 38104",(901) 272-7881,Tennessee,Memphis
Poplar Plaza,"3444 Plaza Ave, Memphis, TN, 38111",(901) 323-0191,Tennessee,Memphis
Raleigh,"3860 Austin Peay Hwy, Memphis, TN, 38128",(901) 383-4841,Tennessee,Memphis
Summer Avenue,"4264 Summer Ave, Memphis, TN, 38122",(901) 763-1556,Tennessee,Memphis
Truse Pkwy,"799 Truse Pkwy, Memphis, TN, 38117",(901) 682-2989,Tennessee,Memphis
Union Ave,"1759 Union Ave, Memphis, TN, 38104",(901) 272-8630,Tennessee,Memphis
Whitehaven,"1212 E Shelby Dr, Memphis, TN, 38116",(901) 346-8606,Tennessee,Memphis
Winchester Hacks,"7942 Winchester Rd, Memphis, TN, 38125",(901) 758-3609,Tennessee,Memphis
Millington,"8039 US Highway 51 N, Millington, TN, 38053",(901) 872-6741,Tennessee,Millington
Mt Juliet Road,"4120 N Mount Juliet Rd, Mount Juliet, TN, 37122",(615) 773-8700,Tennessee,Mount Juliet
Providence Market Place,"401 S Mount Juliet Rd Ste 200, Mount Juliet, TN, 37122",(615) 758-3300,Tennessee,Mount Juliet
Georgetown Square,"1776 W Northfield Blvd, Murfreesboro, TN, 37129",(615) 890-9873,Tennessee,Murfreesboro
Innsbrooke Square,"2946 S Church St, Murfreesboro, TN, 37127",(615) 217-2752,Tennessee,Murfreesboro
Irongate Village,"2325 Memorial Blvd, Murfreesboro, TN, 37129",(615) 867-2216,Tennessee,Murfreesboro
Kroger TN,"4432 Veterans Pkwy, Murfreesboro, TN, 37128",(615) 648-8500,Tennessee,Murfreesboro
Rutherford Crossing,"2050 Lascassas Pike, Murfreesboro, TN, 37130",(615) 907-6223,Tennessee,Murfreesboro
Stonetrace Commons,"2449 Old Fort Pkwy, Murfreesboro, TN, 37128",(615) 904-2545,Tennessee,Murfreesboro
Belle Meade,"4560 Harding Pike, Nashville, TN, 37205",(615) 269-5649,Tennessee,Nashville
Bellevue Hwy 100,"8141 Highway 100, Nashville, TN, 37221",(615) 662-8885,Tennessee,Nashville
Bellevue Hwy 70,"7087 Highway 70 S, Nashville, TN, 37221",(615) 662-1330,Tennessee,Nashville
Bordeaux,"3930 Clarksville Pike, Nashville, TN, 37218",(615) 876-5337,Tennessee,Nashville
Briley Pkwy,"61 E Thompson Ln, Nashville, TN, 37211",(615) 832-0852,Tennessee,Nashville
Charlotte Pike,"5705 Charlotte Pike, Nashville, TN, 37209",(615) 352-5352,Tennessee,Nashville
East Nashville,"711 Gallatin Ave, Nashville, TN, 37206",(615) 226-6880,Tennessee,Nashville
Edmondson Pike,"5713 Edmondson Pike, Nashville, TN, 37211",(615) 315-9205,Tennessee,Nashville
Green Hills,"2131 Abbott Martin Rd, Nashville, TN, 37215",(615) 297-7531,Tennessee,Nashville
Hickory Plaza,"5771 Nolensville Pike, Nashville, TN, 37211",(615) 834-8666,Tennessee,Nashville
Inglewood,"3410 Gallatin Pike, Nashville, TN, 37216",(615) 227-5053,Tennessee,Nashville
Kroger,"2201 21st Ave S, Nashville, TN, 37212",(615) 981-8847,Tennessee,Nashville
McGavock Pike,"143 Mcgavock Pike, Nashville, TN, 37214",(615) 883-0121,Tennessee,Nashville
Melrose,"2615 8th Ave S, Nashville, TN, 37204",(615) 297-5517,Tennessee,Nashville
Monroe,"800 Monroe St, Nashville, TN, 37208",(615) 256-6506,Tennessee,Nashville
Nashboro Village,"2284 Murfreesboro Pike, Nashville, TN, 37217",(615) 399-6697,Tennessee,Nashville
Oak Ridge Marketplace,"1550 Oak Ridge Tpke, Oak Ridge, TN, 37830",(865) 294-0212,Tennessee,Oak Ridge
Oakland,"7265 Highway 64, Oakland, TN, 38060",(901) 465-0681,Tennessee,Oakland
Paris,"1059 Mineral Wells Ave, Paris, TN, 38242",(731) 644-1075,Tennessee,Paris
Pigeon Forge,"220 Wears Valley Rd, Pigeon Forge, TN, 37863",(865) 429-0874,Tennessee,Pigeon Forge
Kroger Powell,"234 E Emory Rd, Powell, TN, 37849",(865) 761-7100,Tennessee,Powell
Savannah,"775 Pickwick St, Savannah, TN, 38372",(731) 925-9700,Tennessee,Savannah
Sevierville,"702 Winfield Dunn Pkwy, Sevierville, TN, 37876",(865) 429-1198,Tennessee,Sevierville
Seymour Shopping,"10721 Chapman Hwy, Seymour, TN, 37865",(865) 609-1909,Tennessee,Seymour
Shelbyville,"1010 N Main St, Shelbyville, TN, 37160",(931) 684-0681,Tennessee,Shelbyville
Innsbrooke,"463 W Sam Ridley Pkwy, Smyrna, TN, 37167",(615) 355-8329,Tennessee,Smyrna
Spring Hill,"4900 Port Royal Rd, Spring Hill, TN, 37174",(931) 560-2141,Tennessee,Spring Hill
Springfield,"2600 Memorial Blvd, Springfield, TN, 37172",(615) 382-7822,Tennessee,Springfield
Thompson Station Mktplace,"4726 Traders Way, Thompsons Station, TN, 37179",(615) 791-5346,Tennessee,Thompsons Station
Tullahoma,"1905 N Jackson St Ste 500, Tullahoma, TN, 37388",(931) 455-0842,Tennessee,Tullahoma
White House,"510 Highway 76, White House, TN, 37188",(615) 672-3175,Tennessee,White House
Addison Town Center,"3770 Belt Line Rd, Addison, TX, 75001",(972) 620-0001,Texas,Addison
Bethany Park,"1212 E Bethany Dr, Allen, TX, 75002",(972) 727-9299,Texas,Allen
Exchange,"1210 N Greenville Ave, Allen, TX, 75002",(214) 383-7100,Texas,Allen
McDermott,"1320 W McDermott Dr, Allen, TX, 75013",(214) 495-0202,Texas,Allen
Alvin,"3100 S Gordon St, Alvin, TX, 77511",(281) 388-3400,Texas,Alvin
Angleton,"1804 N Velasco St, Angleton, TX, 77515",(979) 849-1283,Texas,Angleton
Arkansas Lane,"2580 E Arkansas Ln, Arlington, TX, 76014",(817) 861-2255,Texas,Arlington
Arlington Marketplace,"5101 W Sublett Rd, Arlington, TX, 76017",(817) 516-3762,Texas,Arlington
Ascension,"2475 Ascension Blvd, Arlington, TX, 76006",(817) 860-6900,Texas,Arlington
Cooper,"5330 S Cooper St, Arlington, TX, 76017",(817) 472-9491,Texas,Arlington
Creekside Plaza,"2350 SE Green Oaks Blvd, Arlington, TX, 76018",(817) 419-0614,Texas,Arlington
Ensenada,"301 S Bowen Rd, Arlington, TX, 76013",(817) 277-5289,Texas,Arlington
Green Oaks Village,"5701 W Pleasant Ridge Rd, Arlington, TX, 76016",(817) 483-0666,Texas,Arlington
Lamar,"945 W Lamar Blvd, Arlington, TX, 76012",(817) 277-9811,Texas,Arlington
Pioneer Plaza,"2210 S Fielder Rd, Arlington, TX, 76013",(817) 277-3505,Texas,Arlington
Balch Springs,"11925 Elam Rd, Balch Springs, TX, 75180",(972) 557-1272,Texas,Balch Springs
Bartonville,"3400 FM 407 E, Bartonville, TX, 76226",(940) 294-8331,Texas,Bartonville
Garth,"6315 Garth Rd, Baytown, TX, 77521",(346) 216-4154,Texas,Baytown
Old Baytown,"1700 N Alexander Dr, Baytown, TX, 77520",(281) 422-8251,Texas,Baytown
Dowlen,"3965 Dowlen Rd, Beaumont, TX, 77706",(409) 899-5925,Texas,Beaumont
Phelan,"3845 Phelan Blvd, Beaumont, TX, 77707",(409) 833-3575,Texas,Beaumont
Bedford,"2109 Harwood Rd, Bedford, TX, 76021",(817) 685-9266,Texas,Bedford
Boonville,"2303 Boonville Rd, Bryan, TX, 77808",(979) 774-8366,Texas,Bryan
Burleson,"1631 SW Wilshire Blvd, Burleson, TX, 76028",(817) 258-5951,Texas,Burleson
Carrollton,"4038 Old Denton Rd, Carrollton, TX, 75007",(972) 512-3354,Texas,Carrollton
Cedar Hill,"235 E FM 1382, Cedar Hill, TX, 75104",(972) 291-7333,Texas,Cedar Hill
Cleburne,"1617 W Henderson St, Cleburne, TX, 76033",(817) 641-0771,Texas,Cleburne
Oyster Creek,"800 N Dixie Dr, Clute, TX, 77531",(979) 529-4391,Texas,Clute
Rock Prairie,"3535 Longmire Dr, College Station, TX, 77845",(979) 485-8773,Texas,College Station
336 North,"2222 Interstate 45 N, Conroe, TX, 77301",(936) 441-7333,Texas,Conroe
Kroger Marketplace,"341 S Loop 336 W, Conroe, TX, 77304",(936) 270-1026,Texas,Conroe
Coppell,"950 E Sandy Lake Rd, Coppell, TX, 75019",(972) 462-8584,Texas,Coppell
Crowley,"1004 S Crowley Rd, Crowley, TX, 76036",(817) 297-0005,Texas,Crowley
Barker Cypress,"18030 FM 529 Rd, Cypress, TX, 77433",(281) 550-9493,Texas,Cypress
Cyfair Town Center,"17455 Spring Cypress Rd, Cypress, TX, 77429",(281) 304-0859,Texas,Cypress
Fairfield,"20355 Cypresswood Dr, Cypress, TX, 77433",(832) 952-3179,Texas,Cypress
Grant,"13135 Louetta Rd, Cypress, TX, 77429",(281) 379-7753,Texas,Cypress
Town Lake,"9703 Barker Cypress Rd, Cypress, TX, 77433",(281) 746-3644,Texas,Cypress
Forest Lane,"9140 Forest Ln, Dallas, TX, 75243",(214) 221-0939,Texas,Dallas
Kroger Dallas,"5665 E Mockingbird Ln, Dallas, TX, 75206",(214) 826-2901,Texas,Dallas
Kroger Fresh Fare Dallas,"4901 Maple Ave, Dallas, TX, 75235",(972) 725-1269,Texas,Dallas
Kroger Fresh Fare Dallas,"4241 Capitol Ave, Dallas, TX, 75204",(972) 338-3100,Texas,Dallas
Kroger Fresh Fare Dallas,"4142 Cedar Springs Rd, Dallas, TX, 75219",(214) 599-9859,Texas,Dallas
Midway,"3939 Frankford Rd, Dallas, TX, 75287",(972) 662-1000,Texas,Dallas
Northview Plaza,"10677 E Northwest Hwy, Dallas, TX, 75238",(214) 553-0607,Texas,Dallas
Preston Trail,"17194 Preston Rd, Dallas, TX, 75248",(972) 931-5794,Texas,Dallas
Wynnewood Village,"752 Wynnewood Village Shp Ctr, Dallas, TX, 75224",(214) 941-8311,Texas,Dallas
Denton Crossing,"1592 S Loop 288, Denton, TX, 76205",(940) 566-6075,Texas,Denton
Hickory Creek,"5021 Hickory Creek Rd, Denton, TX, 76210",(940) 380-4100,Texas,Denton
University,"500 W University Dr, Denton, TX, 76201",(940) 566-6791,Texas,Denton
Desoto Crossing,"1001 N Interstate 35 E STE 500, Desoto, TX, 75115",(972) 224-2737,Texas,Desoto
Dickinson,"3410 Gulf Fwy, Dickinson, TX, 77539",(281) 337-6502,Texas,Dickinson
Duncanville,"200 W Camp Wisdom Rd, Duncanville, TX, 75116",(972) 298-9962,Texas,Duncanville
Euless,"1060 N Main St, Euless, TX, 76039",(817) 571-1008,Texas,Euless
Flower Mound Town Centre,"2709 Cross Timbers Rd, Flower Mound, TX, 75028",(972) 355-0997,Texas,Flower Mound
The Pines,"1101 Flower Mound Rd, Flower Mound, TX, 75028",(469) 671-5770,Texas,Flower Mound
Forney Marketplace,"500 Marketplace Blvd, Forney, TX, 75126",(972) 564-8489,Texas,Forney
Alliance,"3300 Texas Sage Trl, Fort Worth, TX, 76177",(817) 750-2040,Texas,Fort Worth
Alta Mesa,"3510 Altamesa Blvd, Fort Worth, TX, 76133",(817) 294-5911,Texas,Fort Worth
Bailey Boswell,"4750 W Bailey Boswell Rd, Fort Worth, TX, 76179",(682) 316-7507,Texas,Fort Worth
Basswood,"1653 Basswood Blvd, Fort Worth, TX, 76131",(682) 316-6386,Texas,Fort Worth
Beach Western,"6650 N Beach St, Fort Worth, TX, 76137",(817) 788-1688,Texas,Fort Worth
Fort Worth,"5241 North Tarrant Pkwy, Fort Worth, TX, 76244",(817) 380-6180,Texas,Fort Worth
TCU Store,"3120 S University Dr, Fort Worth, TX, 76109",(817) 566-7860,Texas,Fort Worth
Timberland Crossing,"12600 N Beach St, Fort Worth, TX, 76244",(817) 562-3900,Texas,Fort Worth
Westside Market,"9114 Camp Bowie West Blvd, Fort Worth, TX, 76116",(817) 244-2576,Texas,Fort Worth
Autumn Creek,"3135 E FM 528 Rd, Friendswood, TX, 77546",(281) 557-4563,Texas,Friendswood
Old Friendswood,"151 N Friendswood Dr, Friendswood, TX, 77546",(281) 992-0830,Texas,Friendswood
Custer Star,"12221 Custer Rd, Frisco, TX, 75035",(214) 491-5000,Texas,Frisco
Legacy,"4851 Legacy Dr, Frisco, TX, 75034",(972) 377-9001,Texas,Frisco
Main Street Village,"3205 Main St, Frisco, TX, 75034",(972) 712-6740,Texas,Frisco
Prestonbrook,"7500 Preston Rd, Frisco, TX, 75034",(972) 377-0850,Texas,Frisco
Galveston,"5730 Seawall Blvd, Galveston, TX, 77551",(409) 741-8580,Texas,Galveston
Beltline I-30,"532 W Interstate 30, Garland, TX, 75043",(972) 226-2681,Texas,Garland
Garland Towne Centre,"1406 W Walnut St, Garland, TX, 75042",(972) 494-4487,Texas,Garland
Shiloh Springs,"6850 N Shiloh Rd, Garland, TX, 75044",(972) 496-4603,Texas,Garland
Granbury,"3915 E US Highway 377, Granbury, TX, 76049",(682) 498-4222,Texas,Granbury
Great Southwest Pkwy,"2525 W Interstate 20, Grand Prairie, TX, 75052",(972) 988-1335,Texas,Grand Prairie
Plaza 303,"313 E Pioneer Pkwy, Grand Prairie, TX, 75051",(972) 264-2384,Texas,Grand Prairie
Henderson,"2415 Us Highway 79 S, Henderson, TX, 75654",(903) 657-3501,Texas,Henderson
1960 Eldridge,"12400 Fm 1960 Rd W, Houston, TX, 77065",(832) 237-4860,Texas,Houston
249 Cypresswood,"10010 Cypresswood Dr, Houston, TX, 77070",(281) 807-9095,Texas,Houston
Antoine Town Center,"12434 State Highway 249, Houston, TX, 77086",(281) 272-0005,Texas,Houston
Beltway 8 West,"9125 W Sam Houston Pkwy N, Houston, TX, 77064",(281) 477-0701,Texas,Houston
Bissonett,"9303 Highway 6 S, Houston, TX, 77083",(713) 474-2100,Texas,Houston
Briar Forest,"1520 Eldridge Pkwy, Houston, TX, 77077",(281) 496-6063,Texas,Houston
Buffalo Speedway,"5150 Buffalo Speedway, Houston, TX, 77005",(713) 661-8305,Texas,Houston
Channelview,"14710 Woodforest Blvd, Houston, TX, 77015",(713) 453-1175,Texas,Houston
Country Place,"14344 Memorial Dr, Houston, TX, 77079",(281) 493-1702,Texas,Houston
Cypress N Houston,"12222 Jones Rd, Houston, TX, 77070",(832) 912-7474,Texas,Houston
Cypress Station,"360 Cypress Creek Pkwy, Houston, TX, 77090",(281) 397-6633,Texas,Houston
Dairy Ashford,"12555 Briar Forest Dr, Houston, TX, 77077",(281) 496-9186,Texas,Houston
Easton Commons,"8550 Highway 6 N, Houston, TX, 77095",(281) 463-4573,Texas,Houston
Echo Lane,"9325 Katy Fwy, Houston, TX, 77024",(713) 461-7754,Texas,Houston
El Camino Real,"16400 El Camino Real, Houston, TX, 77062",(281) 286-2540,Texas,Houston
El Dorado,"1950 El Dorado Blvd, Houston, TX, 77062",(281) 480-2678,Texas,Houston
Eldridge Lakes Town Center,"6350 N Eldridge Pkwy, Houston, TX, 77041",(713) 896-6101,Texas,Houston
Elmside,"9919 Westheimer Rd, Houston, TX, 77042",(713) 532-5566,Texas,Houston
Hammerly Plaza,"2300 Gessner Rd, Houston, TX, 77080",(713) 467-9343,Texas,Houston
Heights Plaza,"239 W 20Th St, Houston, TX, 77008",(713) 862-6659,Texas,Houston
Jersey Village,"9330 Jones Rd, Houston, TX, 77065",(281) 894-7094,Texas,Houston
Kirby,"7747 Kirby Dr, Houston, TX, 77030",(713) 661-7175,Texas,Houston
Meyerland,"10306 S Post Oak Rd, Houston, TX, 77035",(713) 721-7691,Texas,Houston
Oak Forest,"1352 W 43Rd St, Houston, TX, 77018",(713) 681-0901,Texas,Houston
Polk,"4000 Polk St, Houston, TX, 77023",(713) 224-5105,Texas,Houston
River Oaks,"1938 W Gray St, Houston, TX, 77019",(713) 521-1909,Texas,Houston
Sabo,"11701 S Sam Houston Pkwy E, Houston, TX, 77089",(281) 484-7754,Texas,Houston
Shepherd,"1035 N Shepherd Dr, Houston, TX, 77008",(713) 880-4496,Texas,Houston
Studemont,"1440 Studemont St, Houston, TX, 77007",(832) 708-2286,Texas,Houston
Summerwood,"14221 E Sam Houston Pkwy N, Houston, TX, 77044",(281) 670-2057,Texas,Houston
Telephone Road,"6322 Telephone Rd, Houston, TX, 77087",(713) 644-5434,Texas,Houston
Veterans,"13133 Veterans Memorial Dr, Houston, TX, 77014",(281) 440-0522,Texas,Houston
Voss,"1801 S Voss Rd, Houston, TX, 77057",(713) 780-7497,Texas,Houston
Wirt,"1505 Wirt Rd, Houston, TX, 77055",(713) 722-9800,Texas,Houston
Woodforest,"12620 Woodforest Blvd, Houston, TX, 77015",(713) 451-8121,Texas,Houston
Atascocita,"19300 W Lake Houston Pkwy, Humble, TX, 77346",(281) 812-4422,Texas,Humble
Townsen,"9475 FM 1960 Bypass Rd W, Humble, TX, 77338",(281) 973-5089,Texas,Humble
Will Clayton,"3820 Atascocita Rd, Humble, TX, 77396",(281) 812-2147,Texas,Humble
Huntsville,"223 Interstate 45 S, Huntsville, TX, 77340",(936) 999-7000,Texas,Huntsville
Hurst Store,"708 E Pipeline Rd, Hurst, TX, 76053",(817) 285-9515,Texas,Hurst
Las Colinas,"7505 N Macarthur Blvd, Irving, TX, 75063",(972) 831-8357,Texas,Irving
Northgate Hills,"3612 N Belt Line Rd, Irving, TX, 75062",(972) 252-7413,Texas,Irving
South Irving,"515 S Macarthur Blvd, Irving, TX, 75060",(972) 259-8023,Texas,Irving
Story,"2201 W Grauwyler Rd, Irving, TX, 75061",(972) 790-5745,Texas,Irving
Bay Hill,"1550 W Grand Pkwy S, Katy, TX, 77494",(281) 693-0603,Texas,Katy
Cinco East,"22150 Westheimer Pkwy, Katy, TX, 77450",(281) 828-8880,Texas,Katy
Eagle Ranch,"6055 Fry Rd, Katy, TX, 77449",(281) 858-5774,Texas,Katy
Firethorne,"1712 Spring Green Blvd, Katy, TX, 77494",(281) 769-4360,Texas,Katy
Kroger,"9806 Gaston Rd, Katy, TX, 77494",(346) 307-3054,Texas,Katy
Morton,"2700 W Grand Pkwy N, Katy, TX, 77449",(346) 307-3084,Texas,Katy
Keller Parkway,"976 Keller Pkwy, Keller, TX, 76248",(817) 431-5194,Texas,Keller
Rufe Snow,"2061 Rufe Snow Dr, Keller, TX, 76248",(817) 605-8591,Texas,Keller
North Park,"25651 Highway 59 N, Kingwood, TX, 77339",(281) 318-1194,Texas,Kingwood
Old Kingwood,"3410 Northpark Dr, Kingwood, TX, 77345",(281) 361-7343,Texas,Kingwood
LaPorte,"1300 W Fairmont Pkwy, La Porte, TX, 77571",(281) 842-1020,Texas,La Porte
Egret Bay,"250 S Egret Bay Blvd, League City, TX, 77573",(281) 332-1422,Texas,League City
Hobbs,"1920 W League City Pkwy, League City, TX, 77573",(281) 672-6104,Texas,League City
South Shore Harbour,"2750 E League City Pkwy, League City, TX, 77573",(281) 521-2560,Texas,League City
Castle Hills,"4620 State Highway 121, Lewisville, TX, 75056",(469) 535-2479,Texas,Lewisville
Little Elm,"2671 Little Elm Pkwy, Little Elm, TX, 75068",(469) 888-5518,Texas,Little Elm
Longview,"701 W Marshall Ave, Longview, TX, 75601",(903) 758-1726,Texas,Longview
Fish Creek,"6616 Fm 1488 Rd, Magnolia, TX, 77354",(936) 321-9885,Texas,Magnolia
Broad St,"3300 E Broad St, Mansfield, TX, 76063",(817) 435-5417,Texas,Mansfield
Matlock,"3001 Matlock Rd, Mansfield, TX, 76063",(817) 473-0059,Texas,Mansfield
Marshall,"300 E End Blvd N, Marshall, TX, 75670",(903) 938-7711,Texas,Marshall
Heritage Square,"1707 W University Dr, McKinney, TX, 75069",(972) 548-9053,Texas,McKinney
Kroger Marketplace,"1801 N Lake Forest Dr, McKinney, TX, 75071",(469) 678-3881,Texas,McKinney
Stonebridge,"2901 Lake Forest Dr, McKinney, TX, 75070",(972) 540-1196,Texas,McKinney
Creek Crossing,"1919 Faithon P Lucas Sr Blvd, Mesquite, TX, 75181",(469) 726-0224,Texas,Mesquite
Kroger Plaza,"525 N Galloway Ave, Mesquite, TX, 75149",(972) 288-5477,Texas,Mesquite
Towne Crossing,"3600 Gus Thomasson Rd Ste 150, Mesquite, TX, 75150",(972) 270-3589,Texas,Mesquite
Midlothian Towne Ctr,"2200 FM 663, Midlothian, TX, 76065",(469) 336-2040,Texas,Midlothian
Colony Lakes,"6200 Highway 6, Missouri City, TX, 77459",(281) 208-1737,Texas,Missouri City
Ft Bend Tollway,"10250 Highway 6, Missouri City, TX, 77459",(281) 431-6112,Texas,Missouri City
Montgomery,"20168 Eva St, Montgomery, TX, 77356",(936) 449-7166,Texas,Montgomery
North Street,"1215 North St, Nacogdoches, TX, 75961",(936) 569-8226,Texas,Nacogdoches
University Park,"3205 N University Dr, Nacogdoches, TX, 75965",(936) 569-9303,Texas,Nacogdoches
Valley Ranch,"22030 Market Place Dr, New Caney, TX, 77357",(281) 747-5088,Texas,New Caney
Greater Richland Plaza,"7201 Boulevard 26, North Richland Hills, TX, 76180",(817) 281-4007,Texas,North Richland Hills
North Tarrant Marketplace,"9150 N Tarrant Pkwy, North Richland Hills, TX, 76182",(817) 918-3348,Texas,North Richland Hills
The Crossing,"9135 Boulevard 26 STE 250, North Richland Hills, TX, 76180",(817) 605-3392,Texas,North Richland Hills
Orange,"1600 N 16Th St, Orange, TX, 77630",(409) 883-8521,Texas,Orange
Palestine,"325 E Spring St, Palestine, TX, 75801",(903) 729-5108,Texas,Palestine
Paris,"1310 Clarksville St, Paris, TX, 75460",(903) 785-5591,Texas,Paris
Kroger Junction,"2619 Red Bluff Rd, Pasadena, TX, 77506",(713) 475-0925,Texas,Pasadena
Red Bluff,"6767 Spencer Hwy, Pasadena, TX, 77505",(281) 998-2561,Texas,Pasadena
Spencer Square,"3550 Spencer Hwy, Pasadena, TX, 77504",(713) 944-4555,Texas,Pasadena
Cullen,"8323 Broadway St, Pearland, TX, 77581",(281) 997-6400,Texas,Pearland
Old Pearland,"3245 Broadway St, Pearland, TX, 77581",(281) 485-6014,Texas,Pearland
Shadow Creek,"11003 Shadow Creek Pkwy, Pearland, TX, 77584",(281) 669-1230,Texas,Pearland
Custer Park,"2925 Custer Rd, Plano, TX, 75075",(972) 612-3280,Texas,Plano
Legacy Village,"7100 Independence Pkwy, Plano, TX, 75025",(972) 491-2594,Texas,Plano
Los Rios,"4017 14Th St, Plano, TX, 75074",(972) 423-4805,Texas,Plano
Signature Plaza,"9700 Coit Rd, Plano, TX, 75025",(972) 377-7796,Texas,Plano
Windhaven Plaza,"3305 Dallas Pkwy, Plano, TX, 75093",(972) 608-4698,Texas,Plano
Shops at Prosper Trail,"1250 N Preston Rd, Prosper, TX, 75078",(972) 346-5209,Texas,Prosper
Windsong Ranch Marketplace,"4650 W University Dr, Prosper, TX, 75078",(972) 346-5243,Texas,Prosper
Buckingham,"536 Centennial Blvd, Richardson, TX, 75081",(972) 437-2233,Texas,Richardson
Coit,"160 N Coit Rd, Richardson, TX, 75080",(972) 664-0990,Texas,Richardson
Clodine,"6425 FM 1464 Rd, Richmond, TX, 77407",(281) 277-5353,Texas,Richmond
Southpark Cinco,"25050 FM 1093 Rd, Richmond, TX, 77406",(832) 586-7375,Texas,Richmond
Waterside,"8011 W Grand Pkwy S, Richmond, TX, 77407",(281) 341-2760,Texas,Richmond
North Rockwall,"1950 N Goliad St, Rockwall, TX, 75087",(469) 651-6026,Texas,Rockwall
Rockwall,"2935 Ridge Rd, Rockwall, TX, 75032",(972) 882-1255,Texas,Rockwall
Rosenberg,"24401 Brazos Town Xing, Rosenberg, TX, 77471",(281) 232-1230,Texas,Rosenberg
Sachse,"5190 Highway 78, Sachse, TX, 75048",(972) 675-2111,Texas,Sachse
Seabrook,"1905 El Mar Ln, Seabrook, TX, 77586",(281) 474-4001,Texas,Seabrook
Sherman,"1820 N Loy Lake Rd, Sherman, TX, 75090",(903) 893-6788,Texas,Sherman
Southlake Village Center,"2110 E Southlake Blvd, Southlake, TX, 76092",(817) 421-8105,Texas,Southlake
Champion,"15802 Champion Forest Dr, Spring, TX, 77379",(281) 370-9530,Texas,Spring
Imperial Oaks,"2301 Rayford Rd, Spring, TX, 77386",(832) 813-0300,Texas,Spring
Klein Crossing,"6060 FM 2920 Rd, Spring, TX, 77379",(281) 370-2072,Texas,Spring
Kroger,"2150 Spring Stuebner Rd, Spring, TX, 77389",(281) 602-0312,Texas,Spring
Kroger Marketplace,"3731 Riley Fuzzel Rd, Spring, TX, 77386",(281) 602-0282,Texas,Spring
Kuykendahl Louetta,"18518 Kuykendahl Rd, Spring, TX, 77379",(281) 350-3630,Texas,Spring
Stables,"8745 Spring Cypress Rd, Spring, TX, 77379",(832) 717-4100,Texas,Spring
Treaschwig,"5671 Treaschwig Rd, Spring, TX, 77373",(281) 443-8806,Texas,Spring
Kroger,"18861 University Blvd, Sugar Land, TX, 77479",(832) 342-9648,Texas,Sugar Land
Sweetwater,"4825 Sweetwater Blvd, Sugar Land, TX, 77479",(281) 494-6500,Texas,Sugar Land
West Airport,"11565 S Highway 6, Sugar Land, TX, 77498",(281) 340-1500,Texas,Sugar Land
Texas City,"3541 Palmer Hwy, Texas City, TX, 77590",(409) 948-3471,Texas,Texas City
The Colony,"6805 Main St, The Colony, TX, 75056",(972) 370-0889,Texas,The Colony
Alden Bridge,"8000 Research Forest Dr, The Woodlands, TX, 77382",(281) 419-1116,Texas,The Woodlands
Cochrans Crossing,"4747 Research Forest Dr, The Woodlands, TX, 77381",(281) 367-1591,Texas,The Woodlands
Sterling Ridge,"6700 Woodlands Pkwy Ste 600, The Woodlands, TX, 77382",(281) 296-0186,Texas,The Woodlands
Tomball,"14060 FM 2920 Rd, Tomball, TX, 77377",(281) 516-2184,Texas,Tomball
West Rayford,"24350 Kuykendahl Road, Tomball, TX, 77375",(281) 205-0532,Texas,Tomball
Willis,"12605 Interstate 45 N, Willis, TX, 77318",(936) 890-5083,Texas,Willis
Wylie,"2608 W FM 544, Wylie, TX, 75098",(972) 244-7680,Texas,Wylie
Abingdon,"466 Cummings St, Abingdon, VA, 24210",(276) 628-6015,Virginia,Abingdon
Appomattox,"7789 Richmond Hwy, Appomattox, VA, 24522",(434) 352-0817,Virginia,Appomattox
Gables,"1322 S Main St, Blacksburg, VA, 24060",(540) 953-7004,Virginia,Blacksburg
University City,"903 University City Blvd, Blacksburg, VA, 24060",(540) 951-3045,Virginia,Blacksburg
Bristol,"130 Stateline Ctr, Bristol, VA, 24201",(276) 642-0031,Virginia,Bristol
Barracks Road,"1159 Emmet St N, Charlottesville, VA, 22903",(434) 293-5176,Virginia,Charlottesville
Hydraulic,"1904 Emmet St N, Charlottesville, VA, 22901",(434) 295-8334,Virginia,Charlottesville
Rio Hill,"1980 Rio Hill Ctr, Charlottesville, VA, 22901",(434) 978-1311,Virginia,Charlottesville
Chesapeake Kroger,"309 Battlefield Blvd S, Chesapeake, VA, 23322",(757) 482-3377,Virginia,Chesapeake
Greenbrier Square Shopping Center,"1653 Sentinel Dr, Chesapeake, VA, 23320",(757) 389-7326,Virginia,Chesapeake
Mt Pleasant Kroger,"1464 Mount Pleasant Rd, Chesapeake, VA, 23322",(757) 217-4030,Virginia,Chesapeake
Breckenridge,"12726 Route 1, Chester, VA, 23831",(804) 414-7000,Virginia,Chester
Iron Bridge Marketplace,"10800 Iron Bridge Rd, Chester, VA, 23831",(804) 318-5579,Virginia,Chester
Christiansburg,"555 N Franklin St, Christiansburg, VA, 24073",(540) 381-8710,Virginia,Christiansburg
Clifton Forge,"1618 Main St, Clifton Forge, VA, 24422",(540) 691-2020,Virginia,Clifton Forge
Daleville,"72 Kingston Dr, Daleville, VA, 24083",(540) 254-6010,Virginia,Daleville
Fairlawn,"7480 Lee Hwy, Fairlawn, VA, 24141",(540) 639-0311,Virginia,Fairlawn
Forest,"15069 Forest Rd, Forest, VA, 24551",(434) 534-0020,Virginia,Forest
Grafton Kroger,"6500 George Washington Mem Hwy Ste C, Grafton, VA, 23692",(757) 947-1240,Virginia,Grafton
Hampton,"1050 W Mercury Blvd, Hampton, VA, 23666",(757) 251-0443,Virginia,Hampton
Smith Mountain Lake,"80 Westlake Rd, Hardy, VA, 24101",(540) 721-3102,Virginia,Hardy
Harrisonburg,"1790 E Market St, Harrisonburg, VA, 22801",(540) 432-1830,Virginia,Harrisonburg
Hayes Kroger,"7254 Hayes Shopping Ctr, Hayes, VA, 23072",(804) 642-6101,Virginia,Hayes
Staples Mill Marketplace,"9000 Staples Mill Rd, Henrico, VA, 23228",(804) 977-9514,Virginia,Henrico
West Broad,"9480 W Broad St, Henrico, VA, 23294",(804) 270-0933,Virginia,Henrico
Lexington,"422 E Nelson St, Lexington, VA, 24450",(540) 464-3309,Virginia,Lexington
Boonsboro,"4119 Boonsboro Rd, Lynchburg, VA, 24503",(434) 384-2415,Virginia,Lynchburg
Brookville,"7805 Timberlake Rd, Lynchburg, VA, 24502",(434) 237-5738,Virginia,Lynchburg
Wards Road,"2012 Wards Rd, Lynchburg, VA, 24502",(434) 239-6018,Virginia,Lynchburg
Martinsville,"240 Commonwealth Blvd W, Martinsville, VA, 24112",(276) 666-4001,Virginia,Martinsville
Mechanicsville,"6335 Mechanicsville Tpke, Mechanicsville, VA, 23111",(804) 730-6832,Virginia,Mechanicsville
Rutland Marketplace,"9351 Atlee Rd, Mechanicsville, VA, 23116",(804) 569-8240,Virginia,Mechanicsville
Bellgrade,"3001 Polo Pkwy, Midlothian, VA, 23113",(804) 379-1395,Virginia,Midlothian
Midlothian,"14101 Midlothian Tpke, Midlothian, VA, 23113",(804) 594-1640,Virginia,Midlothian
Swift Creek,"13201 Rittenhouse Dr, Midlothian, VA, 23112",(804) 763-5400,Virginia,Midlothian
Hicks,"2821 Hicks Rd, North Chesterfield, VA, 23235",(804) 675-2288,Virginia,North Chesterfield
Stonebridge,"7000 Tim Price Way, North Chesterfield, VA, 23225",(804) 772-8540,Virginia,North Chesterfield
Portsmouth Kroger,"1301 Frederick Blvd, Portsmouth, VA, 23707",(757) 215-4205,Virginia,Portsmouth
Carytown,"3507 W Cary St, Richmond, VA, 23221",(804) 254-1975,Virginia,Richmond
Eastridge,"1510 Eastridge Rd, Richmond, VA, 23229",(804) 288-2730,Virginia,Richmond
Gayton Crossing,"1356 Gaskins Rd, Richmond, VA, 23238",(804) 740-1718,Virginia,Richmond
Laburnum,"4816 S Laburnum Ave, Richmond, VA, 23231",(804) 222-0240,Virginia,Richmond
Lombardy,"901 N Lombardy St, Richmond, VA, 23220",(804) 213-3620,Virginia,Richmond
Short Pump,"11895 W Broad St, Richmond, VA, 23233",(804) 360-2643,Virginia,Richmond
Willow Lawn,"1601 Willow Lawn Dr Ste 1, Richmond, VA, 23230",(804) 288-2885,Virginia,Richmond
Bonsack,"3970 Valley Gateway Blvd, Roanoke, VA, 24012",(540) 977-6480,Virginia,Roanoke
Brambleton,"4404 Brambleton Ave, Roanoke, VA, 24018",(540) 776-0050,Virginia,Roanoke
Cave Spring Corners,"3971 Brambleton Ave, Roanoke, VA, 24018",(540) 774-0861,Virginia,Roanoke
Hollins,"7223 Williamson Rd, Roanoke, VA, 24019",(540) 563-0110,Virginia,Roanoke
Tanglewood,"4488 Electric Rd, Roanoke, VA, 24018",(540) 989-4434,Virginia,Roanoke
Towers,"614 Brandon Ave Sw, Roanoke, VA, 24015",(540) 342-1017,Virginia,Roanoke
Towne Square,"5050 Rutgers St Nw, Roanoke, VA, 24012",(540) 362-5990,Virginia,Roanoke
Rocky Mount,"400 Old Franklin Tpke Ste 110, Rocky Mount, VA, 24151",(540) 483-1002,Virginia,Rocky Mount
- Ridgewood Farms,"1925 Electric Rd, Salem, VA, 24153",(540) 375-2600,Virginia,Salem
Lakeside,"161 Electric Rd, Salem, VA, 24153",(540) 986-0009,Virginia,Salem
Spartan Square,"1477 W Main St, Salem, VA, 24153",(540) 387-2481,Virginia,Salem
Smithfield Kroger,"1282 Smithfield Plz, Smithfield, VA, 23430",(757) 357-2137,Virginia,Smithfield
Staunton,"850 Statler Blvd, Staunton, VA, 24401",(540) 885-9866,Virginia,Staunton
North Main Suffolk,"1401 N Main St, Suffolk, VA, 23434",(757) 539-4800,Virginia,Suffolk
University Suffolk,"1017 University Blvd, Suffolk, VA, 23435",(757) 335-4536,Virginia,Suffolk
Vinton,"915 Hardy Rd, Vinton, VA, 24179",(540) 345-7017,Virginia,Vinton
Holland Road,"3901 Holland Rd, Virginia Beach, VA, 23452",(757) 995-0400,Virginia,Virginia Beach
Kroger King Richard,"3330 Virginia Beach Blvd, Virginia Beach, VA, 23452",(757) 486-0040,Virginia,Virginia Beach
Providence,"975 Providence Sq Shopping Ctr, Virginia Beach, VA, 23464",(757) 495-8093,Virginia,Virginia Beach
Republic Road,"1800 Republic Rd, Virginia Beach, VA, 23454",(757) 422-4271,Virginia,Virginia Beach
Shore Drive,"4625 Shore Dr, Virginia Beach, VA, 23455",(757) 460-0343,Virginia,Virginia Beach
Downtown Waynesboro,"245 Arch Ave, Waynesboro, VA, 22980",(540) 447-5000,Virginia,Waynesboro
Kiln Creek Kroger,"5007 Victory Blvd, Yorktown, VA, 23693",(757) 234-7981,Virginia,Yorktown
Barboursville,"6360 Us Route 60 E, Barboursville, WV, 25504",(304) 733-3370,West Virginia,Barboursville
Beaver,"151 N Beaver Ln, Beaver, WV, 25813",(304) 255-5525,West Virginia,Beaver
Beckley Crossing,"133 Beckley Crossing SHPG CTR, Beckley, WV, 25801",(304) 252-5573,West Virginia,Beckley
Harper Road,"1734 Harper Rd, Beckley, WV, 25801",(304) 254-0520,West Virginia,Beckley
Buckhannon,"80 Skyline Plaza Dr, Buckhannon, WV, 26201",(304) 472-0918,West Virginia,Buckhannon
Cross Lanes,"5450 Big Tyler Rd, Charleston, WV, 25313",(304) 776-5063,West Virginia,Charleston
Delaware Ave,"500 Delaware Ave, Charleston, WV, 25302",(304) 342-6995,West Virginia,Charleston
Kanawha City,"5717 Maccorkle Ave Se, Charleston, WV, 25304",(304) 925-5447,West Virginia,Charleston
South Hills,"1100 Fledderjohn Rd, Charleston, WV, 25314",(304) 342-8807,West Virginia,Charleston
Kroger,"102 Emily Dr, Clarksburg, WV, 26301",(304) 623-1015,West Virginia,Clarksburg
Danville,"3265 Smoot Ave, Danville, WV, 25053",(304) 369-1935,West Virginia,Danville
Dunbar,"981 Dunbar Village Plz, Dunbar, WV, 25064",(304) 768-6481,West Virginia,Dunbar
Elkins,"450 11Th St, Elkins, WV, 26241",(304) 636-6888,West Virginia,Elkins
Elkview,"223 Crossings Mall Rd, Elkview, WV, 25071",(304) 965-2750,West Virginia,Elkview
Gassaway,"2908 State St, Gassaway, WV, 26624",(304) 364-2332,West Virginia,Gassaway
Hinton,"307 Stokes Dr, Hinton, WV, 25951",(304) 448-8010,West Virginia,Hinton
5Th Avenue,"2627 5Th Ave, Huntington, WV, 25702",(304) 529-0670,West Virginia,Huntington
7Th Ave,"19 7Th Ave W, Huntington, WV, 25701",(304) 522-1201,West Virginia,Huntington
Marmet,"10635 Maccorkle Ave, Marmet, WV, 25315",(304) 949-6124,West Virginia,Marmet
Patteson,"350 Patteson Dr, Morgantown, WV, 26505",(304) 599-5324,West Virginia,Morgantown
Sabraton,"1851 Earl L Core Rd, Morgantown, WV, 26505",(304) 296-7146,West Virginia,Morgantown
Suncrest,"500 Suncrest Town Centre Dr, Morgantown, WV, 26505",(304) 285-6780,West Virginia,Morgantown
Moundsville,"1212 Lafayette Ave, Moundsville, WV, 26041",(304) 845-8116,West Virginia,Moundsville
Logan,"25 Holden Rd, Mt Gay, WV, 25637",(304) 239-2261,West Virginia,Mt Gay
Oak Hill,"411 Mall Rd, Oak Hill, WV, 25901",(304) 469-2921,West Virginia,Oak Hill
7th Street,"2007 7Th St, Parkersburg, WV, 26101",(304) 424-6369,West Virginia,Parkersburg
Division,"930 Division St, Parkersburg, WV, 26101",(304) 428-8533,West Virginia,Parkersburg
Princeton,"1229 Stafford Dr, Princeton, WV, 24740",(304) 487-6136,West Virginia,Princeton
Rainelle,"406 John Raine Dr, Rainelle, WV, 25962",(304) 438-8951,West Virginia,Rainelle
Ripley,"106 McGraw St, Ripley, WV, 25271",(304) 372-8221,West Virginia,Ripley
Fairlea,"178 Red Oaks Shopping Ctr, Ronceverte, WV, 24970",(304) 645-7411,West Virginia,Ronceverte
St Albans,"1439 Maccorkle Ave, Saint Albans, WV, 25177",(304) 722-4248,West Virginia,Saint Albans
Scott Depot,"101 Great Teays Blvd, Scott Depot, WV, 25560",(304) 757-7915,West Virginia,Scott Depot
S Charleston,"5 River Walk Mall, South Charleston, WV, 25303",(304) 744-1472,West Virginia,South Charleston
Weirton,"100 Saint Thomas Dr, Weirton, WV, 26062",(304) 723-5165,West Virginia,Weirton
Wellsburg,"91 27Th St, Wellsburg, WV, 26070",(304) 243-6220,West Virginia,Wellsburg
Mt DeChantal,"200 Mount De Chantal Rd, Wheeling, WV, 26003",(304) 233-5480,West Virginia,Wheeling
Warwood,"1241 Warwood Ave, Wheeling, WV, 26003",(304) 277-3260,West Virginia,Wheeling
